type,id,geometry_type,geometry_coordinates,properties_@featureType,properties__id,properties_EvseStatus,properties_lastUpdate,properties_ValueAddedServices,properties_Plugs,properties_GeoCoordinates_DecimalDegree_Latitude,properties_GeoCoordinates_DecimalDegree_Longitude,properties_OperatorID,properties_AuthenticationModes,properties_CalibrationLawDataAvailability,properties_AccessibilityLocation,properties_ChargingStationId,properties_HotlinePhoneNumber,properties_IsOpen24Hours,properties_Address_PostalCode,properties_Address_City,properties_Address_Street,properties_Address_Country,properties_Address_ParkingFacility,properties_Address_HouseNum,properties_PaymentOptions,properties_IsHubjectCompatible,properties_ChargingFacilities,properties_RenewableEnergy,properties_ChargingStationNames,properties_EvseID,properties_Accessibility,properties_DynamicInfoAvailable,properties_GeoCoordinates_Google_Coordinates,properties_SubOperatorName,properties_DynamicPowerLevel,properties_MaxCapacity,properties_AdditionalInfo,properties_deltaType,properties_Address_Floor,properties_Address_TimeZone,properties_HubOperatorID
Feature,CH*SWIEE112825,Point,"[8.503611, 47.420278]",evse,CH*SWIEE112825,Available,2024-03-22 03:15:09.493000+00:00,None,"['CCS Combo 2 Plug (Cable Attached)', 'CHAdeMO']",,,CH*SWISSCHARGE,"['NFC RFID Classic', 'REMOTE']",Not Available,OnStreet,CH*SWIEE112824,+41713881150,True,0,Zürich,Wehntalerstrasse,CHE,,0,Direct,True,"[{'Power': 50, 'PowerType': 'DC'}, {'Power': 50, 'PowerType': 'DC'}]",False,"[{'lang': 'de', 'value': 'ewz Wehntalerstrasse DC'}]",CH*SWIEE112825,Free publicly accessible,true,47.420278 8.503611,,,,,insert,,UTC+01:00,CH*SWISSCHARGE
Feature,CH*SWIEE112824,Point,"[8.503611, 47.420278]",evse,CH*SWIEE112824,Available,2024-03-22 03:15:09.493000+00:00,None,Type 2 Outlet,,,CH*SWISSCHARGE,"['NFC RFID Classic', 'REMOTE']",Not Available,OnStreet,CH*SWIEE112824,+41713881150,True,0,Zürich,Wehntalerstrasse,CHE,,0,Direct,True,"[{'Power': 43, 'PowerType': 'AC_3_PHASE'}]",False,"[{'lang': 'de', 'value': 'ewz Wehntalerstrasse DC'}]",CH*SWIEE112824,Free publicly accessible,true,47.420278 8.503611,,,,,insert,,UTC+01:00,CH*SWISSCHARGE
Feature,CH*SWIEE117606,Point,"[8.48591995, 47.39673789]",evse,CH*SWIEE117606,Occupied,2024-03-22 03:15:09.498000+00:00,None,Type 2 Outlet,,,CH*SWISSCHARGE,"['NFC RFID Classic', 'REMOTE']",Not Available,OnStreet,CH*SWIEE117606,+41713881150,True,0,Zürich,Grünauring 42,CHE,,0,Direct,True,"[{'Power': 22, 'PowerType': 'AC_3_PHASE'}]",False,"[{'lang': 'de', 'value': 'Grünauring 42 Zürich  8064 PP3'}]",CH*SWIEE117606,Free publicly accessible,true,47.39673789 8.48591995,,,,,insert,,UTC+01:00,CH*SWISSCHARGE
Feature,CH*SWIEE130046,Point,"[8.55247418, 47.37942158]",evse,CH*SWIEE130046,Occupied,2024-03-22 03:15:09.514000+00:00,None,Type 2 Outlet,,,CH*SWISSCHARGE,"['NFC RFID Classic', 'REMOTE']",Not Available,OnStreet,CH*SWIEE130046,+41713881150,True,0,Zürich,Huttenstrasse 63,CHE,,0,Direct,True,"[{'Power': 22, 'PowerType': 'AC_3_PHASE'}]",False,"[{'lang': 'de', 'value': 'ewz Huttenstrasse 63 '}]",CH*SWIEE130046,Free publicly accessible,true,47.37942158 8.55247418,,,,,insert,,UTC+01:00,CH*SWISSCHARGE
Feature,CH*SWIEE130054,Point,"[8.50533068, 47.3955898]",evse,CH*SWIEE130054,Available,2024-03-22 03:15:09.514000+00:00,None,Type 2 Outlet,,,CH*SWISSCHARGE,"['NFC RFID Classic', 'REMOTE']",Not Available,OnStreet,CH*SWIEE130054,+41713881150,True,0,Zürich,Am Wasser 55,CHE,,0,Direct,True,"[{'Power': 43, 'PowerType': 'AC_3_PHASE'}]",False,"[{'lang': 'de', 'value': 'ewz Am Wasser 55 DC'}]",CH*SWIEE130054,Free publicly accessible,true,47.3955898 8.50533068,,,,,insert,,UTC+01:00,CH*SWISSCHARGE
Feature,CH*SWIEE223509,Point,"[8.51948463, 47.34015476]",evse,CH*SWIEE223509,Available,2024-03-22 03:15:09.514000+00:00,None,CCS Combo 2 Plug (Cable Attached),,,CH*SWISSCHARGE,"['NFC RFID Classic', 'REMOTE']",Not Available,OnStreet,CH*SWIEE130000,+41713881150,True,0,Zürich,Allmendstrasse 121,CHE,,0,Direct,True,"[{'Power': 100, 'PowerType': 'DC'}]",False,"[{'lang': 'de', 'value': 'SOCAR Tankstelle Manegg'}]",CH*SWIEE223509,Free publicly accessible,true,47.34015476 8.51948463,,,,,insert,,UTC+01:00,CH*SWISSCHARGE
Feature,CH*SWIEE223510,Point,"[8.51948463, 47.34015476]",evse,CH*SWIEE223510,Available,2024-03-22 03:15:09.514000+00:00,None,CCS Combo 2 Plug (Cable Attached),,,CH*SWISSCHARGE,"['NFC RFID Classic', 'REMOTE']",Not Available,OnStreet,CH*SWIEE130000,+41713881150,True,0,Zürich,Allmendstrasse 121,CHE,,0,Direct,True,"[{'Power': 100, 'PowerType': 'DC'}]",False,"[{'lang': 'de', 'value': 'SOCAR Tankstelle Manegg'}]",CH*SWIEE223510,Free publicly accessible,true,47.34015476 8.51948463,,,,,insert,,UTC+01:00,CH*SWISSCHARGE
Feature,CH*SWIEE130047,Point,"[8.55247418, 47.37942158]",evse,CH*SWIEE130047,Available,2024-03-22 03:15:09.514000+00:00,None,"['CHAdeMO', 'CCS Combo 2 Plug (Cable Attached)']",,,CH*SWISSCHARGE,"['NFC RFID Classic', 'REMOTE']",Not Available,OnStreet,CH*SWIEE130046,+41713881150,True,0,Zürich,Huttenstrasse 63,CHE,,0,Direct,True,"[{'Power': 50, 'PowerType': 'DC'}, {'Power': 50, 'PowerType': 'DC'}]",False,"[{'lang': 'de', 'value': 'ewz Huttenstrasse 63 '}]",CH*SWIEE130047,Free publicly accessible,true,47.37942158 8.55247418,,,,,insert,,UTC+01:00,CH*SWISSCHARGE
Feature,CH*SWIEE130055,Point,"[8.50533068, 47.3955898]",evse,CH*SWIEE130055,Available,2024-03-22 03:15:09.514000+00:00,None,"['CHAdeMO', 'CCS Combo 2 Plug (Cable Attached)']",,,CH*SWISSCHARGE,"['NFC RFID Classic', 'REMOTE']",Not Available,OnStreet,CH*SWIEE130054,+41713881150,True,0,Zürich,Am Wasser 55,CHE,,0,Direct,True,"[{'Power': 50, 'PowerType': 'DC'}, {'Power': 50, 'PowerType': 'DC'}]",False,"[{'lang': 'de', 'value': 'ewz Am Wasser 55 DC'}]",CH*SWIEE130055,Free publicly accessible,true,47.3955898 8.50533068,,,,,insert,,UTC+01:00,CH*SWISSCHARGE
Feature,CH*SWIEE223763,Point,"[8.49658962, 47.36845041]",evse,CH*SWIEE223763,Available,2024-03-22 03:15:09.514000+00:00,None,CCS Combo 2 Plug (Cable Attached),,,CH*SWISSCHARGE,"['NFC RFID Classic', 'REMOTE']",Not Available,OnStreet,CH*SWIEE130142,+41713881150,True,0,Zürich,Birmensdorferstrasse 484,CHE,,0,Direct,True,"[{'Power': 100, 'PowerType': 'DC'}]",False,"[{'lang': 'de', 'value': 'SOCAR Tankstelle Triemli'}]",CH*SWIEE223763,Free publicly accessible,true,47.36845041 8.49658962,,,,,insert,,UTC+01:00,CH*SWISSCHARGE
Feature,CH*SWIEE223764,Point,"[8.49658962, 47.36845041]",evse,CH*SWIEE223764,Available,2024-03-22 03:15:09.514000+00:00,None,CCS Combo 2 Plug (Cable Attached),,,CH*SWISSCHARGE,"['NFC RFID Classic', 'REMOTE']",Not Available,OnStreet,CH*SWIEE130142,+41713881150,True,0,Zürich,Birmensdorferstrasse 484,CHE,,0,Direct,True,"[{'Power': 100, 'PowerType': 'DC'}]",False,"[{'lang': 'de', 'value': 'SOCAR Tankstelle Triemli'}]",CH*SWIEE223764,Free publicly accessible,true,47.36845041 8.49658962,,,,,insert,,UTC+01:00,CH*SWISSCHARGE
Feature,CH*SWIEE130042,Point,"[8.51198911, 47.39634584]",evse,CH*SWIEE130042,Available,2024-03-22 03:15:09.514000+00:00,None,Type 2 Outlet,,,CH*SWISSCHARGE,"['NFC RFID Classic', 'REMOTE']",Not Available,OnStreet,CH*SWIEE130042,+41713881150,True,0,Zürich,Limmattalstrasse 19a,CHE,,0,Direct,True,"[{'Power': 43, 'PowerType': 'AC_3_PHASE'}]",False,"[{'lang': 'de', 'value': 'ewz Limmattalstrasse 19a DC'}]",CH*SWIEE130042,Free publicly accessible,true,47.39634584 8.51198911,,,,,insert,,UTC+01:00,CH*SWISSCHARGE
Feature,CH*SWIEE130043,Point,"[8.51198911, 47.39634584]",evse,CH*SWIEE130043,Available,2024-03-22 03:15:09.514000+00:00,None,"['CHAdeMO', 'CCS Combo 2 Plug (Cable Attached)']",,,CH*SWISSCHARGE,"['NFC RFID Classic', 'REMOTE']",Not Available,OnStreet,CH*SWIEE130042,+41713881150,True,0,Zürich,Limmattalstrasse 19a,CHE,,0,Direct,True,"[{'Power': 50, 'PowerType': 'DC'}, {'Power': 50, 'PowerType': 'DC'}]",False,"[{'lang': 'de', 'value': 'ewz Limmattalstrasse 19a DC'}]",CH*SWIEE130043,Free publicly accessible,true,47.39634584 8.51198911,,,,,insert,,UTC+01:00,CH*SWISSCHARGE
Feature,CH*SWIEE139372,Point,"[8.5491639, 47.4140528]",evse,CH*SWIEE139372,Available,2024-03-22 03:15:09.539000+00:00,None,Type 2 Outlet,,,CH*SWISSCHARGE,"['NFC RFID Classic', 'REMOTE']",Not Available,OnStreet,CH*SWIEE139372,+41713881150,True,0,Zürich,Binzmühlestrasse 90,CHE,,0,Direct,True,"[{'Power': 22, 'PowerType': 'AC_3_PHASE'}]",False,"[{'lang': 'de', 'value': 'Parkhaus Accu Zürich'}]",CH*SWIEE139372,Free publicly accessible,true,47.4140528 8.5491639,,,,,insert,,UTC+01:00,CH*SWISSCHARGE
Feature,CH*SWIEE140660,Point,"[8.506866, 47.416179]",evse,CH*SWIEE140660,Available,2024-03-22 03:15:09.542000+00:00,None,Type 2 Outlet,,,CH*SWISSCHARGE,"['NFC RFID Classic', 'REMOTE']",Not Available,OnStreet,CH*SWIEE140660,+41713881150,True,8046,Zürich,Lerchenhalde 75,CHE,,0,Direct,True,"[{'Power': 11, 'PowerType': 'AC_3_PHASE'}]",False,"[{'lang': 'de', 'value': 'Energie 360° Schauenberg'}]",CH*SWIEE140660,Free publicly accessible,true,47.416179 8.506866,,,,,insert,,UTC+01:00,CH*SWISSCHARGE
Feature,CH*SWIEE139991,Point,"[8.5525848, 47.414876]",evse,CH*SWIEE139991,Occupied,2024-03-22 03:15:09.542000+00:00,None,Type 2 Outlet,,,CH*SWISSCHARGE,"['NFC RFID Classic', 'REMOTE']",Not Available,OnStreet,CH*SWIEE139991,+41713881150,True,0,Zürich,Thurgauerstrasse 40,CHE,,0,Direct,True,"[{'Power': 22, 'PowerType': 'AC_3_PHASE'}]",False,"[{'lang': 'de', 'value': 'ewz Thurgauerstrasse 40 Zürich (Ö)'}]",CH*SWIEE139991,Free publicly accessible,true,47.414876 8.5525848,,,,,insert,,UTC+01:00,CH*SWISSCHARGE
Feature,CH*SWIEE214930,Point,"[8.5525848, 47.414876]",evse,CH*SWIEE214930,Available,2024-03-22 03:15:09.542000+00:00,None,Type 2 Outlet,,,CH*SWISSCHARGE,"['NFC RFID Classic', 'REMOTE']",Not Available,OnStreet,CH*SWIEE139991,+41713881150,True,0,Zürich,Thurgauerstrasse 40,CHE,,0,Direct,True,"[{'Power': 22, 'PowerType': 'AC_3_PHASE'}]",False,"[{'lang': 'de', 'value': 'ewz Thurgauerstrasse 40 Zürich (Ö)'}]",CH*SWIEE214930,Free publicly accessible,true,47.414876 8.5525848,,,,,insert,,UTC+01:00,CH*SWISSCHARGE
Feature,CH*SWIEE145585,Point,"[8.51733646, 47.39064793]",evse,CH*SWIEE145585,Available,2024-03-22 03:15:09.552000+00:00,None,Type 2 Outlet,,,CH*SWISSCHARGE,"['NFC RFID Classic', 'REMOTE']",Not Available,OnStreet,CH*SWIEE145592,+41713881150,True,0,Zürich,Giessereistrasse 18,CHE,,0,Direct,True,"[{'Power': 22, 'PowerType': 'AC_3_PHASE'}]",False,"[{'lang': 'de', 'value': 'ewz Giessereistrasse 18 Zürich Puls 5'}]",CH*SWIEE145585,Free publicly accessible,true,47.39064793 8.51733646,,,,,insert,,UTC+01:00,CH*SWISSCHARGE
Feature,CH*SWIEE145627,Point,"[8.51733646, 47.39064793]",evse,CH*SWIEE145627,Available,2024-03-22 03:15:09.552000+00:00,None,Type 2 Outlet,,,CH*SWISSCHARGE,"['NFC RFID Classic', 'REMOTE']",Not Available,OnStreet,CH*SWIEE145592,+41713881150,True,0,Zürich,Giessereistrasse 18,CHE,,0,Direct,True,"[{'Power': 22, 'PowerType': 'AC_3_PHASE'}]",False,"[{'lang': 'de', 'value': 'ewz Giessereistrasse 18 Zürich Puls 5'}]",CH*SWIEE145627,Free publicly accessible,true,47.39064793 8.51733646,,,,,insert,,UTC+01:00,CH*SWISSCHARGE
Feature,CH*SWIEE145565,Point,"[8.51733646, 47.39064793]",evse,CH*SWIEE145565,Available,2024-03-22 03:15:09.552000+00:00,None,Type 2 Outlet,,,CH*SWISSCHARGE,"['NFC RFID Classic', 'REMOTE']",Not Available,OnStreet,CH*SWIEE145592,+41713881150,True,0,Zürich,Giessereistrasse 18,CHE,,0,Direct,True,"[{'Power': 22, 'PowerType': 'AC_3_PHASE'}]",False,"[{'lang': 'de', 'value': 'ewz Giessereistrasse 18 Zürich Puls 5'}]",CH*SWIEE145565,Free publicly accessible,true,47.39064793 8.51733646,,,,,insert,,UTC+01:00,CH*SWISSCHARGE
Feature,CH*SWIEE145607,Point,"[8.51733646, 47.39064793]",evse,CH*SWIEE145607,Available,2024-03-22 03:15:09.552000+00:00,None,Type 2 Outlet,,,CH*SWISSCHARGE,"['NFC RFID Classic', 'REMOTE']",Not Available,OnStreet,CH*SWIEE145592,+41713881150,True,0,Zürich,Giessereistrasse 18,CHE,,0,Direct,True,"[{'Power': 22, 'PowerType': 'AC_3_PHASE'}]",False,"[{'lang': 'de', 'value': 'ewz Giessereistrasse 18 Zürich Puls 5'}]",CH*SWIEE145607,Free publicly accessible,true,47.39064793 8.51733646,,,,,insert,,UTC+01:00,CH*SWISSCHARGE
Feature,CH*SWIEE145601,Point,"[8.51733646, 47.39064793]",evse,CH*SWIEE145601,Available,2024-03-22 03:15:09.552000+00:00,None,Type 2 Outlet,,,CH*SWISSCHARGE,"['NFC RFID Classic', 'REMOTE']",Not Available,OnStreet,CH*SWIEE145592,+41713881150,True,0,Zürich,Giessereistrasse 18,CHE,,0,Direct,True,"[{'Power': 22, 'PowerType': 'AC_3_PHASE'}]",False,"[{'lang': 'de', 'value': 'ewz Giessereistrasse 18 Zürich Puls 5'}]",CH*SWIEE145601,Free publicly accessible,true,47.39064793 8.51733646,,,,,insert,,UTC+01:00,CH*SWISSCHARGE
Feature,CH*SWIEE145537,Point,"[8.51814917, 47.39037555]",evse,CH*SWIEE145537,Available,2024-03-22 03:15:09.552000+00:00,None,Type 2 Outlet,,,CH*SWISSCHARGE,"['NFC RFID Classic', 'REMOTE']",Not Available,OnStreet,CH*SWIEE145701,+41713881150,True,0,Zürich,Giessereistrasse 18,CHE,,0,Direct,True,"[{'Power': 22, 'PowerType': 'AC_3_PHASE'}]",False,"[{'lang': 'de', 'value': 'ewz Giessereistrasse 18 Zürich Puls 5'}]",CH*SWIEE145537,Free publicly accessible,true,47.39037555 8.51814917,,,,,insert,,UTC+01:00,CH*SWISSCHARGE
Feature,CH*SWIEE145613,Point,"[8.51733646, 47.39064793]",evse,CH*SWIEE145613,Available,2024-03-22 03:15:09.552000+00:00,None,Type 2 Outlet,,,CH*SWISSCHARGE,"['NFC RFID Classic', 'REMOTE']",Not Available,OnStreet,CH*SWIEE145592,+41713881150,True,0,Zürich,Giessereistrasse 18,CHE,,0,Direct,True,"[{'Power': 22, 'PowerType': 'AC_3_PHASE'}]",False,"[{'lang': 'de', 'value': 'ewz Giessereistrasse 18 Zürich Puls 5'}]",CH*SWIEE145613,Free publicly accessible,true,47.39064793 8.51733646,,,,,insert,,UTC+01:00,CH*SWISSCHARGE
Feature,CH*SWIEE145522,Point,"[8.51814917, 47.39037555]",evse,CH*SWIEE145522,Available,2024-03-22 03:15:09.552000+00:00,None,Type 2 Outlet,,,CH*SWISSCHARGE,"['NFC RFID Classic', 'REMOTE']",Not Available,OnStreet,CH*SWIEE145701,+41713881150,True,0,Zürich,Giessereistrasse 18,CHE,,0,Direct,True,"[{'Power': 22, 'PowerType': 'AC_3_PHASE'}]",False,"[{'lang': 'de', 'value': 'ewz Giessereistrasse 18 Zürich Puls 5'}]",CH*SWIEE145522,Free publicly accessible,true,47.39037555 8.51814917,,,,,insert,,UTC+01:00,CH*SWISSCHARGE
Feature,CH*SWIEE145589,Point,"[8.51733646, 47.39064793]",evse,CH*SWIEE145589,Available,2024-03-22 03:15:09.552000+00:00,None,Type 2 Outlet,,,CH*SWISSCHARGE,"['NFC RFID Classic', 'REMOTE']",Not Available,OnStreet,CH*SWIEE145592,+41713881150,True,0,Zürich,Giessereistrasse 18,CHE,,0,Direct,True,"[{'Power': 22, 'PowerType': 'AC_3_PHASE'}]",False,"[{'lang': 'de', 'value': 'ewz Giessereistrasse 18 Zürich Puls 5'}]",CH*SWIEE145589,Free publicly accessible,true,47.39064793 8.51733646,,,,,insert,,UTC+01:00,CH*SWISSCHARGE
Feature,CH*SWIEE145544,Point,"[8.51814917, 47.39037555]",evse,CH*SWIEE145544,Available,2024-03-22 03:15:09.552000+00:00,None,Type 2 Outlet,,,CH*SWISSCHARGE,"['NFC RFID Classic', 'REMOTE']",Not Available,OnStreet,CH*SWIEE145701,+41713881150,True,0,Zürich,Giessereistrasse 18,CHE,,0,Direct,True,"[{'Power': 22, 'PowerType': 'AC_3_PHASE'}]",False,"[{'lang': 'de', 'value': 'ewz Giessereistrasse 18 Zürich Puls 5'}]",CH*SWIEE145544,Free publicly accessible,true,47.39037555 8.51814917,,,,,insert,,UTC+01:00,CH*SWISSCHARGE
Feature,CH*SWIEE145557,Point,"[8.51733646, 47.39064793]",evse,CH*SWIEE145557,Available,2024-03-22 03:15:09.552000+00:00,None,Type 2 Outlet,,,CH*SWISSCHARGE,"['NFC RFID Classic', 'REMOTE']",Not Available,OnStreet,CH*SWIEE145592,+41713881150,True,0,Zürich,Giessereistrasse 18,CHE,,0,Direct,True,"[{'Power': 22, 'PowerType': 'AC_3_PHASE'}]",False,"[{'lang': 'de', 'value': 'ewz Giessereistrasse 18 Zürich Puls 5'}]",CH*SWIEE145557,Free publicly accessible,true,47.39064793 8.51733646,,,,,insert,,UTC+01:00,CH*SWISSCHARGE
Feature,CH*SWIEE145541,Point,"[8.51733646, 47.39064793]",evse,CH*SWIEE145541,Available,2024-03-22 03:15:09.552000+00:00,None,Type 2 Outlet,,,CH*SWISSCHARGE,"['NFC RFID Classic', 'REMOTE']",Not Available,OnStreet,CH*SWIEE145592,+41713881150,True,0,Zürich,Giessereistrasse 18,CHE,,0,Direct,True,"[{'Power': 22, 'PowerType': 'AC_3_PHASE'}]",False,"[{'lang': 'de', 'value': 'ewz Giessereistrasse 18 Zürich Puls 5'}]",CH*SWIEE145541,Free publicly accessible,true,47.39064793 8.51733646,,,,,insert,,UTC+01:00,CH*SWISSCHARGE
Feature,CH*SWIEE145575,Point,"[8.51814917, 47.39037555]",evse,CH*SWIEE145575,Available,2024-03-22 03:15:09.552000+00:00,None,Type 2 Outlet,,,CH*SWISSCHARGE,"['NFC RFID Classic', 'REMOTE']",Not Available,OnStreet,CH*SWIEE145701,+41713881150,True,0,Zürich,Giessereistrasse 18,CHE,,0,Direct,True,"[{'Power': 22, 'PowerType': 'AC_3_PHASE'}]",False,"[{'lang': 'de', 'value': 'ewz Giessereistrasse 18 Zürich Puls 5'}]",CH*SWIEE145575,Free publicly accessible,true,47.39037555 8.51814917,,,,,insert,,UTC+01:00,CH*SWISSCHARGE
Feature,CH*SWIEE145566,Point,"[8.51733646, 47.39064793]",evse,CH*SWIEE145566,Available,2024-03-22 03:15:09.552000+00:00,None,Type 2 Outlet,,,CH*SWISSCHARGE,"['NFC RFID Classic', 'REMOTE']",Not Available,OnStreet,CH*SWIEE145592,+41713881150,True,0,Zürich,Giessereistrasse 18,CHE,,0,Direct,True,"[{'Power': 22, 'PowerType': 'AC_3_PHASE'}]",False,"[{'lang': 'de', 'value': 'ewz Giessereistrasse 18 Zürich Puls 5'}]",CH*SWIEE145566,Free publicly accessible,true,47.39064793 8.51733646,,,,,insert,,UTC+01:00,CH*SWISSCHARGE
Feature,CH*SWIEE145590,Point,"[8.51733646, 47.39064793]",evse,CH*SWIEE145590,Available,2024-03-22 03:15:09.552000+00:00,None,Type 2 Outlet,,,CH*SWISSCHARGE,"['NFC RFID Classic', 'REMOTE']",Not Available,OnStreet,CH*SWIEE145592,+41713881150,True,0,Zürich,Giessereistrasse 18,CHE,,0,Direct,True,"[{'Power': 22, 'PowerType': 'AC_3_PHASE'}]",False,"[{'lang': 'de', 'value': 'ewz Giessereistrasse 18 Zürich Puls 5'}]",CH*SWIEE145590,Free publicly accessible,true,47.39064793 8.51733646,,,,,insert,,UTC+01:00,CH*SWISSCHARGE
Feature,CH*SWIEE145552,Point,"[8.51733646, 47.39064793]",evse,CH*SWIEE145552,Available,2024-03-22 03:15:09.552000+00:00,None,Type 2 Outlet,,,CH*SWISSCHARGE,"['NFC RFID Classic', 'REMOTE']",Not Available,OnStreet,CH*SWIEE145592,+41713881150,True,0,Zürich,Giessereistrasse 18,CHE,,0,Direct,True,"[{'Power': 22, 'PowerType': 'AC_3_PHASE'}]",False,"[{'lang': 'de', 'value': 'ewz Giessereistrasse 18 Zürich Puls 5'}]",CH*SWIEE145552,Free publicly accessible,true,47.39064793 8.51733646,,,,,insert,,UTC+01:00,CH*SWISSCHARGE
Feature,CH*SWIEE145535,Point,"[8.51814917, 47.39037555]",evse,CH*SWIEE145535,Available,2024-03-22 03:15:09.552000+00:00,None,Type 2 Outlet,,,CH*SWISSCHARGE,"['NFC RFID Classic', 'REMOTE']",Not Available,OnStreet,CH*SWIEE145701,+41713881150,True,0,Zürich,Giessereistrasse 18,CHE,,0,Direct,True,"[{'Power': 22, 'PowerType': 'AC_3_PHASE'}]",False,"[{'lang': 'de', 'value': 'ewz Giessereistrasse 18 Zürich Puls 5'}]",CH*SWIEE145535,Free publicly accessible,true,47.39037555 8.51814917,,,,,insert,,UTC+01:00,CH*SWISSCHARGE
Feature,CH*SWIEE145570,Point,"[8.51733646, 47.39064793]",evse,CH*SWIEE145570,Available,2024-03-22 03:15:09.552000+00:00,None,Type 2 Outlet,,,CH*SWISSCHARGE,"['NFC RFID Classic', 'REMOTE']",Not Available,OnStreet,CH*SWIEE145592,+41713881150,True,0,Zürich,Giessereistrasse 18,CHE,,0,Direct,True,"[{'Power': 22, 'PowerType': 'AC_3_PHASE'}]",False,"[{'lang': 'de', 'value': 'ewz Giessereistrasse 18 Zürich Puls 5'}]",CH*SWIEE145570,Free publicly accessible,true,47.39064793 8.51733646,,,,,insert,,UTC+01:00,CH*SWISSCHARGE
Feature,CH*SWIEE145569,Point,"[8.51814917, 47.39037555]",evse,CH*SWIEE145569,Occupied,2024-03-22 03:15:09.552000+00:00,None,Type 2 Outlet,,,CH*SWISSCHARGE,"['NFC RFID Classic', 'REMOTE']",Not Available,OnStreet,CH*SWIEE145701,+41713881150,True,0,Zürich,Giessereistrasse 18,CHE,,0,Direct,True,"[{'Power': 22, 'PowerType': 'AC_3_PHASE'}]",False,"[{'lang': 'de', 'value': 'ewz Giessereistrasse 18 Zürich Puls 5'}]",CH*SWIEE145569,Free publicly accessible,true,47.39037555 8.51814917,,,,,insert,,UTC+01:00,CH*SWISSCHARGE
Feature,CH*SWIEE145592,Point,"[8.51733646, 47.39064793]",evse,CH*SWIEE145592,Available,2024-03-22 03:15:09.552000+00:00,None,Type 2 Outlet,,,CH*SWISSCHARGE,"['NFC RFID Classic', 'REMOTE']",Not Available,OnStreet,CH*SWIEE145592,+41713881150,True,0,Zürich,Giessereistrasse 18,CHE,,0,Direct,True,"[{'Power': 22, 'PowerType': 'AC_3_PHASE'}]",False,"[{'lang': 'de', 'value': 'ewz Giessereistrasse 18 Zürich Puls 5'}]",CH*SWIEE145592,Free publicly accessible,true,47.39064793 8.51733646,,,,,insert,,UTC+01:00,CH*SWISSCHARGE
Feature,CH*SWIEE145546,Point,"[8.51814917, 47.39037555]",evse,CH*SWIEE145546,Available,2024-03-22 03:15:09.552000+00:00,None,Type 2 Outlet,,,CH*SWISSCHARGE,"['NFC RFID Classic', 'REMOTE']",Not Available,OnStreet,CH*SWIEE145701,+41713881150,True,0,Zürich,Giessereistrasse 18,CHE,,0,Direct,True,"[{'Power': 22, 'PowerType': 'AC_3_PHASE'}]",False,"[{'lang': 'de', 'value': 'ewz Giessereistrasse 18 Zürich Puls 5'}]",CH*SWIEE145546,Free publicly accessible,true,47.39037555 8.51814917,,,,,insert,,UTC+01:00,CH*SWISSCHARGE
Feature,CH*SWIEE145529,Point,"[8.51814917, 47.39037555]",evse,CH*SWIEE145529,Available,2024-03-22 03:15:09.552000+00:00,None,Type 2 Outlet,,,CH*SWISSCHARGE,"['NFC RFID Classic', 'REMOTE']",Not Available,OnStreet,CH*SWIEE145701,+41713881150,True,0,Zürich,Giessereistrasse 18,CHE,,0,Direct,True,"[{'Power': 22, 'PowerType': 'AC_3_PHASE'}]",False,"[{'lang': 'de', 'value': 'ewz Giessereistrasse 18 Zürich Puls 5'}]",CH*SWIEE145529,Free publicly accessible,true,47.39037555 8.51814917,,,,,insert,,UTC+01:00,CH*SWISSCHARGE
Feature,CH*SWIEE145532,Point,"[8.51814917, 47.39037555]",evse,CH*SWIEE145532,Available,2024-03-22 03:15:09.552000+00:00,None,Type 2 Outlet,,,CH*SWISSCHARGE,"['NFC RFID Classic', 'REMOTE']",Not Available,OnStreet,CH*SWIEE145701,+41713881150,True,0,Zürich,Giessereistrasse 18,CHE,,0,Direct,True,"[{'Power': 22, 'PowerType': 'AC_3_PHASE'}]",False,"[{'lang': 'de', 'value': 'ewz Giessereistrasse 18 Zürich Puls 5'}]",CH*SWIEE145532,Free publicly accessible,true,47.39037555 8.51814917,,,,,insert,,UTC+01:00,CH*SWISSCHARGE
Feature,CH*SWIEE145609,Point,"[8.51733646, 47.39064793]",evse,CH*SWIEE145609,Available,2024-03-22 03:15:09.552000+00:00,None,Type 2 Outlet,,,CH*SWISSCHARGE,"['NFC RFID Classic', 'REMOTE']",Not Available,OnStreet,CH*SWIEE145592,+41713881150,True,0,Zürich,Giessereistrasse 18,CHE,,0,Direct,True,"[{'Power': 22, 'PowerType': 'AC_3_PHASE'}]",False,"[{'lang': 'de', 'value': 'ewz Giessereistrasse 18 Zürich Puls 5'}]",CH*SWIEE145609,Free publicly accessible,true,47.39064793 8.51733646,,,,,insert,,UTC+01:00,CH*SWISSCHARGE
Feature,CH*SWIEE145525,Point,"[8.51814917, 47.39037555]",evse,CH*SWIEE145525,Available,2024-03-22 03:15:09.552000+00:00,None,Type 2 Outlet,,,CH*SWISSCHARGE,"['NFC RFID Classic', 'REMOTE']",Not Available,OnStreet,CH*SWIEE145701,+41713881150,True,0,Zürich,Giessereistrasse 18,CHE,,0,Direct,True,"[{'Power': 22, 'PowerType': 'AC_3_PHASE'}]",False,"[{'lang': 'de', 'value': 'ewz Giessereistrasse 18 Zürich Puls 5'}]",CH*SWIEE145525,Free publicly accessible,true,47.39037555 8.51814917,,,,,insert,,UTC+01:00,CH*SWISSCHARGE
Feature,CH*SWIEE145591,Point,"[8.51814917, 47.39037555]",evse,CH*SWIEE145591,Available,2024-03-22 03:15:09.552000+00:00,None,Type 2 Outlet,,,CH*SWISSCHARGE,"['NFC RFID Classic', 'REMOTE']",Not Available,OnStreet,CH*SWIEE145701,+41713881150,True,0,Zürich,Giessereistrasse 18,CHE,,0,Direct,True,"[{'Power': 22, 'PowerType': 'AC_3_PHASE'}]",False,"[{'lang': 'de', 'value': 'ewz Giessereistrasse 18 Zürich Puls 5'}]",CH*SWIEE145591,Free publicly accessible,true,47.39037555 8.51814917,,,,,insert,,UTC+01:00,CH*SWISSCHARGE
Feature,CH*SWIEE145608,Point,"[8.51814917, 47.39037555]",evse,CH*SWIEE145608,Available,2024-03-22 03:15:09.552000+00:00,None,Type 2 Outlet,,,CH*SWISSCHARGE,"['NFC RFID Classic', 'REMOTE']",Not Available,OnStreet,CH*SWIEE145701,+41713881150,True,0,Zürich,Giessereistrasse 18,CHE,,0,Direct,True,"[{'Power': 22, 'PowerType': 'AC_3_PHASE'}]",False,"[{'lang': 'de', 'value': 'ewz Giessereistrasse 18 Zürich Puls 5'}]",CH*SWIEE145608,Free publicly accessible,true,47.39037555 8.51814917,,,,,insert,,UTC+01:00,CH*SWISSCHARGE
Feature,CH*SWIEE145611,Point,"[8.51814917, 47.39037555]",evse,CH*SWIEE145611,Available,2024-03-22 03:15:09.552000+00:00,None,Type 2 Outlet,,,CH*SWISSCHARGE,"['NFC RFID Classic', 'REMOTE']",Not Available,OnStreet,CH*SWIEE145701,+41713881150,True,0,Zürich,Giessereistrasse 18,CHE,,0,Direct,True,"[{'Power': 22, 'PowerType': 'AC_3_PHASE'}]",False,"[{'lang': 'de', 'value': 'ewz Giessereistrasse 18 Zürich Puls 5'}]",CH*SWIEE145611,Free publicly accessible,true,47.39037555 8.51814917,,,,,insert,,UTC+01:00,CH*SWISSCHARGE
Feature,CH*SWIEE145625,Point,"[8.51814917, 47.39037555]",evse,CH*SWIEE145625,Available,2024-03-22 03:15:09.552000+00:00,None,Type 2 Outlet,,,CH*SWISSCHARGE,"['NFC RFID Classic', 'REMOTE']",Not Available,OnStreet,CH*SWIEE145701,+41713881150,True,0,Zürich,Giessereistrasse 18,CHE,,0,Direct,True,"[{'Power': 22, 'PowerType': 'AC_3_PHASE'}]",False,"[{'lang': 'de', 'value': 'ewz Giessereistrasse 18 Zürich Puls 5'}]",CH*SWIEE145625,Free publicly accessible,true,47.39037555 8.51814917,,,,,insert,,UTC+01:00,CH*SWISSCHARGE
Feature,CH*SWIEE145630,Point,"[8.51814917, 47.39037555]",evse,CH*SWIEE145630,Available,2024-03-22 03:15:09.552000+00:00,None,Type 2 Outlet,,,CH*SWISSCHARGE,"['NFC RFID Classic', 'REMOTE']",Not Available,OnStreet,CH*SWIEE145701,+41713881150,True,0,Zürich,Giessereistrasse 18,CHE,,0,Direct,True,"[{'Power': 22, 'PowerType': 'AC_3_PHASE'}]",False,"[{'lang': 'de', 'value': 'ewz Giessereistrasse 18 Zürich Puls 5'}]",CH*SWIEE145630,Free publicly accessible,true,47.39037555 8.51814917,,,,,insert,,UTC+01:00,CH*SWISSCHARGE
Feature,CH*SWIEE145711,Point,"[8.51814917, 47.39037555]",evse,CH*SWIEE145711,Available,2024-03-22 03:15:09.552000+00:00,None,Type 2 Outlet,,,CH*SWISSCHARGE,"['NFC RFID Classic', 'REMOTE']",Not Available,OnStreet,CH*SWIEE145701,+41713881150,True,0,Zürich,Giessereistrasse 18,CHE,,0,Direct,True,"[{'Power': 22, 'PowerType': 'AC_3_PHASE'}]",False,"[{'lang': 'de', 'value': 'ewz Giessereistrasse 18 Zürich Puls 5'}]",CH*SWIEE145711,Free publicly accessible,true,47.39037555 8.51814917,,,,,insert,,UTC+01:00,CH*SWISSCHARGE
Feature,CH*SWIEE145701,Point,"[8.51814917, 47.39037555]",evse,CH*SWIEE145701,Available,2024-03-22 03:15:09.552000+00:00,None,Type 2 Outlet,,,CH*SWISSCHARGE,"['NFC RFID Classic', 'REMOTE']",Not Available,OnStreet,CH*SWIEE145701,+41713881150,True,0,Zürich,Giessereistrasse 18,CHE,,0,Direct,True,"[{'Power': 22, 'PowerType': 'AC_3_PHASE'}]",False,"[{'lang': 'de', 'value': 'ewz Giessereistrasse 18 Zürich Puls 5'}]",CH*SWIEE145701,Free publicly accessible,true,47.39037555 8.51814917,,,,,insert,,UTC+01:00,CH*SWISSCHARGE
Feature,CH*SWIEE145530,Point,"[8.51788631, 47.39046635]",evse,CH*SWIEE145530,Available,2024-03-22 03:15:09.553000+00:00,None,Type 2 Outlet,,,CH*SWISSCHARGE,"['NFC RFID Classic', 'REMOTE']",Not Available,OnStreet,CH*SWIEE147279,+41713881150,True,0,Zürich,Giessereistrasse 18,CHE,,0,Direct,True,"[{'Power': 22, 'PowerType': 'AC_3_PHASE'}]",False,"[{'lang': 'de', 'value': 'Puls 5 (Ö) Giessereistrasse 18 Zürich'}]",CH*SWIEE145530,Free publicly accessible,true,47.39046635 8.51788631,,,,,insert,,UTC+01:00,CH*SWISSCHARGE
Feature,CH*SWIEE145523,Point,"[8.51788631, 47.39046635]",evse,CH*SWIEE145523,Available,2024-03-22 03:15:09.553000+00:00,None,Type 2 Outlet,,,CH*SWISSCHARGE,"['NFC RFID Classic', 'REMOTE']",Not Available,OnStreet,CH*SWIEE147279,+41713881150,True,0,Zürich,Giessereistrasse 18,CHE,,0,Direct,True,"[{'Power': 22, 'PowerType': 'AC_3_PHASE'}]",False,"[{'lang': 'de', 'value': 'Puls 5 (Ö) Giessereistrasse 18 Zürich'}]",CH*SWIEE145523,Free publicly accessible,true,47.39046635 8.51788631,,,,,insert,,UTC+01:00,CH*SWISSCHARGE
Feature,CH*SWIEE145527,Point,"[8.51788631, 47.39046635]",evse,CH*SWIEE145527,Available,2024-03-22 03:15:09.553000+00:00,None,Type 2 Outlet,,,CH*SWISSCHARGE,"['NFC RFID Classic', 'REMOTE']",Not Available,OnStreet,CH*SWIEE147279,+41713881150,True,0,Zürich,Giessereistrasse 18,CHE,,0,Direct,True,"[{'Power': 22, 'PowerType': 'AC_3_PHASE'}]",False,"[{'lang': 'de', 'value': 'Puls 5 (Ö) Giessereistrasse 18 Zürich'}]",CH*SWIEE145527,Free publicly accessible,true,47.39046635 8.51788631,,,,,insert,,UTC+01:00,CH*SWISSCHARGE
Feature,CH*SWIEE145572,Point,"[8.51788631, 47.39046635]",evse,CH*SWIEE145572,Available,2024-03-22 03:15:09.553000+00:00,None,Type 2 Outlet,,,CH*SWISSCHARGE,"['NFC RFID Classic', 'REMOTE']",Not Available,OnStreet,CH*SWIEE147279,+41713881150,True,0,Zürich,Giessereistrasse 18,CHE,,0,Direct,True,"[{'Power': 22, 'PowerType': 'AC_3_PHASE'}]",False,"[{'lang': 'de', 'value': 'Puls 5 (Ö) Giessereistrasse 18 Zürich'}]",CH*SWIEE145572,Free publicly accessible,true,47.39046635 8.51788631,,,,,insert,,UTC+01:00,CH*SWISSCHARGE
Feature,CH*SWIEE145524,Point,"[8.51788631, 47.39046635]",evse,CH*SWIEE145524,Available,2024-03-22 03:15:09.553000+00:00,None,Type 2 Outlet,,,CH*SWISSCHARGE,"['NFC RFID Classic', 'REMOTE']",Not Available,OnStreet,CH*SWIEE147279,+41713881150,True,0,Zürich,Giessereistrasse 18,CHE,,0,Direct,True,"[{'Power': 22, 'PowerType': 'AC_3_PHASE'}]",False,"[{'lang': 'de', 'value': 'Puls 5 (Ö) Giessereistrasse 18 Zürich'}]",CH*SWIEE145524,Free publicly accessible,true,47.39046635 8.51788631,,,,,insert,,UTC+01:00,CH*SWISSCHARGE
Feature,CH*SWIEE145536,Point,"[8.51788631, 47.39046635]",evse,CH*SWIEE145536,Available,2024-03-22 03:15:09.553000+00:00,None,Type 2 Outlet,,,CH*SWISSCHARGE,"['NFC RFID Classic', 'REMOTE']",Not Available,OnStreet,CH*SWIEE147279,+41713881150,True,0,Zürich,Giessereistrasse 18,CHE,,0,Direct,True,"[{'Power': 22, 'PowerType': 'AC_3_PHASE'}]",False,"[{'lang': 'de', 'value': 'Puls 5 (Ö) Giessereistrasse 18 Zürich'}]",CH*SWIEE145536,Free publicly accessible,true,47.39046635 8.51788631,,,,,insert,,UTC+01:00,CH*SWISSCHARGE
Feature,CH*SWIEE145568,Point,"[8.51788631, 47.39046635]",evse,CH*SWIEE145568,Occupied,2024-03-22 03:15:09.553000+00:00,None,Type 2 Outlet,,,CH*SWISSCHARGE,"['NFC RFID Classic', 'REMOTE']",Not Available,OnStreet,CH*SWIEE147279,+41713881150,True,0,Zürich,Giessereistrasse 18,CHE,,0,Direct,True,"[{'Power': 22, 'PowerType': 'AC_3_PHASE'}]",False,"[{'lang': 'de', 'value': 'Puls 5 (Ö) Giessereistrasse 18 Zürich'}]",CH*SWIEE145568,Free publicly accessible,true,47.39046635 8.51788631,,,,,insert,,UTC+01:00,CH*SWISSCHARGE
Feature,CH*SWIEE145573,Point,"[8.51788631, 47.39046635]",evse,CH*SWIEE145573,Available,2024-03-22 03:15:09.553000+00:00,None,Type 2 Outlet,,,CH*SWISSCHARGE,"['NFC RFID Classic', 'REMOTE']",Not Available,OnStreet,CH*SWIEE147279,+41713881150,True,0,Zürich,Giessereistrasse 18,CHE,,0,Direct,True,"[{'Power': 22, 'PowerType': 'AC_3_PHASE'}]",False,"[{'lang': 'de', 'value': 'Puls 5 (Ö) Giessereistrasse 18 Zürich'}]",CH*SWIEE145573,Free publicly accessible,true,47.39046635 8.51788631,,,,,insert,,UTC+01:00,CH*SWISSCHARGE
Feature,CH*SWIEE145542,Point,"[8.51788631, 47.39046635]",evse,CH*SWIEE145542,Available,2024-03-22 03:15:09.553000+00:00,None,Type 2 Outlet,,,CH*SWISSCHARGE,"['NFC RFID Classic', 'REMOTE']",Not Available,OnStreet,CH*SWIEE147279,+41713881150,True,0,Zürich,Giessereistrasse 18,CHE,,0,Direct,True,"[{'Power': 22, 'PowerType': 'AC_3_PHASE'}]",False,"[{'lang': 'de', 'value': 'Puls 5 (Ö) Giessereistrasse 18 Zürich'}]",CH*SWIEE145542,Free publicly accessible,true,47.39046635 8.51788631,,,,,insert,,UTC+01:00,CH*SWISSCHARGE
Feature,CH*SWIEE145581,Point,"[8.51788631, 47.39046635]",evse,CH*SWIEE145581,Available,2024-03-22 03:15:09.553000+00:00,None,Type 2 Outlet,,,CH*SWISSCHARGE,"['NFC RFID Classic', 'REMOTE']",Not Available,OnStreet,CH*SWIEE147279,+41713881150,True,0,Zürich,Giessereistrasse 18,CHE,,0,Direct,True,"[{'Power': 22, 'PowerType': 'AC_3_PHASE'}]",False,"[{'lang': 'de', 'value': 'Puls 5 (Ö) Giessereistrasse 18 Zürich'}]",CH*SWIEE145581,Free publicly accessible,true,47.39046635 8.51788631,,,,,insert,,UTC+01:00,CH*SWISSCHARGE
Feature,CH*SWIEE145580,Point,"[8.51788631, 47.39046635]",evse,CH*SWIEE145580,Available,2024-03-22 03:15:09.553000+00:00,None,Type 2 Outlet,,,CH*SWISSCHARGE,"['NFC RFID Classic', 'REMOTE']",Not Available,OnStreet,CH*SWIEE147279,+41713881150,True,0,Zürich,Giessereistrasse 18,CHE,,0,Direct,True,"[{'Power': 22, 'PowerType': 'AC_3_PHASE'}]",False,"[{'lang': 'de', 'value': 'Puls 5 (Ö) Giessereistrasse 18 Zürich'}]",CH*SWIEE145580,Free publicly accessible,true,47.39046635 8.51788631,,,,,insert,,UTC+01:00,CH*SWISSCHARGE
Feature,CH*SWIEE145629,Point,"[8.51788631, 47.39046635]",evse,CH*SWIEE145629,Available,2024-03-22 03:15:09.553000+00:00,None,Type 2 Outlet,,,CH*SWISSCHARGE,"['NFC RFID Classic', 'REMOTE']",Not Available,OnStreet,CH*SWIEE147279,+41713881150,True,0,Zürich,Giessereistrasse 18,CHE,,0,Direct,True,"[{'Power': 22, 'PowerType': 'AC_3_PHASE'}]",False,"[{'lang': 'de', 'value': 'Puls 5 (Ö) Giessereistrasse 18 Zürich'}]",CH*SWIEE145629,Free publicly accessible,true,47.39046635 8.51788631,,,,,insert,,UTC+01:00,CH*SWISSCHARGE
Feature,CH*SWIEE147604,Point,"[8.496389, 47.367778]",evse,CH*SWIEE147604,Available,2024-03-22 03:15:09.554000+00:00,None,Type 2 Outlet,,,CH*SWISSCHARGE,"['NFC RFID Classic', 'REMOTE']",Not Available,OnStreet,CH*SWIEE147604,+41713881150,True,0,Zürich,Paul-Clairmont-Strasse 6,CHE,,0,Direct,True,"[{'Power': 43, 'PowerType': 'AC_3_PHASE'}]",False,"[{'lang': 'de', 'value': 'Paul-Clairmont-Strasse 6, DC'}]",CH*SWIEE147604,Free publicly accessible,true,47.367778 8.496389,,,,,insert,,UTC+01:00,CH*SWISSCHARGE
Feature,CH*SWIEE145615,Point,"[8.51788631, 47.39046635]",evse,CH*SWIEE145615,Available,2024-03-22 03:15:09.553000+00:00,None,Type 2 Outlet,,,CH*SWISSCHARGE,"['NFC RFID Classic', 'REMOTE']",Not Available,OnStreet,CH*SWIEE147279,+41713881150,True,0,Zürich,Giessereistrasse 18,CHE,,0,Direct,True,"[{'Power': 22, 'PowerType': 'AC_3_PHASE'}]",False,"[{'lang': 'de', 'value': 'Puls 5 (Ö) Giessereistrasse 18 Zürich'}]",CH*SWIEE145615,Free publicly accessible,true,47.39046635 8.51788631,,,,,insert,,UTC+01:00,CH*SWISSCHARGE
Feature,CH*SWIEE145620,Point,"[8.51788631, 47.39046635]",evse,CH*SWIEE145620,Available,2024-03-22 03:15:09.553000+00:00,None,Type 2 Outlet,,,CH*SWISSCHARGE,"['NFC RFID Classic', 'REMOTE']",Not Available,OnStreet,CH*SWIEE147279,+41713881150,True,0,Zürich,Giessereistrasse 18,CHE,,0,Direct,True,"[{'Power': 22, 'PowerType': 'AC_3_PHASE'}]",False,"[{'lang': 'de', 'value': 'Puls 5 (Ö) Giessereistrasse 18 Zürich'}]",CH*SWIEE145620,Free publicly accessible,true,47.39046635 8.51788631,,,,,insert,,UTC+01:00,CH*SWISSCHARGE
Feature,CH*SWIEE147605,Point,"[8.496389, 47.367778]",evse,CH*SWIEE147605,Available,2024-03-22 03:15:09.554000+00:00,None,"['CCS Combo 2 Plug (Cable Attached)', 'CHAdeMO']",,,CH*SWISSCHARGE,"['NFC RFID Classic', 'REMOTE']",Not Available,OnStreet,CH*SWIEE147604,+41713881150,True,0,Zürich,Paul-Clairmont-Strasse 6,CHE,,0,Direct,True,"[{'Power': 50, 'PowerType': 'DC'}, {'Power': 50, 'PowerType': 'DC'}]",False,"[{'lang': 'de', 'value': 'Paul-Clairmont-Strasse 6, DC'}]",CH*SWIEE147605,Free publicly accessible,true,47.367778 8.496389,,,,,insert,,UTC+01:00,CH*SWISSCHARGE
Feature,CH*SWIEE151959,Point,"[8.56716, 47.38261]",evse,CH*SWIEE151959,Available,2024-03-22 03:15:09.560000+00:00,None,Type 2 Outlet,,,CH*SWISSCHARGE,"['NFC RFID Classic', 'REMOTE']",Not Available,OnStreet,CH*SWIEE151958,+41713881150,True,0,Zürich,Orellistrasse 21,CHE,,0,Direct,True,"[{'Power': 22, 'PowerType': 'AC_3_PHASE'}]",False,"[{'lang': 'de', 'value': 'Sorell Hotel Garage PP 21'}]",CH*SWIEE151959,Free publicly accessible,true,47.38261 8.56716,,,,,insert,,UTC+01:00,CH*SWISSCHARGE
Feature,CH*SWIEE151958,Point,"[8.56716, 47.38261]",evse,CH*SWIEE151958,Available,2024-03-22 03:15:09.560000+00:00,None,Type 2 Outlet,,,CH*SWISSCHARGE,"['NFC RFID Classic', 'REMOTE']",Not Available,OnStreet,CH*SWIEE151958,+41713881150,True,0,Zürich,Orellistrasse 21,CHE,,0,Direct,True,"[{'Power': 22, 'PowerType': 'AC_3_PHASE'}]",False,"[{'lang': 'de', 'value': 'Sorell Hotel Garage PP 21'}]",CH*SWIEE151958,Free publicly accessible,true,47.38261 8.56716,,,,,insert,,UTC+01:00,CH*SWISSCHARGE
Feature,CH*SWIEE158551,Point,"[8.5568084, 47.4193147]",evse,CH*SWIEE158551,Occupied,2024-03-22 03:15:09.562000+00:00,None,Type 2 Outlet,,,CH*SWISSCHARGE,"['NFC RFID Classic', 'REMOTE']",Not Available,OnStreet,CH*SWIEE158550,+41713881150,True,0,Zürich,Schärenmoosstrasse 77,CHE,,0,Direct,True,"[{'Power': 22, 'PowerType': 'AC_3_PHASE'}]",False,"[{'lang': 'de', 'value': 'Schärenmoosstrasse 77, 8052 Zürich'}]",CH*SWIEE158551,Free publicly accessible,true,47.4193147 8.5568084,,,,,insert,,UTC+01:00,CH*SWISSCHARGE
Feature,CH*SWIEE158550,Point,"[8.5568084, 47.4193147]",evse,CH*SWIEE158550,Available,2024-03-22 03:15:09.562000+00:00,None,Type 2 Outlet,,,CH*SWISSCHARGE,"['NFC RFID Classic', 'REMOTE']",Not Available,OnStreet,CH*SWIEE158550,+41713881150,True,0,Zürich,Schärenmoosstrasse 77,CHE,,0,Direct,True,"[{'Power': 22, 'PowerType': 'AC_3_PHASE'}]",False,"[{'lang': 'de', 'value': 'Schärenmoosstrasse 77, 8052 Zürich'}]",CH*SWIEE158550,Free publicly accessible,true,47.4193147 8.5568084,,,,,insert,,UTC+01:00,CH*SWISSCHARGE
Feature,CH*SWIEE158552,Point,"[8.5568084, 47.4193147]",evse,CH*SWIEE158552,Occupied,2024-03-22 03:15:09.562000+00:00,None,Type 2 Outlet,,,CH*SWISSCHARGE,"['NFC RFID Classic', 'REMOTE']",Not Available,OnStreet,CH*SWIEE158550,+41713881150,True,0,Zürich,Schärenmoosstrasse 77,CHE,,0,Direct,True,"[{'Power': 22, 'PowerType': 'AC_3_PHASE'}]",False,"[{'lang': 'de', 'value': 'Schärenmoosstrasse 77, 8052 Zürich'}]",CH*SWIEE158552,Free publicly accessible,true,47.4193147 8.5568084,,,,,insert,,UTC+01:00,CH*SWISSCHARGE
Feature,CH*SWIEE159790,Point,"[8.560278, 47.3625]",evse,CH*SWIEE159790,Occupied,2024-03-22 03:15:09.563000+00:00,None,Type 2 Outlet,,,CH*SWISSCHARGE,"['NFC RFID Classic', 'REMOTE']",Not Available,OnStreet,CH*SWIEE159790,+41713881150,True,0,Zürich,Forchstrasse 95,CHE,,0,Direct,True,,False,"[{'lang': 'de', 'value': 'ewz Forchstrasse 95'}]",CH*SWIEE159790,Free publicly accessible,true,47.3625 8.560278,,,,,insert,,UTC+01:00,CH*SWISSCHARGE
Feature,CH*SWIEE159791,Point,"[8.560278, 47.3625]",evse,CH*SWIEE159791,Available,2024-03-22 03:15:09.563000+00:00,None,"['CHAdeMO', 'CCS Combo 2 Plug (Cable Attached)']",,,CH*SWISSCHARGE,"['NFC RFID Classic', 'REMOTE']",Not Available,OnStreet,CH*SWIEE159790,+41713881150,True,0,Zürich,Forchstrasse 95,CHE,,0,Direct,True,,False,"[{'lang': 'de', 'value': 'ewz Forchstrasse 95'}]",CH*SWIEE159791,Free publicly accessible,true,47.3625 8.560278,,,,,insert,,UTC+01:00,CH*SWISSCHARGE
Feature,CH*SWIEE147609,Point,"[8.594167, 47.404722]",evse,CH*SWIEE147609,Available,2024-03-22 03:15:09.565000+00:00,None,"['CCS Combo 2 Plug (Cable Attached)', 'CHAdeMO']",,,CH*SWISSCHARGE,"['NFC RFID Classic', 'REMOTE']",Not Available,OnStreet,CH*SWIEE162247,+41713881150,True,0,Zürich,Forellenweg 9,CHE,,0,Direct,True,"[{'Power': 50, 'PowerType': 'DC'}, {'Power': 50, 'PowerType': 'DC'}]",False,"[{'lang': 'de', 'value': 'Überlandstrasse 460, DC 2'}]",CH*SWIEE147609,Free publicly accessible,true,47.404722 8.594167,,,,,insert,,UTC+01:00,CH*SWISSCHARGE
Feature,CH*SWIEE147607,Point,"[8.594167, 47.404722]",evse,CH*SWIEE147607,Available,2024-03-22 03:15:09.565000+00:00,None,"['CCS Combo 2 Plug (Cable Attached)', 'CHAdeMO']",,,CH*SWISSCHARGE,"['NFC RFID Classic', 'REMOTE']",Not Available,OnStreet,CH*SWIEE162247,+41713881150,True,0,Zürich,Forellenweg 9,CHE,,0,Direct,True,"[{'Power': 50, 'PowerType': 'DC'}, {'Power': 50, 'PowerType': 'DC'}]",False,"[{'lang': 'de', 'value': 'Überlandstrasse 460, DC 2'}]",CH*SWIEE147607,Free publicly accessible,true,47.404722 8.594167,,,,,insert,,UTC+01:00,CH*SWISSCHARGE
Feature,CH*SWIEE147608,Point,"[8.594167, 47.404722]",evse,CH*SWIEE147608,Available,2024-03-22 03:15:09.565000+00:00,None,Type 2 Outlet,,,CH*SWISSCHARGE,"['NFC RFID Classic', 'REMOTE']",Not Available,OnStreet,CH*SWIEE162247,+41713881150,True,0,Zürich,Forellenweg 9,CHE,,0,Direct,True,"[{'Power': 43, 'PowerType': 'AC_3_PHASE'}]",False,"[{'lang': 'de', 'value': 'Überlandstrasse 460, DC 2'}]",CH*SWIEE147608,Free publicly accessible,true,47.404722 8.594167,,,,,insert,,UTC+01:00,CH*SWISSCHARGE
Feature,CH*SWIEE147606,Point,"[8.594167, 47.404722]",evse,CH*SWIEE147606,Available,2024-03-22 03:15:09.565000+00:00,None,Type 2 Outlet,,,CH*SWISSCHARGE,"['NFC RFID Classic', 'REMOTE']",Not Available,OnStreet,CH*SWIEE162247,+41713881150,True,0,Zürich,Forellenweg 9,CHE,,0,Direct,True,"[{'Power': 43, 'PowerType': 'AC_3_PHASE'}]",False,"[{'lang': 'de', 'value': 'Überlandstrasse 460, DC 2'}]",CH*SWIEE147606,Free publicly accessible,true,47.404722 8.594167,,,,,insert,,UTC+01:00,CH*SWISSCHARGE
Feature,CH*SWIEE159798,Point,"[8.538889, 47.338611]",evse,CH*SWIEE159798,Occupied,2024-03-22 03:15:09.563000+00:00,None,"['CHAdeMO', 'CCS Combo 2 Plug (Cable Attached)']",,,CH*SWISSCHARGE,"['NFC RFID Classic', 'REMOTE']",Not Available,OnStreet,CH*SWIEE159797,+41713881150,True,0,Zürich,Forellenweg 9,CHE,,0,Direct,True,,False,"[{'lang': 'de', 'value': 'ewz Forellenweg 9.2'}]",CH*SWIEE159798,Free publicly accessible,true,47.338611 8.538889,,,,,insert,,UTC+01:00,CH*SWISSCHARGE
Feature,CH*SWIEE159797,Point,"[8.538889, 47.338611]",evse,CH*SWIEE159797,Available,2024-03-22 03:15:09.563000+00:00,None,Type 2 Outlet,,,CH*SWISSCHARGE,"['NFC RFID Classic', 'REMOTE']",Not Available,OnStreet,CH*SWIEE159797,+41713881150,True,0,Zürich,Forellenweg 9,CHE,,0,Direct,True,,False,"[{'lang': 'de', 'value': 'ewz Forellenweg 9.2'}]",CH*SWIEE159797,Free publicly accessible,true,47.338611 8.538889,,,,,insert,,UTC+01:00,CH*SWISSCHARGE
Feature,CH*SWIEE169271,Point,"[8.5307315, 47.373004]",evse,CH*SWIEE169271,Available,2024-03-22 03:15:09.573000+00:00,None,Type 2 Outlet,,,CH*SWISSCHARGE,"['NFC RFID Classic', 'REMOTE']",Not Available,OnStreet,CH*SWIEE170384,+41713881150,True,0,Zürich,Werdstrasse 4,CHE,,0,Direct,True,"[{'Power': 22, 'PowerType': 'AC_3_PHASE'}]",False,"[{'lang': 'de', 'value': 'Parkhaus Stauffachertor, 8004 Zürich'}]",CH*SWIEE169271,Free publicly accessible,true,47.373004 8.5307315,,,,,insert,,UTC+01:00,CH*SWISSCHARGE
Feature,CH*SWIEE169272,Point,"[8.5307315, 47.373004]",evse,CH*SWIEE169272,Available,2024-03-22 03:15:09.573000+00:00,None,Type 2 Outlet,,,CH*SWISSCHARGE,"['NFC RFID Classic', 'REMOTE']",Not Available,OnStreet,CH*SWIEE170384,+41713881150,True,0,Zürich,Werdstrasse 4,CHE,,0,Direct,True,"[{'Power': 22, 'PowerType': 'AC_3_PHASE'}]",False,"[{'lang': 'de', 'value': 'Parkhaus Stauffachertor, 8004 Zürich'}]",CH*SWIEE169272,Free publicly accessible,true,47.373004 8.5307315,,,,,insert,,UTC+01:00,CH*SWISSCHARGE
Feature,CH*SWIEE49167,Point,"[8.5569977, 47.364818]",evse,CH*SWIEE49167,Occupied,2024-03-22 03:15:09.576000+00:00,None,Type 2 Outlet,,,CH*SWISSCHARGE,"['NFC RFID Classic', 'REMOTE']",Not Available,OnStreet,CH*SWIEE1792,+41713881150,True,8032,Zürich,Juliastrasse 5,CHE,,0,Direct,True,"[{'Power': 20, 'PowerType': 'AC_3_PHASE'}]",False,"[{'lang': 'de', 'value': 'Energie 360° Juliastrasse'}]",CH*SWIEE49167,Free publicly accessible,true,47.364818 8.5569977,,,,,insert,,UTC+01:00,CH*SWISSCHARGE
Feature,CH*SWIEE176328,Point,"[8.494207, 47.39845722]",evse,CH*SWIEE176328,Available,2024-03-22 03:15:09.576000+00:00,None,Type 2 Outlet,,,CH*SWISSCHARGE,"['NFC RFID Classic', 'REMOTE']",Not Available,OnStreet,CH*SWIEE176328,+41713881150,True,0,Zürich,Meierwiesenstrasse 4.25,CHE,,0,Direct,True,"[{'Power': 22, 'PowerType': 'AC_3_PHASE'}]",False,"[{'lang': 'de', 'value': 'ewz Meierwiesenstrasse 4.25'}]",CH*SWIEE176328,Free publicly accessible,true,47.39845722 8.494207,,,,,insert,,UTC+01:00,CH*SWISSCHARGE
Feature,CH*SWIEE176329,Point,"[8.494207, 47.39845722]",evse,CH*SWIEE176329,Available,2024-03-22 03:15:09.576000+00:00,None,"['CCS Combo 2 Plug (Cable Attached)', 'CHAdeMO']",,,CH*SWISSCHARGE,"['NFC RFID Classic', 'REMOTE']",Not Available,OnStreet,CH*SWIEE176328,+41713881150,True,0,Zürich,Meierwiesenstrasse 4.25,CHE,,0,Direct,True,"[{'Power': 50, 'PowerType': 'DC'}, {'Power': 50, 'PowerType': 'DC'}]",False,"[{'lang': 'de', 'value': 'ewz Meierwiesenstrasse 4.25'}]",CH*SWIEE176329,Free publicly accessible,true,47.39845722 8.494207,,,,,insert,,UTC+01:00,CH*SWISSCHARGE
Feature,CH*SWIEE49168,Point,"[8.5569977, 47.364818]",evse,CH*SWIEE49168,Available,2024-03-22 03:15:09.576000+00:00,None,Type 2 Outlet,,,CH*SWISSCHARGE,"['NFC RFID Classic', 'REMOTE']",Not Available,OnStreet,CH*SWIEE1792,+41713881150,True,8032,Zürich,Juliastrasse 5,CHE,,0,Direct,True,"[{'Power': 20, 'PowerType': 'AC_3_PHASE'}]",False,"[{'lang': 'de', 'value': 'Energie 360° Juliastrasse'}]",CH*SWIEE49168,Free publicly accessible,true,47.364818 8.5569977,,,,,insert,,UTC+01:00,CH*SWISSCHARGE
Feature,CH*SWIEE182390,Point,"[8.51600705, 47.37814375]",evse,CH*SWIEE182390,Occupied,2024-03-22 03:15:09.577000+00:00,None,CCS Combo 2 Plug (Cable Attached),,,CH*SWISSCHARGE,"['NFC RFID Classic', 'REMOTE']",Not Available,OnStreet,CH*SWIEE182561,+41713881150,True,0,Zürich,Sihlfeldstrasse 125,CHE,,0,Direct,True,"[{'Power': 22, 'PowerType': 'DC'}]",False,"[{'lang': 'de', 'value': 'Sihlfeldstrasse 125, Zürich, 8004'}]",CH*SWIEE182390,Free publicly accessible,true,47.37814375 8.51600705,,,,,insert,,UTC+01:00,CH*SWISSCHARGE
Feature,CH*SWIEE188048,Point,"[8.5110578, 47.362491]",evse,CH*SWIEE188048,Available,2024-03-22 03:15:09.579000+00:00,None,Type 2 Outlet,,,CH*SWISSCHARGE,"['NFC RFID Classic', 'REMOTE']",Not Available,OnStreet,CH*SWIEE188053,+41713881150,True,0,Zürich,Räffelstrasse 29,CHE,,0,Direct,True,"[{'Power': 22, 'PowerType': 'AC_3_PHASE'}]",False,"[{'lang': 'de', 'value': '9L25K Räffelstrasse29 PP20'}]",CH*SWIEE188048,Free publicly accessible,true,47.362491 8.5110578,,,,,insert,,UTC+01:00,CH*SWISSCHARGE
Feature,CH*SWIEE196732,Point,"[8.55006544, 47.37902691]",evse,CH*SWIEE196732,Available,2024-03-22 03:15:09.581000+00:00,None,Type 2 Outlet,,,CH*SWISSCHARGE,"['NFC RFID Classic', 'REMOTE']",Not Available,OnStreet,CH*SWIEE196792,+41713881150,True,0,Zürich,Rämistrasse 100,CHE,,0,Direct,True,"[{'Power': 22, 'PowerType': 'AC_3_PHASE'}]",False,"[{'lang': 'de', 'value': 'Universitätsspital Zürich'}]",CH*SWIEE196732,Free publicly accessible,true,47.37902691 8.55006544,,,,,insert,,UTC+01:00,CH*SWISSCHARGE
Feature,CH*SWIEE188050,Point,"[8.5110578, 47.362491]",evse,CH*SWIEE188050,Available,2024-03-22 03:15:09.579000+00:00,None,Type 2 Outlet,,,CH*SWISSCHARGE,"['NFC RFID Classic', 'REMOTE']",Not Available,OnStreet,CH*SWIEE188053,+41713881150,True,0,Zürich,Räffelstrasse 29,CHE,,0,Direct,True,"[{'Power': 22, 'PowerType': 'AC_3_PHASE'}]",False,"[{'lang': 'de', 'value': '9L25K Räffelstrasse29 PP20'}]",CH*SWIEE188050,Free publicly accessible,true,47.362491 8.5110578,,,,,insert,,UTC+01:00,CH*SWISSCHARGE
Feature,CH*SWIEE188051,Point,"[8.5110578, 47.362491]",evse,CH*SWIEE188051,Occupied,2024-03-22 03:15:09.579000+00:00,None,Type 2 Outlet,,,CH*SWISSCHARGE,"['NFC RFID Classic', 'REMOTE']",Not Available,OnStreet,CH*SWIEE188053,+41713881150,True,0,Zürich,Räffelstrasse 29,CHE,,0,Direct,True,"[{'Power': 22, 'PowerType': 'AC_3_PHASE'}]",False,"[{'lang': 'de', 'value': '9L25K Räffelstrasse29 PP20'}]",CH*SWIEE188051,Free publicly accessible,true,47.362491 8.5110578,,,,,insert,,UTC+01:00,CH*SWISSCHARGE
Feature,CH*SWIEE188052,Point,"[8.5110578, 47.362491]",evse,CH*SWIEE188052,Available,2024-03-22 03:15:09.579000+00:00,None,Type 2 Outlet,,,CH*SWISSCHARGE,"['NFC RFID Classic', 'REMOTE']",Not Available,OnStreet,CH*SWIEE188053,+41713881150,True,0,Zürich,Räffelstrasse 29,CHE,,0,Direct,True,"[{'Power': 22, 'PowerType': 'AC_3_PHASE'}]",False,"[{'lang': 'de', 'value': '9L25K Räffelstrasse29 PP20'}]",CH*SWIEE188052,Free publicly accessible,true,47.362491 8.5110578,,,,,insert,,UTC+01:00,CH*SWISSCHARGE
Feature,CH*SWIEE188049,Point,"[8.5110578, 47.362491]",evse,CH*SWIEE188049,Available,2024-03-22 03:15:09.579000+00:00,None,Type 2 Outlet,,,CH*SWISSCHARGE,"['NFC RFID Classic', 'REMOTE']",Not Available,OnStreet,CH*SWIEE188053,+41713881150,True,0,Zürich,Räffelstrasse 29,CHE,,0,Direct,True,"[{'Power': 22, 'PowerType': 'AC_3_PHASE'}]",False,"[{'lang': 'de', 'value': '9L25K Räffelstrasse29 PP20'}]",CH*SWIEE188049,Free publicly accessible,true,47.362491 8.5110578,,,,,insert,,UTC+01:00,CH*SWISSCHARGE
Feature,CH*SWIEE188046,Point,"[8.5110578, 47.362491]",evse,CH*SWIEE188046,Available,2024-03-22 03:15:09.579000+00:00,None,Type 2 Outlet,,,CH*SWISSCHARGE,"['NFC RFID Classic', 'REMOTE']",Not Available,OnStreet,CH*SWIEE188053,+41713881150,True,0,Zürich,Räffelstrasse 29,CHE,,0,Direct,True,"[{'Power': 22, 'PowerType': 'AC_3_PHASE'}]",False,"[{'lang': 'de', 'value': '9L25K Räffelstrasse29 PP20'}]",CH*SWIEE188046,Free publicly accessible,true,47.362491 8.5110578,,,,,insert,,UTC+01:00,CH*SWISSCHARGE
Feature,CH*SWIEE196730,Point,"[8.55006544, 47.37902691]",evse,CH*SWIEE196730,Available,2024-03-22 03:15:09.581000+00:00,None,Type 2 Outlet,,,CH*SWISSCHARGE,"['NFC RFID Classic', 'REMOTE']",Not Available,OnStreet,CH*SWIEE196792,+41713881150,True,0,Zürich,Rämistrasse 100,CHE,,0,Direct,True,"[{'Power': 22, 'PowerType': 'AC_3_PHASE'}]",False,"[{'lang': 'de', 'value': 'Universitätsspital Zürich'}]",CH*SWIEE196730,Free publicly accessible,true,47.37902691 8.55006544,,,,,insert,,UTC+01:00,CH*SWISSCHARGE
Feature,CH*SWIEE188053,Point,"[8.5110578, 47.362491]",evse,CH*SWIEE188053,Available,2024-03-22 03:15:09.579000+00:00,None,Type 2 Outlet,,,CH*SWISSCHARGE,"['NFC RFID Classic', 'REMOTE']",Not Available,OnStreet,CH*SWIEE188053,+41713881150,True,0,Zürich,Räffelstrasse 29,CHE,,0,Direct,True,"[{'Power': 22, 'PowerType': 'AC_3_PHASE'}]",False,"[{'lang': 'de', 'value': '9L25K Räffelstrasse29 PP20'}]",CH*SWIEE188053,Free publicly accessible,true,47.362491 8.5110578,,,,,insert,,UTC+01:00,CH*SWISSCHARGE
Feature,CH*SWIEE196733,Point,"[8.55006544, 47.37902691]",evse,CH*SWIEE196733,Occupied,2024-03-22 03:15:09.581000+00:00,None,Type 2 Outlet,,,CH*SWISSCHARGE,"['NFC RFID Classic', 'REMOTE']",Not Available,OnStreet,CH*SWIEE196792,+41713881150,True,0,Zürich,Rämistrasse 100,CHE,,0,Direct,True,"[{'Power': 22, 'PowerType': 'AC_3_PHASE'}]",False,"[{'lang': 'de', 'value': 'Universitätsspital Zürich'}]",CH*SWIEE196733,Free publicly accessible,true,47.37902691 8.55006544,,,,,insert,,UTC+01:00,CH*SWISSCHARGE
Feature,CH*SWIEE188047,Point,"[8.5110578, 47.362491]",evse,CH*SWIEE188047,Available,2024-03-22 03:15:09.579000+00:00,None,Type 2 Outlet,,,CH*SWISSCHARGE,"['NFC RFID Classic', 'REMOTE']",Not Available,OnStreet,CH*SWIEE188053,+41713881150,True,0,Zürich,Räffelstrasse 29,CHE,,0,Direct,True,"[{'Power': 22, 'PowerType': 'AC_3_PHASE'}]",False,"[{'lang': 'de', 'value': '9L25K Räffelstrasse29 PP20'}]",CH*SWIEE188047,Free publicly accessible,true,47.362491 8.5110578,,,,,insert,,UTC+01:00,CH*SWISSCHARGE
Feature,CH*SWIEE196731,Point,"[8.55006544, 47.37902691]",evse,CH*SWIEE196731,Occupied,2024-03-22 03:15:09.581000+00:00,None,Type 2 Outlet,,,CH*SWISSCHARGE,"['NFC RFID Classic', 'REMOTE']",Not Available,OnStreet,CH*SWIEE196792,+41713881150,True,0,Zürich,Rämistrasse 100,CHE,,0,Direct,True,"[{'Power': 22, 'PowerType': 'AC_3_PHASE'}]",False,"[{'lang': 'de', 'value': 'Universitätsspital Zürich'}]",CH*SWIEE196731,Free publicly accessible,true,47.37902691 8.55006544,,,,,insert,,UTC+01:00,CH*SWISSCHARGE
Feature,CH*SWIEE36639,Point,"[8.52325, 47.35656]",evse,CH*SWIEE36639,Available,2024-03-22 03:15:09.581000+00:00,None,"['CCS Combo 2 Plug (Cable Attached)', 'CHAdeMO']",,,CH*SWISSCHARGE,"['NFC RFID Classic', 'REMOTE']",Not Available,OnStreet,CH*SWIEE197234,+41713881150,True,0,Zürich,Kalanderplatz 1,CHE,,0,Direct,True,"[{'Power': 24, 'PowerType': 'DC'}, {'Power': 24, 'PowerType': 'DC'}]",False,"[{'lang': 'de', 'value': 'Parkhaus Sihlcity'}]",CH*SWIEE36639,Free publicly accessible,true,47.35656 8.52325,,,,,insert,,UTC+01:00,CH*SWISSCHARGE
Feature,CH*SWIEE196993,Point,"[8.52325, 47.35656]",evse,CH*SWIEE196993,Available,2024-03-22 03:15:09.581000+00:00,None,Type 2 Outlet,,,CH*SWISSCHARGE,"['NFC RFID Classic', 'REMOTE']",Not Available,OnStreet,CH*SWIEE197234,+41713881150,True,0,Zürich,Kalanderplatz 1,CHE,,0,Direct,True,"[{'Power': 22, 'PowerType': 'AC_3_PHASE'}]",False,"[{'lang': 'de', 'value': 'Parkhaus Sihlcity'}]",CH*SWIEE196993,Free publicly accessible,true,47.35656 8.52325,,,,,insert,,UTC+01:00,CH*SWISSCHARGE
Feature,CH*SWIEE196997,Point,"[8.52325, 47.35656]",evse,CH*SWIEE196997,Occupied,2024-03-22 03:15:09.581000+00:00,None,Type 2 Outlet,,,CH*SWISSCHARGE,"['NFC RFID Classic', 'REMOTE']",Not Available,OnStreet,CH*SWIEE197234,+41713881150,True,0,Zürich,Kalanderplatz 1,CHE,,0,Direct,True,"[{'Power': 22, 'PowerType': 'AC_3_PHASE'}]",False,"[{'lang': 'de', 'value': 'Parkhaus Sihlcity'}]",CH*SWIEE196997,Free publicly accessible,true,47.35656 8.52325,,,,,insert,,UTC+01:00,CH*SWISSCHARGE
Feature,CH*SWIEE196995,Point,"[8.52325, 47.35656]",evse,CH*SWIEE196995,Occupied,2024-03-22 03:15:09.581000+00:00,None,Type 2 Outlet,,,CH*SWISSCHARGE,"['NFC RFID Classic', 'REMOTE']",Not Available,OnStreet,CH*SWIEE197234,+41713881150,True,0,Zürich,Kalanderplatz 1,CHE,,0,Direct,True,"[{'Power': 22, 'PowerType': 'AC_3_PHASE'}]",False,"[{'lang': 'de', 'value': 'Parkhaus Sihlcity'}]",CH*SWIEE196995,Free publicly accessible,true,47.35656 8.52325,,,,,insert,,UTC+01:00,CH*SWISSCHARGE
Feature,CH*SWIEE196996,Point,"[8.52325, 47.35656]",evse,CH*SWIEE196996,Occupied,2024-03-22 03:15:09.581000+00:00,None,Type 2 Outlet,,,CH*SWISSCHARGE,"['NFC RFID Classic', 'REMOTE']",Not Available,OnStreet,CH*SWIEE197234,+41713881150,True,0,Zürich,Kalanderplatz 1,CHE,,0,Direct,True,"[{'Power': 22, 'PowerType': 'AC_3_PHASE'}]",False,"[{'lang': 'de', 'value': 'Parkhaus Sihlcity'}]",CH*SWIEE196996,Free publicly accessible,true,47.35656 8.52325,,,,,insert,,UTC+01:00,CH*SWISSCHARGE
Feature,CH*SWIEE196994,Point,"[8.52325, 47.35656]",evse,CH*SWIEE196994,Occupied,2024-03-22 03:15:09.581000+00:00,None,Type 2 Outlet,,,CH*SWISSCHARGE,"['NFC RFID Classic', 'REMOTE']",Not Available,OnStreet,CH*SWIEE197234,+41713881150,True,0,Zürich,Kalanderplatz 1,CHE,,0,Direct,True,"[{'Power': 22, 'PowerType': 'AC_3_PHASE'}]",False,"[{'lang': 'de', 'value': 'Parkhaus Sihlcity'}]",CH*SWIEE196994,Free publicly accessible,true,47.35656 8.52325,,,,,insert,,UTC+01:00,CH*SWISSCHARGE
Feature,CH*SWIEE196998,Point,"[8.52325, 47.35656]",evse,CH*SWIEE196998,Occupied,2024-03-22 03:15:09.581000+00:00,None,Type 2 Outlet,,,CH*SWISSCHARGE,"['NFC RFID Classic', 'REMOTE']",Not Available,OnStreet,CH*SWIEE197234,+41713881150,True,0,Zürich,Kalanderplatz 1,CHE,,0,Direct,True,"[{'Power': 22, 'PowerType': 'AC_3_PHASE'}]",False,"[{'lang': 'de', 'value': 'Parkhaus Sihlcity'}]",CH*SWIEE196998,Free publicly accessible,true,47.35656 8.52325,,,,,insert,,UTC+01:00,CH*SWISSCHARGE
Feature,CH*SWIEE196999,Point,"[8.52325, 47.35656]",evse,CH*SWIEE196999,Available,2024-03-22 03:15:09.581000+00:00,None,Type 2 Outlet,,,CH*SWISSCHARGE,"['NFC RFID Classic', 'REMOTE']",Not Available,OnStreet,CH*SWIEE197234,+41713881150,True,0,Zürich,Kalanderplatz 1,CHE,,0,Direct,True,"[{'Power': 22, 'PowerType': 'AC_3_PHASE'}]",False,"[{'lang': 'de', 'value': 'Parkhaus Sihlcity'}]",CH*SWIEE196999,Free publicly accessible,true,47.35656 8.52325,,,,,insert,,UTC+01:00,CH*SWISSCHARGE
Feature,CH*SWIEE202303,Point,"[8.54778624, 47.41299116]",evse,CH*SWIEE202303,Available,2024-03-22 03:15:09.615000+00:00,None,Type 2 Outlet,,,CH*SWISSCHARGE,"['NFC RFID Classic', 'REMOTE']",Not Available,OnStreet,CH*SWIEE203726,+41713881150,True,0,Zürich,Andreasstrasse 11,CHE,,0,Direct,True,"[{'Power': 22, 'PowerType': 'AC_3_PHASE'}]",False,"[{'lang': 'de', 'value': 'Andreasstrasse 11, 8050 Zürich'}]",CH*SWIEE202303,Free publicly accessible,true,47.41299116 8.54778624,,,,,insert,,UTC+01:00,CH*SWISSCHARGE
Feature,CH*SWIEE202301,Point,"[8.54778624, 47.41299116]",evse,CH*SWIEE202301,Available,2024-03-22 03:15:09.615000+00:00,None,Type 2 Outlet,,,CH*SWISSCHARGE,"['NFC RFID Classic', 'REMOTE']",Not Available,OnStreet,CH*SWIEE203726,+41713881150,True,0,Zürich,Andreasstrasse 11,CHE,,0,Direct,True,"[{'Power': 22, 'PowerType': 'AC_3_PHASE'}]",False,"[{'lang': 'de', 'value': 'Andreasstrasse 11, 8050 Zürich'}]",CH*SWIEE202301,Free publicly accessible,true,47.41299116 8.54778624,,,,,insert,,UTC+01:00,CH*SWISSCHARGE
Feature,CH*SWIEE202302,Point,"[8.54778624, 47.41299116]",evse,CH*SWIEE202302,Available,2024-03-22 03:15:09.615000+00:00,None,Type 2 Outlet,,,CH*SWISSCHARGE,"['NFC RFID Classic', 'REMOTE']",Not Available,OnStreet,CH*SWIEE203726,+41713881150,True,0,Zürich,Andreasstrasse 11,CHE,,0,Direct,True,"[{'Power': 22, 'PowerType': 'AC_3_PHASE'}]",False,"[{'lang': 'de', 'value': 'Andreasstrasse 11, 8050 Zürich'}]",CH*SWIEE202302,Free publicly accessible,true,47.41299116 8.54778624,,,,,insert,,UTC+01:00,CH*SWISSCHARGE
Feature,CH*SWIEE56843,Point,"[8.49246771, 47.38370786]",evse,CH*SWIEE56843,Occupied,2024-03-22 03:15:09.628000+00:00,None,Type 2 Outlet,,,CH*SWISSCHARGE,"['NFC RFID Classic', 'REMOTE']",Not Available,OnStreet,CH*SWIEE214844,+41713881150,True,0,Zürich,Buckhauserstrasse 34,CHE,,0,Direct,True,"[{'Power': 22, 'PowerType': 'AC_3_PHASE'}]",False,"[{'lang': 'de', 'value': 'Energie 360° Diakonie Bethanien Links ref'}]",CH*SWIEE56843,Free publicly accessible,true,47.38370786 8.49246771,,,,,insert,,UTC+01:00,CH*SWISSCHARGE
Feature,CH*SWIEE56844,Point,"[8.49246771, 47.38370786]",evse,CH*SWIEE56844,Available,2024-03-22 03:15:09.628000+00:00,None,Type 2 Outlet,,,CH*SWISSCHARGE,"['NFC RFID Classic', 'REMOTE']",Not Available,OnStreet,CH*SWIEE214844,+41713881150,True,0,Zürich,Buckhauserstrasse 34,CHE,,0,Direct,True,"[{'Power': 22, 'PowerType': 'AC_3_PHASE'}]",False,"[{'lang': 'de', 'value': 'Energie 360° Diakonie Bethanien Links ref'}]",CH*SWIEE56844,Free publicly accessible,true,47.38370786 8.49246771,,,,,insert,,UTC+01:00,CH*SWISSCHARGE
Feature,CH*SWIEE214844,Point,"[8.49246771, 47.38370786]",evse,CH*SWIEE214844,Occupied,2024-03-22 03:15:09.628000+00:00,None,Type 2 Outlet,,,CH*SWISSCHARGE,"['NFC RFID Classic', 'REMOTE']",Not Available,OnStreet,CH*SWIEE214844,+41713881150,True,0,Zürich,Buckhauserstrasse 34,CHE,,0,Direct,True,"[{'Power': 8, 'PowerType': 'AC_3_PHASE'}]",False,"[{'lang': 'de', 'value': 'Energie 360° Diakonie Bethanien Links ref'}]",CH*SWIEE214844,Free publicly accessible,true,47.38370786 8.49246771,,,,,insert,,UTC+01:00,CH*SWISSCHARGE
Feature,CH*SWIEE224923,Point,"[6.2645848, 46.41889518]",evse,CH*SWIEE224923,Available,2024-03-22 03:15:09.634000+00:00,None,Type 2 Outlet,,,CH*SWISSCHARGE,"['NFC RFID Classic', 'REMOTE']",Not Available,OnStreet,CH*SWIEE224923,+41713881150,True,0,Zürich,Hohlstrasse 440A,CHE,,0,Direct,True,"[{'Power': 22, 'PowerType': 'AC_3_PHASE'}]",False,"[{'lang': 'de', 'value': 'Energie 360° immo Letziturm'}]",CH*SWIEE224923,Free publicly accessible,true,46.41889518 6.2645848,,,,,insert,,UTC+01:00,CH*SWISSCHARGE
Feature,CH*SWIEE146707,Point,"[8.51997338, 47.39913806]",evse,CH*SWIEE146707,Available,2024-03-22 03:15:09.638000+00:00,None,Type 2 Outlet,,,CH*SWISSCHARGE,"['NFC RFID Classic', 'REMOTE']",Not Available,OnStreet,CH*SWIEE229167,+41713881150,True,0,Zürich,Tiechestrasse 99,CHE,,0,Direct,True,"[{'Power': 22, 'PowerType': 'AC_3_PHASE'}]",False,"[{'lang': 'de', 'value': 'ewz Tiechestrasse 99 Zürich'}]",CH*SWIEE146707,Free publicly accessible,true,47.39913806 8.51997338,,,,,insert,,UTC+01:00,CH*SWISSCHARGE
Feature,CH*SWIEE146708,Point,"[8.51997338, 47.39913806]",evse,CH*SWIEE146708,Available,2024-03-22 03:15:09.638000+00:00,None,Type 2 Outlet,,,CH*SWISSCHARGE,"['NFC RFID Classic', 'REMOTE']",Not Available,OnStreet,CH*SWIEE229167,+41713881150,True,0,Zürich,Tiechestrasse 99,CHE,,0,Direct,True,"[{'Power': 22, 'PowerType': 'AC_3_PHASE'}]",False,"[{'lang': 'de', 'value': 'ewz Tiechestrasse 99 Zürich'}]",CH*SWIEE146708,Free publicly accessible,true,47.39913806 8.51997338,,,,,insert,,UTC+01:00,CH*SWISSCHARGE
Feature,CH*SWIEE146711,Point,"[8.51997338, 47.39913806]",evse,CH*SWIEE146711,Available,2024-03-22 03:15:09.638000+00:00,None,Type 2 Outlet,,,CH*SWISSCHARGE,"['NFC RFID Classic', 'REMOTE']",Not Available,OnStreet,CH*SWIEE229167,+41713881150,True,0,Zürich,Tiechestrasse 99,CHE,,0,Direct,True,"[{'Power': 22, 'PowerType': 'AC_3_PHASE'}]",False,"[{'lang': 'de', 'value': 'ewz Tiechestrasse 99 Zürich'}]",CH*SWIEE146711,Free publicly accessible,true,47.39913806 8.51997338,,,,,insert,,UTC+01:00,CH*SWISSCHARGE
Feature,CH*SWIEE146710,Point,"[8.51997338, 47.39913806]",evse,CH*SWIEE146710,Available,2024-03-22 03:15:09.638000+00:00,None,Type 2 Outlet,,,CH*SWISSCHARGE,"['NFC RFID Classic', 'REMOTE']",Not Available,OnStreet,CH*SWIEE229167,+41713881150,True,0,Zürich,Tiechestrasse 99,CHE,,0,Direct,True,"[{'Power': 22, 'PowerType': 'AC_3_PHASE'}]",False,"[{'lang': 'de', 'value': 'ewz Tiechestrasse 99 Zürich'}]",CH*SWIEE146710,Free publicly accessible,true,47.39913806 8.51997338,,,,,insert,,UTC+01:00,CH*SWISSCHARGE
Feature,CH*SWIEE146751,Point,"[8.51997338, 47.39913806]",evse,CH*SWIEE146751,Available,2024-03-22 03:15:09.638000+00:00,None,Type 2 Outlet,,,CH*SWISSCHARGE,"['NFC RFID Classic', 'REMOTE']",Not Available,OnStreet,CH*SWIEE229167,+41713881150,True,0,Zürich,Tiechestrasse 99,CHE,,0,Direct,True,"[{'Power': 22, 'PowerType': 'AC_3_PHASE'}]",False,"[{'lang': 'de', 'value': 'ewz Tiechestrasse 99 Zürich'}]",CH*SWIEE146751,Free publicly accessible,true,47.39913806 8.51997338,,,,,insert,,UTC+01:00,CH*SWISSCHARGE
Feature,CH*SWIEE145526,Point,"[8.51761541, 47.39055351]",evse,CH*SWIEE145526,Available,2024-03-22 03:15:09.639000+00:00,None,Type 2 Outlet,,,CH*SWISSCHARGE,"['NFC RFID Classic', 'REMOTE']",Not Available,OnStreet,CH*SWIEE230236,+41713881150,True,0,Zürich,Giessereistrasse 18,CHE,,0,Direct,True,"[{'Power': 22, 'PowerType': 'AC_3_PHASE'}]",False,"[{'lang': 'de', 'value': 'ewz Giessereistrasse 18 Zürich Puls 5 (Ö)'}]",CH*SWIEE145526,Free publicly accessible,true,47.39055351 8.51761541,,,,,insert,,UTC+01:00,CH*SWISSCHARGE
Feature,CH*SWIEE146709,Point,"[8.51997338, 47.39913806]",evse,CH*SWIEE146709,Available,2024-03-22 03:15:09.638000+00:00,None,Type 2 Outlet,,,CH*SWISSCHARGE,"['NFC RFID Classic', 'REMOTE']",Not Available,OnStreet,CH*SWIEE229167,+41713881150,True,0,Zürich,Tiechestrasse 99,CHE,,0,Direct,True,"[{'Power': 22, 'PowerType': 'AC_3_PHASE'}]",False,"[{'lang': 'de', 'value': 'ewz Tiechestrasse 99 Zürich'}]",CH*SWIEE146709,Free publicly accessible,true,47.39913806 8.51997338,,,,,insert,,UTC+01:00,CH*SWISSCHARGE
Feature,CH*SWIEE146750,Point,"[8.51997338, 47.39913806]",evse,CH*SWIEE146750,Available,2024-03-22 03:15:09.638000+00:00,None,Type 2 Outlet,,,CH*SWISSCHARGE,"['NFC RFID Classic', 'REMOTE']",Not Available,OnStreet,CH*SWIEE229167,+41713881150,True,0,Zürich,Tiechestrasse 99,CHE,,0,Direct,True,"[{'Power': 22, 'PowerType': 'AC_3_PHASE'}]",False,"[{'lang': 'de', 'value': 'ewz Tiechestrasse 99 Zürich'}]",CH*SWIEE146750,Free publicly accessible,true,47.39913806 8.51997338,,,,,insert,,UTC+01:00,CH*SWISSCHARGE
Feature,CH*SWIEE146746,Point,"[8.51997338, 47.39913806]",evse,CH*SWIEE146746,Available,2024-03-22 03:15:09.638000+00:00,None,Type 2 Outlet,,,CH*SWISSCHARGE,"['NFC RFID Classic', 'REMOTE']",Not Available,OnStreet,CH*SWIEE229167,+41713881150,True,0,Zürich,Tiechestrasse 99,CHE,,0,Direct,True,"[{'Power': 22, 'PowerType': 'AC_3_PHASE'}]",False,"[{'lang': 'de', 'value': 'ewz Tiechestrasse 99 Zürich'}]",CH*SWIEE146746,Free publicly accessible,true,47.39913806 8.51997338,,,,,insert,,UTC+01:00,CH*SWISSCHARGE
Feature,CH*SWIEE145558,Point,"[8.51761541, 47.39055351]",evse,CH*SWIEE145558,Available,2024-03-22 03:15:09.639000+00:00,None,Type 2 Outlet,,,CH*SWISSCHARGE,"['NFC RFID Classic', 'REMOTE']",Not Available,OnStreet,CH*SWIEE230236,+41713881150,True,0,Zürich,Giessereistrasse 18,CHE,,0,Direct,True,"[{'Power': 22, 'PowerType': 'AC_3_PHASE'}]",False,"[{'lang': 'de', 'value': 'ewz Giessereistrasse 18 Zürich Puls 5 (Ö)'}]",CH*SWIEE145558,Free publicly accessible,true,47.39055351 8.51761541,,,,,insert,,UTC+01:00,CH*SWISSCHARGE
Feature,CH*SWIEE145533,Point,"[8.51761541, 47.39055351]",evse,CH*SWIEE145533,Available,2024-03-22 03:15:09.639000+00:00,None,Type 2 Outlet,,,CH*SWISSCHARGE,"['NFC RFID Classic', 'REMOTE']",Not Available,OnStreet,CH*SWIEE230236,+41713881150,True,0,Zürich,Giessereistrasse 18,CHE,,0,Direct,True,"[{'Power': 22, 'PowerType': 'AC_3_PHASE'}]",False,"[{'lang': 'de', 'value': 'ewz Giessereistrasse 18 Zürich Puls 5 (Ö)'}]",CH*SWIEE145533,Free publicly accessible,true,47.39055351 8.51761541,,,,,insert,,UTC+01:00,CH*SWISSCHARGE
Feature,CH*SWIEE146753,Point,"[8.51997338, 47.39913806]",evse,CH*SWIEE146753,Available,2024-03-22 03:15:09.638000+00:00,None,Type 2 Outlet,,,CH*SWISSCHARGE,"['NFC RFID Classic', 'REMOTE']",Not Available,OnStreet,CH*SWIEE229167,+41713881150,True,0,Zürich,Tiechestrasse 99,CHE,,0,Direct,True,"[{'Power': 22, 'PowerType': 'AC_3_PHASE'}]",False,"[{'lang': 'de', 'value': 'ewz Tiechestrasse 99 Zürich'}]",CH*SWIEE146753,Free publicly accessible,true,47.39913806 8.51997338,,,,,insert,,UTC+01:00,CH*SWISSCHARGE
Feature,CH*SWIEE145612,Point,"[8.51761541, 47.39055351]",evse,CH*SWIEE145612,Available,2024-03-22 03:15:09.639000+00:00,None,Type 2 Outlet,,,CH*SWISSCHARGE,"['NFC RFID Classic', 'REMOTE']",Not Available,OnStreet,CH*SWIEE230236,+41713881150,True,0,Zürich,Giessereistrasse 18,CHE,,0,Direct,True,"[{'Power': 22, 'PowerType': 'AC_3_PHASE'}]",False,"[{'lang': 'de', 'value': 'ewz Giessereistrasse 18 Zürich Puls 5 (Ö)'}]",CH*SWIEE145612,Free publicly accessible,true,47.39055351 8.51761541,,,,,insert,,UTC+01:00,CH*SWISSCHARGE
Feature,CH*SWIEE146752,Point,"[8.51997338, 47.39913806]",evse,CH*SWIEE146752,Available,2024-03-22 03:15:09.638000+00:00,None,Type 2 Outlet,,,CH*SWISSCHARGE,"['NFC RFID Classic', 'REMOTE']",Not Available,OnStreet,CH*SWIEE229167,+41713881150,True,0,Zürich,Tiechestrasse 99,CHE,,0,Direct,True,"[{'Power': 22, 'PowerType': 'AC_3_PHASE'}]",False,"[{'lang': 'de', 'value': 'ewz Tiechestrasse 99 Zürich'}]",CH*SWIEE146752,Free publicly accessible,true,47.39913806 8.51997338,,,,,insert,,UTC+01:00,CH*SWISSCHARGE
Feature,CH*SWIEE146755,Point,"[8.51997338, 47.39913806]",evse,CH*SWIEE146755,Available,2024-03-22 03:15:09.638000+00:00,None,Type 2 Outlet,,,CH*SWISSCHARGE,"['NFC RFID Classic', 'REMOTE']",Not Available,OnStreet,CH*SWIEE229167,+41713881150,True,0,Zürich,Tiechestrasse 99,CHE,,0,Direct,True,"[{'Power': 22, 'PowerType': 'AC_3_PHASE'}]",False,"[{'lang': 'de', 'value': 'ewz Tiechestrasse 99 Zürich'}]",CH*SWIEE146755,Free publicly accessible,true,47.39913806 8.51997338,,,,,insert,,UTC+01:00,CH*SWISSCHARGE
Feature,CH*SWIEE215277,Point,"[8.51997338, 47.39913806]",evse,CH*SWIEE215277,Available,2024-03-22 03:15:09.638000+00:00,None,Type 2 Outlet,,,CH*SWISSCHARGE,"['NFC RFID Classic', 'REMOTE']",Not Available,OnStreet,CH*SWIEE229167,+41713881150,True,0,Zürich,Tiechestrasse 99,CHE,,0,Direct,True,"[{'Power': 22, 'PowerType': 'AC_3_PHASE'}]",False,"[{'lang': 'de', 'value': 'ewz Tiechestrasse 99 Zürich'}]",CH*SWIEE215277,Free publicly accessible,true,47.39913806 8.51997338,,,,,insert,,UTC+01:00,CH*SWISSCHARGE
Feature,CH*SWIEE145543,Point,"[8.51761541, 47.39055351]",evse,CH*SWIEE145543,Available,2024-03-22 03:15:09.639000+00:00,None,Type 2 Outlet,,,CH*SWISSCHARGE,"['NFC RFID Classic', 'REMOTE']",Not Available,OnStreet,CH*SWIEE230236,+41713881150,True,0,Zürich,Giessereistrasse 18,CHE,,0,Direct,True,"[{'Power': 22, 'PowerType': 'AC_3_PHASE'}]",False,"[{'lang': 'de', 'value': 'ewz Giessereistrasse 18 Zürich Puls 5 (Ö)'}]",CH*SWIEE145543,Free publicly accessible,true,47.39055351 8.51761541,,,,,insert,,UTC+01:00,CH*SWISSCHARGE
Feature,CH*SWIEE146754,Point,"[8.51997338, 47.39913806]",evse,CH*SWIEE146754,Available,2024-03-22 03:15:09.638000+00:00,None,Type 2 Outlet,,,CH*SWISSCHARGE,"['NFC RFID Classic', 'REMOTE']",Not Available,OnStreet,CH*SWIEE229167,+41713881150,True,0,Zürich,Tiechestrasse 99,CHE,,0,Direct,True,"[{'Power': 22, 'PowerType': 'AC_3_PHASE'}]",False,"[{'lang': 'de', 'value': 'ewz Tiechestrasse 99 Zürich'}]",CH*SWIEE146754,Free publicly accessible,true,47.39913806 8.51997338,,,,,insert,,UTC+01:00,CH*SWISSCHARGE
Feature,CH*SWIEE145619,Point,"[8.51761541, 47.39055351]",evse,CH*SWIEE145619,Available,2024-03-22 03:15:09.639000+00:00,None,Type 2 Outlet,,,CH*SWISSCHARGE,"['NFC RFID Classic', 'REMOTE']",Not Available,OnStreet,CH*SWIEE230236,+41713881150,True,0,Zürich,Giessereistrasse 18,CHE,,0,Direct,True,"[{'Power': 22, 'PowerType': 'AC_3_PHASE'}]",False,"[{'lang': 'de', 'value': 'ewz Giessereistrasse 18 Zürich Puls 5 (Ö)'}]",CH*SWIEE145619,Free publicly accessible,true,47.39055351 8.51761541,,,,,insert,,UTC+01:00,CH*SWISSCHARGE
Feature,CH*SWIEE145531,Point,"[8.51761541, 47.39055351]",evse,CH*SWIEE145531,Occupied,2024-03-22 03:15:09.639000+00:00,None,Type 2 Outlet,,,CH*SWISSCHARGE,"['NFC RFID Classic', 'REMOTE']",Not Available,OnStreet,CH*SWIEE230236,+41713881150,True,0,Zürich,Giessereistrasse 18,CHE,,0,Direct,True,"[{'Power': 22, 'PowerType': 'AC_3_PHASE'}]",False,"[{'lang': 'de', 'value': 'ewz Giessereistrasse 18 Zürich Puls 5 (Ö)'}]",CH*SWIEE145531,Free publicly accessible,true,47.39055351 8.51761541,,,,,insert,,UTC+01:00,CH*SWISSCHARGE
Feature,CH*SWIEE145551,Point,"[8.51761541, 47.39055351]",evse,CH*SWIEE145551,Available,2024-03-22 03:15:09.639000+00:00,None,Type 2 Outlet,,,CH*SWISSCHARGE,"['NFC RFID Classic', 'REMOTE']",Not Available,OnStreet,CH*SWIEE230236,+41713881150,True,0,Zürich,Giessereistrasse 18,CHE,,0,Direct,True,"[{'Power': 22, 'PowerType': 'AC_3_PHASE'}]",False,"[{'lang': 'de', 'value': 'ewz Giessereistrasse 18 Zürich Puls 5 (Ö)'}]",CH*SWIEE145551,Free publicly accessible,true,47.39055351 8.51761541,,,,,insert,,UTC+01:00,CH*SWISSCHARGE
Feature,CH*SWIEE145579,Point,"[8.51761541, 47.39055351]",evse,CH*SWIEE145579,Available,2024-03-22 03:15:09.639000+00:00,None,Type 2 Outlet,,,CH*SWISSCHARGE,"['NFC RFID Classic', 'REMOTE']",Not Available,OnStreet,CH*SWIEE230236,+41713881150,True,0,Zürich,Giessereistrasse 18,CHE,,0,Direct,True,"[{'Power': 22, 'PowerType': 'AC_3_PHASE'}]",False,"[{'lang': 'de', 'value': 'ewz Giessereistrasse 18 Zürich Puls 5 (Ö)'}]",CH*SWIEE145579,Free publicly accessible,true,47.39055351 8.51761541,,,,,insert,,UTC+01:00,CH*SWISSCHARGE
Feature,CH*SWIEE145528,Point,"[8.51761541, 47.39055351]",evse,CH*SWIEE145528,Available,2024-03-22 03:15:09.639000+00:00,None,Type 2 Outlet,,,CH*SWISSCHARGE,"['NFC RFID Classic', 'REMOTE']",Not Available,OnStreet,CH*SWIEE230236,+41713881150,True,0,Zürich,Giessereistrasse 18,CHE,,0,Direct,True,"[{'Power': 22, 'PowerType': 'AC_3_PHASE'}]",False,"[{'lang': 'de', 'value': 'ewz Giessereistrasse 18 Zürich Puls 5 (Ö)'}]",CH*SWIEE145528,Free publicly accessible,true,47.39055351 8.51761541,,,,,insert,,UTC+01:00,CH*SWISSCHARGE
Feature,CH*SWIEE145623,Point,"[8.51761541, 47.39055351]",evse,CH*SWIEE145623,Available,2024-03-22 03:15:09.639000+00:00,None,Type 2 Outlet,,,CH*SWISSCHARGE,"['NFC RFID Classic', 'REMOTE']",Not Available,OnStreet,CH*SWIEE230236,+41713881150,True,0,Zürich,Giessereistrasse 18,CHE,,0,Direct,True,"[{'Power': 22, 'PowerType': 'AC_3_PHASE'}]",False,"[{'lang': 'de', 'value': 'ewz Giessereistrasse 18 Zürich Puls 5 (Ö)'}]",CH*SWIEE145623,Free publicly accessible,true,47.39055351 8.51761541,,,,,insert,,UTC+01:00,CH*SWISSCHARGE
Feature,CH*SWIEE145677,Point,"[8.51761541, 47.39055351]",evse,CH*SWIEE145677,Available,2024-03-22 03:15:09.639000+00:00,None,Type 2 Outlet,,,CH*SWISSCHARGE,"['NFC RFID Classic', 'REMOTE']",Not Available,OnStreet,CH*SWIEE230236,+41713881150,True,0,Zürich,Giessereistrasse 18,CHE,,0,Direct,True,"[{'Power': 22, 'PowerType': 'AC_3_PHASE'}]",False,"[{'lang': 'de', 'value': 'ewz Giessereistrasse 18 Zürich Puls 5 (Ö)'}]",CH*SWIEE145677,Free publicly accessible,true,47.39055351 8.51761541,,,,,insert,,UTC+01:00,CH*SWISSCHARGE
Feature,CH*SWIEE145624,Point,"[8.51761541, 47.39055351]",evse,CH*SWIEE145624,Available,2024-03-22 03:15:09.639000+00:00,None,Type 2 Outlet,,,CH*SWISSCHARGE,"['NFC RFID Classic', 'REMOTE']",Not Available,OnStreet,CH*SWIEE230236,+41713881150,True,0,Zürich,Giessereistrasse 18,CHE,,0,Direct,True,"[{'Power': 22, 'PowerType': 'AC_3_PHASE'}]",False,"[{'lang': 'de', 'value': 'ewz Giessereistrasse 18 Zürich Puls 5 (Ö)'}]",CH*SWIEE145624,Free publicly accessible,true,47.39055351 8.51761541,,,,,insert,,UTC+01:00,CH*SWISSCHARGE
Feature,CH*SWIEE23219,Point,"[8.5340113, 47.34875997]",evse,CH*SWIEE23219,Available,2024-03-22 03:15:09.639000+00:00,None,CCS Combo 2 Plug (Cable Attached),,,CH*SWISSCHARGE,"['NFC RFID Classic', 'REMOTE']",Not Available,OnStreet,CH*SWIEE23219,+41713881150,True,8038,Zürich,Mythenquai 320,CHE,,0,Direct,True,"[{'Power': 60, 'PowerType': 'DC'}]",False,"[{'lang': 'de', 'value': 'ewz BP Wollishofen'}]",CH*SWIEE23219,Free publicly accessible,true,47.34875997 8.5340113,,,,,insert,,UTC+01:00,CH*SWISSCHARGE
Feature,CH*SWIEE23220,Point,"[8.5340113, 47.34875997]",evse,CH*SWIEE23220,Available,2024-03-22 03:15:09.639000+00:00,None,CHAdeMO,,,CH*SWISSCHARGE,"['NFC RFID Classic', 'REMOTE']",Not Available,OnStreet,CH*SWIEE23219,+41713881150,True,8038,Zürich,Mythenquai 320,CHE,,0,Direct,True,"[{'Power': 50, 'PowerType': 'DC'}]",False,"[{'lang': 'de', 'value': 'ewz BP Wollishofen'}]",CH*SWIEE23220,Free publicly accessible,true,47.34875997 8.5340113,,,,,insert,,UTC+01:00,CH*SWISSCHARGE
Feature,CH*SWIEE23221,Point,"[8.5340113, 47.34875997]",evse,CH*SWIEE23221,Available,2024-03-22 03:15:09.639000+00:00,None,Type 2 Outlet,,,CH*SWISSCHARGE,"['NFC RFID Classic', 'REMOTE']",Not Available,OnStreet,CH*SWIEE23219,+41713881150,True,8038,Zürich,Mythenquai 320,CHE,,0,Direct,True,"[{'Power': 22, 'PowerType': 'AC_3_PHASE'}]",False,"[{'lang': 'de', 'value': 'ewz BP Wollishofen'}]",CH*SWIEE23221,Free publicly accessible,true,47.34875997 8.5340113,,,,,insert,,UTC+01:00,CH*SWISSCHARGE
Feature,CH*SWIEE232313,Point,"[8.56469195, 47.36023042]",evse,CH*SWIEE232313,Available,2024-03-22 03:15:09.640000+00:00,None,Type 2 Outlet,,,CH*SWISSCHARGE,"['NFC RFID Classic', 'REMOTE']",Not Available,OnStreet,CH*SWIEE232313,+41713881150,True,0,Zürich,Forchstrasse 158,CHE,,0,Direct,True,"[{'Power': 22, 'PowerType': 'AC_3_PHASE'}]",False,"[{'lang': 'de', 'value': '85227 Forchstrasse158 PP506'}]",CH*SWIEE232313,Free publicly accessible,true,47.36023042 8.56469195,,,,,insert,,UTC+01:00,CH*SWISSCHARGE
Feature,CH*SWIEE23222,Point,"[8.5340113, 47.34875997]",evse,CH*SWIEE23222,Available,2024-03-22 03:15:09.639000+00:00,None,Type 2 Outlet,,,CH*SWISSCHARGE,"['NFC RFID Classic', 'REMOTE']",Not Available,OnStreet,CH*SWIEE23219,+41713881150,True,8038,Zürich,Mythenquai 320,CHE,,0,Direct,True,"[{'Power': 22, 'PowerType': 'AC_3_PHASE'}]",False,"[{'lang': 'de', 'value': 'ewz BP Wollishofen'}]",CH*SWIEE23222,Free publicly accessible,true,47.34875997 8.5340113,,,,,insert,,UTC+01:00,CH*SWISSCHARGE
Feature,CH*SWIEE241437,Point,"[8.55703857, 47.36905083]",evse,CH*SWIEE241437,Available,2024-03-22 03:15:09.644000+00:00,None,Type 2 Outlet,,,CH*SWISSCHARGE,"['NFC RFID Classic', 'REMOTE']",Not Available,OnStreet,CH*SWIEE241437,+41713881150,True,0,Zürich,Freiestrasse 65,CHE,,0,Direct,True,"[{'Power': 22, 'PowerType': 'AC_3_PHASE'}]",False,"[{'lang': 'de', 'value': 'KLFEH Freiestrasse 65 PP45'}]",CH*SWIEE241437,Free publicly accessible,true,47.369050832392375 8.557038570315195,,,,,insert,,UTC+01:00,CH*SWISSCHARGE
Feature,CH*SWIEE241438,Point,"[8.55703857, 47.36905083]",evse,CH*SWIEE241438,Available,2024-03-22 03:15:09.644000+00:00,None,Type 2 Outlet,,,CH*SWISSCHARGE,"['NFC RFID Classic', 'REMOTE']",Not Available,OnStreet,CH*SWIEE241438,+41713881150,True,0,Zürich,Freiestrasse 65,CHE,,0,Direct,True,"[{'Power': 22, 'PowerType': 'AC_3_PHASE'}]",False,"[{'lang': 'de', 'value': 'KLFEH Freiestrasse 65 PP45'}]",CH*SWIEE241438,Free publicly accessible,true,47.369050832392375 8.557038570315195,,,,,insert,,UTC+01:00,CH*SWISSCHARGE
Feature,CH*SWIEE241439,Point,"[8.55703857, 47.36905083]",evse,CH*SWIEE241439,Available,2024-03-22 03:15:09.644000+00:00,None,Type 2 Outlet,,,CH*SWISSCHARGE,"['NFC RFID Classic', 'REMOTE']",Not Available,OnStreet,CH*SWIEE241439,+41713881150,True,0,Zürich,Freiestrasse 65,CHE,,0,Direct,True,"[{'Power': 22, 'PowerType': 'AC_3_PHASE'}]",False,"[{'lang': 'de', 'value': 'KLFEH Freiestrasse 65 PP45'}]",CH*SWIEE241439,Free publicly accessible,true,47.369050832392375 8.557038570315195,,,,,insert,,UTC+01:00,CH*SWISSCHARGE
Feature,CH*SWIEE241441,Point,"[8.55703857, 47.36905083]",evse,CH*SWIEE241441,Available,2024-03-22 03:15:09.645000+00:00,None,Type 2 Outlet,,,CH*SWISSCHARGE,"['NFC RFID Classic', 'REMOTE']",Not Available,OnStreet,CH*SWIEE241441,+41713881150,True,0,Zürich,Freiestrasse 65,CHE,,0,Direct,True,"[{'Power': 22, 'PowerType': 'AC_3_PHASE'}]",False,"[{'lang': 'de', 'value': 'KLFEH Freiestrasse 65 PP45'}]",CH*SWIEE241441,Free publicly accessible,true,47.369050832392375 8.557038570315195,,,,,insert,,UTC+01:00,CH*SWISSCHARGE
Feature,CH*SWIEE241446,Point,"[8.55703857, 47.36905083]",evse,CH*SWIEE241446,Available,2024-03-22 03:15:09.645000+00:00,None,Type 2 Outlet,,,CH*SWISSCHARGE,"['NFC RFID Classic', 'REMOTE']",Not Available,OnStreet,CH*SWIEE241446,+41713881150,True,0,Zürich,Freiestrasse 65,CHE,,0,Direct,True,"[{'Power': 22, 'PowerType': 'AC_3_PHASE'}]",False,"[{'lang': 'de', 'value': 'KLFEH Freiestrasse 65 PP45'}]",CH*SWIEE241446,Free publicly accessible,true,47.369050832392375 8.557038570315195,,,,,insert,,UTC+01:00,CH*SWISSCHARGE
Feature,CH*SWIEE241432,Point,"[8.55703857, 47.36905083]",evse,CH*SWIEE241432,Available,2024-03-22 03:15:09.644000+00:00,None,Type 2 Outlet,,,CH*SWISSCHARGE,"['NFC RFID Classic', 'REMOTE']",Not Available,OnStreet,CH*SWIEE241432,+41713881150,True,0,Zürich,Freiestrasse 65,CHE,,0,Direct,True,"[{'Power': 22, 'PowerType': 'AC_3_PHASE'}]",False,"[{'lang': 'de', 'value': 'KLFEH Freiestrasse 65 PP45'}]",CH*SWIEE241432,Free publicly accessible,true,47.369050832392375 8.557038570315195,,,,,insert,,UTC+01:00,CH*SWISSCHARGE
Feature,CH*SWIEE241448,Point,"[8.55703857, 47.36905083]",evse,CH*SWIEE241448,Available,2024-03-22 03:15:09.645000+00:00,None,Type 2 Outlet,,,CH*SWISSCHARGE,"['NFC RFID Classic', 'REMOTE']",Not Available,OnStreet,CH*SWIEE241448,+41713881150,True,0,Zürich,Freiestrasse 65,CHE,,0,Direct,True,"[{'Power': 22, 'PowerType': 'AC_3_PHASE'}]",False,"[{'lang': 'de', 'value': 'KLFEH Freiestrasse 65 PP45'}]",CH*SWIEE241448,Free publicly accessible,true,47.369050832392375 8.557038570315195,,,,,insert,,UTC+01:00,CH*SWISSCHARGE
Feature,CH*SWIEE241444,Point,"[8.55703857, 47.36905083]",evse,CH*SWIEE241444,Available,2024-03-22 03:15:09.645000+00:00,None,Type 2 Outlet,,,CH*SWISSCHARGE,"['NFC RFID Classic', 'REMOTE']",Not Available,OnStreet,CH*SWIEE241444,+41713881150,True,0,Zürich,Freiestrasse 65,CHE,,0,Direct,True,"[{'Power': 22, 'PowerType': 'AC_3_PHASE'}]",False,"[{'lang': 'de', 'value': 'KLFEH Freiestrasse 65 PP45'}]",CH*SWIEE241444,Free publicly accessible,true,47.369050832392375 8.557038570315195,,,,,insert,,UTC+01:00,CH*SWISSCHARGE
Feature,CH*SWIEE241430,Point,"[8.55703857, 47.36905083]",evse,CH*SWIEE241430,Available,2024-03-22 03:15:09.644000+00:00,None,Type 2 Outlet,,,CH*SWISSCHARGE,"['NFC RFID Classic', 'REMOTE']",Not Available,OnStreet,CH*SWIEE241430,+41713881150,True,0,Zürich,Freiestrasse 65,CHE,,0,Direct,True,"[{'Power': 22, 'PowerType': 'AC_3_PHASE'}]",False,"[{'lang': 'de', 'value': 'KLFEH Freiestrasse 65 PP45'}]",CH*SWIEE241430,Free publicly accessible,true,47.369050832392375 8.557038570315195,,,,,insert,,UTC+01:00,CH*SWISSCHARGE
Feature,CH*SWIEE241433,Point,"[8.55703857, 47.36905083]",evse,CH*SWIEE241433,Available,2024-03-22 03:15:09.644000+00:00,None,Type 2 Outlet,,,CH*SWISSCHARGE,"['NFC RFID Classic', 'REMOTE']",Not Available,OnStreet,CH*SWIEE241433,+41713881150,True,0,Zürich,Freiestrasse 65,CHE,,0,Direct,True,"[{'Power': 22, 'PowerType': 'AC_3_PHASE'}]",False,"[{'lang': 'de', 'value': 'KLFEH Freiestrasse 65 PP45'}]",CH*SWIEE241433,Free publicly accessible,true,47.369050832392375 8.557038570315195,,,,,insert,,UTC+01:00,CH*SWISSCHARGE
Feature,CH*SWIEE241436,Point,"[8.55703857, 47.36905083]",evse,CH*SWIEE241436,Available,2024-03-22 03:15:09.644000+00:00,None,Type 2 Outlet,,,CH*SWISSCHARGE,"['NFC RFID Classic', 'REMOTE']",Not Available,OnStreet,CH*SWIEE241436,+41713881150,True,0,Zürich,Freiestrasse 65,CHE,,0,Direct,True,"[{'Power': 22, 'PowerType': 'AC_3_PHASE'}]",False,"[{'lang': 'de', 'value': 'KLFEH Freiestrasse 65 PP45'}]",CH*SWIEE241436,Free publicly accessible,true,47.369050832392375 8.557038570315195,,,,,insert,,UTC+01:00,CH*SWISSCHARGE
Feature,CH*SWIEE241435,Point,"[8.55703857, 47.36905083]",evse,CH*SWIEE241435,Available,2024-03-22 03:15:09.644000+00:00,None,Type 2 Outlet,,,CH*SWISSCHARGE,"['NFC RFID Classic', 'REMOTE']",Not Available,OnStreet,CH*SWIEE241435,+41713881150,True,0,Zürich,Freiestrasse 65,CHE,,0,Direct,True,"[{'Power': 22, 'PowerType': 'AC_3_PHASE'}]",False,"[{'lang': 'de', 'value': 'KLFEH Freiestrasse 65 PP45'}]",CH*SWIEE241435,Free publicly accessible,true,47.369050832392375 8.557038570315195,,,,,insert,,UTC+01:00,CH*SWISSCHARGE
Feature,CH*SWIEE241431,Point,"[8.55703857, 47.36905083]",evse,CH*SWIEE241431,Available,2024-03-22 03:15:09.644000+00:00,None,Type 2 Outlet,,,CH*SWISSCHARGE,"['NFC RFID Classic', 'REMOTE']",Not Available,OnStreet,CH*SWIEE241431,+41713881150,True,0,Zürich,Freiestrasse 65,CHE,,0,Direct,True,"[{'Power': 22, 'PowerType': 'AC_3_PHASE'}]",False,"[{'lang': 'de', 'value': 'KLFEH Freiestrasse 65 PP45'}]",CH*SWIEE241431,Free publicly accessible,true,47.369050832392375 8.557038570315195,,,,,insert,,UTC+01:00,CH*SWISSCHARGE
Feature,CH*SWIEE241434,Point,"[8.55703857, 47.36905083]",evse,CH*SWIEE241434,Available,2024-03-22 03:15:09.644000+00:00,None,Type 2 Outlet,,,CH*SWISSCHARGE,"['NFC RFID Classic', 'REMOTE']",Not Available,OnStreet,CH*SWIEE241434,+41713881150,True,0,Zürich,Freiestrasse 65,CHE,,0,Direct,True,"[{'Power': 22, 'PowerType': 'AC_3_PHASE'}]",False,"[{'lang': 'de', 'value': 'KLFEH Freiestrasse 65 PP45'}]",CH*SWIEE241434,Free publicly accessible,true,47.369050832392375 8.557038570315195,,,,,insert,,UTC+01:00,CH*SWISSCHARGE
Feature,CH*SWIEE241443,Point,"[8.55703857, 47.36905083]",evse,CH*SWIEE241443,Available,2024-03-22 03:15:09.645000+00:00,None,Type 2 Outlet,,,CH*SWISSCHARGE,"['NFC RFID Classic', 'REMOTE']",Not Available,OnStreet,CH*SWIEE241443,+41713881150,True,0,Zürich,Freiestrasse 65,CHE,,0,Direct,True,"[{'Power': 22, 'PowerType': 'AC_3_PHASE'}]",False,"[{'lang': 'de', 'value': 'KLFEH Freiestrasse 65 PP45'}]",CH*SWIEE241443,Free publicly accessible,true,47.369050832392375 8.557038570315195,,,,,insert,,UTC+01:00,CH*SWISSCHARGE
Feature,CH*SWIEE241449,Point,"[8.55703857, 47.36905083]",evse,CH*SWIEE241449,Available,2024-03-22 03:15:09.645000+00:00,None,Type 2 Outlet,,,CH*SWISSCHARGE,"['NFC RFID Classic', 'REMOTE']",Not Available,OnStreet,CH*SWIEE241449,+41713881150,True,0,Zürich,Freiestrasse 65,CHE,,0,Direct,True,"[{'Power': 22, 'PowerType': 'AC_3_PHASE'}]",False,"[{'lang': 'de', 'value': 'KLFEH Freiestrasse 65 PP45'}]",CH*SWIEE241449,Free publicly accessible,true,47.369050832392375 8.557038570315195,,,,,insert,,UTC+01:00,CH*SWISSCHARGE
Feature,CH*SWIEE241451,Point,"[8.55703857, 47.36905083]",evse,CH*SWIEE241451,Available,2024-03-22 03:15:09.645000+00:00,None,Type 2 Outlet,,,CH*SWISSCHARGE,"['NFC RFID Classic', 'REMOTE']",Not Available,OnStreet,CH*SWIEE241451,+41713881150,True,0,Zürich,Freiestrasse 65,CHE,,0,Direct,True,"[{'Power': 22, 'PowerType': 'AC_3_PHASE'}]",False,"[{'lang': 'de', 'value': 'KLFEH Freiestrasse 65 PP45'}]",CH*SWIEE241451,Free publicly accessible,true,47.369050832392375 8.557038570315195,,,,,insert,,UTC+01:00,CH*SWISSCHARGE
Feature,CH*SWIEE241440,Point,"[8.55703857, 47.36905083]",evse,CH*SWIEE241440,Available,2024-03-22 03:15:09.645000+00:00,None,Type 2 Outlet,,,CH*SWISSCHARGE,"['NFC RFID Classic', 'REMOTE']",Not Available,OnStreet,CH*SWIEE241440,+41713881150,True,0,Zürich,Freiestrasse 65,CHE,,0,Direct,True,"[{'Power': 22, 'PowerType': 'AC_3_PHASE'}]",False,"[{'lang': 'de', 'value': 'KLFEH Freiestrasse 65 PP45'}]",CH*SWIEE241440,Free publicly accessible,true,47.369050832392375 8.557038570315195,,,,,insert,,UTC+01:00,CH*SWISSCHARGE
Feature,CH*SWIEE241442,Point,"[8.55703857, 47.36905083]",evse,CH*SWIEE241442,Available,2024-03-22 03:15:09.645000+00:00,None,Type 2 Outlet,,,CH*SWISSCHARGE,"['NFC RFID Classic', 'REMOTE']",Not Available,OnStreet,CH*SWIEE241442,+41713881150,True,0,Zürich,Freiestrasse 65,CHE,,0,Direct,True,"[{'Power': 22, 'PowerType': 'AC_3_PHASE'}]",False,"[{'lang': 'de', 'value': 'KLFEH Freiestrasse 65 PP45'}]",CH*SWIEE241442,Free publicly accessible,true,47.369050832392375 8.557038570315195,,,,,insert,,UTC+01:00,CH*SWISSCHARGE
Feature,CH*SWIEE241447,Point,"[8.55703857, 47.36905083]",evse,CH*SWIEE241447,Available,2024-03-22 03:15:09.645000+00:00,None,Type 2 Outlet,,,CH*SWISSCHARGE,"['NFC RFID Classic', 'REMOTE']",Not Available,OnStreet,CH*SWIEE241447,+41713881150,True,0,Zürich,Freiestrasse 65,CHE,,0,Direct,True,"[{'Power': 22, 'PowerType': 'AC_3_PHASE'}]",False,"[{'lang': 'de', 'value': 'KLFEH Freiestrasse 65 PP45'}]",CH*SWIEE241447,Free publicly accessible,true,47.369050832392375 8.557038570315195,,,,,insert,,UTC+01:00,CH*SWISSCHARGE
Feature,CH*SWIEE24645,Point,"[8.57032, 47.403573]",evse,CH*SWIEE24645,Available,2024-03-22 03:15:09.647000+00:00,None,Type 2 Outlet,,,CH*SWISSCHARGE,"['NFC RFID Classic', 'REMOTE']",Not Available,OnStreet,CH*SWIEE24645,+41713881150,True,8051,Zürich,Bocklerstrasse 10,CHE,,0,Direct,True,"[{'Power': 43, 'PowerType': 'AC_3_PHASE'}]",False,"[{'lang': 'de', 'value': 'ewz Bocklerstrasse 10'}]",CH*SWIEE24645,Free publicly accessible,true,47.403573 8.57032,,,,,insert,,UTC+01:00,CH*SWISSCHARGE
Feature,CH*SWIEE24646,Point,"[8.57032, 47.403573]",evse,CH*SWIEE24646,Available,2024-03-22 03:15:09.647000+00:00,None,"['CCS Combo 2 Plug (Cable Attached)', 'CHAdeMO']",,,CH*SWISSCHARGE,"['NFC RFID Classic', 'REMOTE']",Not Available,OnStreet,CH*SWIEE24645,+41713881150,True,8051,Zürich,Bocklerstrasse 10,CHE,,0,Direct,True,"[{'Power': 50, 'PowerType': 'DC'}, {'Power': 50, 'PowerType': 'DC'}]",False,"[{'lang': 'de', 'value': 'ewz Bocklerstrasse 10'}]",CH*SWIEE24646,Free publicly accessible,true,47.403573 8.57032,,,,,insert,,UTC+01:00,CH*SWISSCHARGE
Feature,CH*SWIEE24647,Point,"[8.549044, 47.408934]",evse,CH*SWIEE24647,Available,2024-03-22 03:15:09.647000+00:00,None,Type 2 Outlet,,,CH*SWISSCHARGE,"['NFC RFID Classic', 'REMOTE']",Not Available,OnStreet,CH*SWIEE24647,+41713881150,True,0,Zürich,Tramstrasse 35,CHE,,0,Direct,True,"[{'Power': 43, 'PowerType': 'AC_3_PHASE'}]",False,"[{'lang': 'de', 'value': 'ewz Tramstrasse 35'}]",CH*SWIEE24647,Free publicly accessible,true,47.408934 8.549044,,,,,insert,,UTC+01:00,CH*SWISSCHARGE
Feature,CH*SWIEE24648,Point,"[8.549044, 47.408934]",evse,CH*SWIEE24648,Available,2024-03-22 03:15:09.647000+00:00,None,"['CCS Combo 2 Plug (Cable Attached)', 'CHAdeMO']",,,CH*SWISSCHARGE,"['NFC RFID Classic', 'REMOTE']",Not Available,OnStreet,CH*SWIEE24647,+41713881150,True,0,Zürich,Tramstrasse 35,CHE,,0,Direct,True,"[{'Power': 40, 'PowerType': 'DC'}, {'Power': 40, 'PowerType': 'DC'}]",False,"[{'lang': 'de', 'value': 'ewz Tramstrasse 35'}]",CH*SWIEE24648,Free publicly accessible,true,47.408934 8.549044,,,,,insert,,UTC+01:00,CH*SWISSCHARGE
Feature,CH*SWIEE24649,Point,"[8.496149, 47.403554]",evse,CH*SWIEE24649,Available,2024-03-22 03:15:09.647000+00:00,None,Type 2 Outlet,,,CH*SWISSCHARGE,"['NFC RFID Classic', 'REMOTE']",Not Available,OnStreet,CH*SWIEE24649,+41713881150,True,8049,Zürich,Singlistrasse 2,CHE,,0,Direct,True,"[{'Power': 43, 'PowerType': 'AC_3_PHASE'}]",False,"[{'lang': 'de', 'value': 'ewz Singlistrasse 2'}]",CH*SWIEE24649,Free publicly accessible,true,47.403554 8.496149,,,,,insert,,UTC+01:00,CH*SWISSCHARGE
Feature,CH*SWIEE24650,Point,"[8.496149, 47.403554]",evse,CH*SWIEE24650,Available,2024-03-22 03:15:09.647000+00:00,None,"['CCS Combo 2 Plug (Cable Attached)', 'CHAdeMO']",,,CH*SWISSCHARGE,"['NFC RFID Classic', 'REMOTE']",Not Available,OnStreet,CH*SWIEE24649,+41713881150,True,8049,Zürich,Singlistrasse 2,CHE,,0,Direct,True,"[{'Power': 50, 'PowerType': 'DC'}, {'Power': 50, 'PowerType': 'DC'}]",False,"[{'lang': 'de', 'value': 'ewz Singlistrasse 2'}]",CH*SWIEE24650,Free publicly accessible,true,47.403554 8.496149,,,,,insert,,UTC+01:00,CH*SWISSCHARGE
Feature,CH*SWIEE226176,Point,"[8.53495283, 47.35929028]",evse,CH*SWIEE226176,Available,2024-03-22 03:15:09.648000+00:00,None,Type 2 Outlet,,,CH*SWISSCHARGE,"['NFC RFID Classic', 'REMOTE']",Not Available,OnStreet,CH*SWIEE248567,+41713881150,True,0,Zürich,Mythenquai 50/60,CHE,,0,Direct,True,"[{'Power': 22, 'PowerType': 'AC_3_PHASE'}]",False,"[{'lang': 'de', 'value': 'Swiss Re Mythenquai (nicht öffentlich)'}]",CH*SWIEE226176,Free publicly accessible,true,47.35929028 8.53495283,,,,,insert,,UTC+01:00,CH*SWISSCHARGE
Feature,CH*SWIEE235325,Point,"[8.53495283, 47.35929028]",evse,CH*SWIEE235325,Available,2024-03-22 03:15:09.648000+00:00,None,Type 2 Outlet,,,CH*SWISSCHARGE,"['NFC RFID Classic', 'REMOTE']",Not Available,OnStreet,CH*SWIEE248567,+41713881150,True,0,Zürich,Mythenquai 50/60,CHE,,0,Direct,True,"[{'Power': 22, 'PowerType': 'AC_3_PHASE'}]",False,"[{'lang': 'de', 'value': 'Swiss Re Mythenquai (nicht öffentlich)'}]",CH*SWIEE235325,Free publicly accessible,true,47.35929028 8.53495283,,,,,insert,,UTC+01:00,CH*SWISSCHARGE
Feature,CH*SWIEE235326,Point,"[8.53495283, 47.35929028]",evse,CH*SWIEE235326,Occupied,2024-03-22 03:15:09.648000+00:00,None,Type 2 Outlet,,,CH*SWISSCHARGE,"['NFC RFID Classic', 'REMOTE']",Not Available,OnStreet,CH*SWIEE248567,+41713881150,True,0,Zürich,Mythenquai 50/60,CHE,,0,Direct,True,"[{'Power': 22, 'PowerType': 'AC_3_PHASE'}]",False,"[{'lang': 'de', 'value': 'Swiss Re Mythenquai (nicht öffentlich)'}]",CH*SWIEE235326,Free publicly accessible,true,47.35929028 8.53495283,,,,,insert,,UTC+01:00,CH*SWISSCHARGE
Feature,CH*SWIEE235327,Point,"[8.53495283, 47.35929028]",evse,CH*SWIEE235327,Available,2024-03-22 03:15:09.648000+00:00,None,Type 2 Outlet,,,CH*SWISSCHARGE,"['NFC RFID Classic', 'REMOTE']",Not Available,OnStreet,CH*SWIEE248567,+41713881150,True,0,Zürich,Mythenquai 50/60,CHE,,0,Direct,True,"[{'Power': 22, 'PowerType': 'AC_3_PHASE'}]",False,"[{'lang': 'de', 'value': 'Swiss Re Mythenquai (nicht öffentlich)'}]",CH*SWIEE235327,Free publicly accessible,true,47.35929028 8.53495283,,,,,insert,,UTC+01:00,CH*SWISSCHARGE
Feature,CH*SWIEE239046,Point,"[8.47108077, 47.38774904]",evse,CH*SWIEE239046,Available,2024-03-22 03:15:09.649000+00:00,None,Type 2 Outlet,,,CH*SWISSCHARGE,"['NFC RFID Classic', 'REMOTE']",Not Available,OnStreet,CH*SWIEE251173,+41713881150,True,0,Zürich,Rautistrasse 369,CHE,,0,Direct,True,"[{'Power': 22, 'PowerType': 'AC_3_PHASE'}]",False,"[{'lang': 'de', 'value': 'ewz Rautistrasse 369 Zürich'}]",CH*SWIEE239046,Free publicly accessible,true,47.38774904 8.47108077,,,,,insert,,UTC+01:00,CH*SWISSCHARGE
Feature,CH*SWIEE239050,Point,"[8.47108077, 47.38774904]",evse,CH*SWIEE239050,Available,2024-03-22 03:15:09.649000+00:00,None,Type 2 Outlet,,,CH*SWISSCHARGE,"['NFC RFID Classic', 'REMOTE']",Not Available,OnStreet,CH*SWIEE251173,+41713881150,True,0,Zürich,Rautistrasse 369,CHE,,0,Direct,True,"[{'Power': 22, 'PowerType': 'AC_3_PHASE'}]",False,"[{'lang': 'de', 'value': 'ewz Rautistrasse 369 Zürich'}]",CH*SWIEE239050,Free publicly accessible,true,47.38774904 8.47108077,,,,,insert,,UTC+01:00,CH*SWISSCHARGE
Feature,CH*SWIEE239045,Point,"[8.47108077, 47.38774904]",evse,CH*SWIEE239045,Available,2024-03-22 03:15:09.649000+00:00,None,Type 2 Outlet,,,CH*SWISSCHARGE,"['NFC RFID Classic', 'REMOTE']",Not Available,OnStreet,CH*SWIEE251173,+41713881150,True,0,Zürich,Rautistrasse 369,CHE,,0,Direct,True,"[{'Power': 22, 'PowerType': 'AC_3_PHASE'}]",False,"[{'lang': 'de', 'value': 'ewz Rautistrasse 369 Zürich'}]",CH*SWIEE239045,Free publicly accessible,true,47.38774904 8.47108077,,,,,insert,,UTC+01:00,CH*SWISSCHARGE
Feature,CH*SWIEE239047,Point,"[8.47108077, 47.38774904]",evse,CH*SWIEE239047,Available,2024-03-22 03:15:09.649000+00:00,None,Type 2 Outlet,,,CH*SWISSCHARGE,"['NFC RFID Classic', 'REMOTE']",Not Available,OnStreet,CH*SWIEE251173,+41713881150,True,0,Zürich,Rautistrasse 369,CHE,,0,Direct,True,"[{'Power': 22, 'PowerType': 'AC_3_PHASE'}]",False,"[{'lang': 'de', 'value': 'ewz Rautistrasse 369 Zürich'}]",CH*SWIEE239047,Free publicly accessible,true,47.38774904 8.47108077,,,,,insert,,UTC+01:00,CH*SWISSCHARGE
Feature,CH*SWIEE239049,Point,"[8.47108077, 47.38774904]",evse,CH*SWIEE239049,Available,2024-03-22 03:15:09.649000+00:00,None,Type 2 Outlet,,,CH*SWISSCHARGE,"['NFC RFID Classic', 'REMOTE']",Not Available,OnStreet,CH*SWIEE251173,+41713881150,True,0,Zürich,Rautistrasse 369,CHE,,0,Direct,True,"[{'Power': 22, 'PowerType': 'AC_3_PHASE'}]",False,"[{'lang': 'de', 'value': 'ewz Rautistrasse 369 Zürich'}]",CH*SWIEE239049,Free publicly accessible,true,47.38774904 8.47108077,,,,,insert,,UTC+01:00,CH*SWISSCHARGE
Feature,CH*SWIEE239048,Point,"[8.47108077, 47.38774904]",evse,CH*SWIEE239048,Available,2024-03-22 03:15:09.649000+00:00,None,Type 2 Outlet,,,CH*SWISSCHARGE,"['NFC RFID Classic', 'REMOTE']",Not Available,OnStreet,CH*SWIEE251173,+41713881150,True,0,Zürich,Rautistrasse 369,CHE,,0,Direct,True,"[{'Power': 22, 'PowerType': 'AC_3_PHASE'}]",False,"[{'lang': 'de', 'value': 'ewz Rautistrasse 369 Zürich'}]",CH*SWIEE239048,Free publicly accessible,true,47.38774904 8.47108077,,,,,insert,,UTC+01:00,CH*SWISSCHARGE
Feature,CH*SWIEE239601,Point,"[8.53823892, 47.37499299]",evse,CH*SWIEE239601,Available,2024-03-22 03:15:09.650000+00:00,None,Type 2 Outlet,,,CH*SWISSCHARGE,"['NFC RFID Classic', 'REMOTE']",Not Available,OnStreet,CH*SWIEE254510,+41713881150,True,0,Zürich,Bahnhofstr. 75/79,CHE,,0,Direct,True,"[{'Power': 22, 'PowerType': 'AC_3_PHASE'}]",False,"[{'lang': 'de', 'value': 'Bahnhofstr. 75/79, 8001 Zürich, PP17'}]",CH*SWIEE239601,Free publicly accessible,true,47.37499299 8.53823892,,,,,insert,,UTC+01:00,CH*SWISSCHARGE
Feature,CH*SWIEE239599,Point,"[8.53823892, 47.37499299]",evse,CH*SWIEE239599,Available,2024-03-22 03:15:09.650000+00:00,None,Type 2 Outlet,,,CH*SWISSCHARGE,"['NFC RFID Classic', 'REMOTE']",Not Available,OnStreet,CH*SWIEE254510,+41713881150,True,0,Zürich,Bahnhofstr. 75/79,CHE,,0,Direct,True,"[{'Power': 22, 'PowerType': 'AC_3_PHASE'}]",False,"[{'lang': 'de', 'value': 'Bahnhofstr. 75/79, 8001 Zürich, PP17'}]",CH*SWIEE239599,Free publicly accessible,true,47.37499299 8.53823892,,,,,insert,,UTC+01:00,CH*SWISSCHARGE
Feature,CH*SWIEE239603,Point,"[8.53823892, 47.37499299]",evse,CH*SWIEE239603,Available,2024-03-22 03:15:09.650000+00:00,None,Type 2 Outlet,,,CH*SWISSCHARGE,"['NFC RFID Classic', 'REMOTE']",Not Available,OnStreet,CH*SWIEE254510,+41713881150,True,0,Zürich,Bahnhofstr. 75/79,CHE,,0,Direct,True,"[{'Power': 22, 'PowerType': 'AC_3_PHASE'}]",False,"[{'lang': 'de', 'value': 'Bahnhofstr. 75/79, 8001 Zürich, PP17'}]",CH*SWIEE239603,Free publicly accessible,true,47.37499299 8.53823892,,,,,insert,,UTC+01:00,CH*SWISSCHARGE
Feature,CH*SWIEE239602,Point,"[8.53823892, 47.37499299]",evse,CH*SWIEE239602,Available,2024-03-22 03:15:09.650000+00:00,None,Type 2 Outlet,,,CH*SWISSCHARGE,"['NFC RFID Classic', 'REMOTE']",Not Available,OnStreet,CH*SWIEE254510,+41713881150,True,0,Zürich,Bahnhofstr. 75/79,CHE,,0,Direct,True,"[{'Power': 22, 'PowerType': 'AC_3_PHASE'}]",False,"[{'lang': 'de', 'value': 'Bahnhofstr. 75/79, 8001 Zürich, PP17'}]",CH*SWIEE239602,Free publicly accessible,true,47.37499299 8.53823892,,,,,insert,,UTC+01:00,CH*SWISSCHARGE
Feature,CH*SWIEE239605,Point,"[8.53823892, 47.37499299]",evse,CH*SWIEE239605,Available,2024-03-22 03:15:09.650000+00:00,None,Type 2 Outlet,,,CH*SWISSCHARGE,"['NFC RFID Classic', 'REMOTE']",Not Available,OnStreet,CH*SWIEE254510,+41713881150,True,0,Zürich,Bahnhofstr. 75/79,CHE,,0,Direct,True,"[{'Power': 22, 'PowerType': 'AC_3_PHASE'}]",False,"[{'lang': 'de', 'value': 'Bahnhofstr. 75/79, 8001 Zürich, PP17'}]",CH*SWIEE239605,Free publicly accessible,true,47.37499299 8.53823892,,,,,insert,,UTC+01:00,CH*SWISSCHARGE
Feature,CH*SWIEE239604,Point,"[8.53823892, 47.37499299]",evse,CH*SWIEE239604,Available,2024-03-22 03:15:09.650000+00:00,None,Type 2 Outlet,,,CH*SWISSCHARGE,"['NFC RFID Classic', 'REMOTE']",Not Available,OnStreet,CH*SWIEE254510,+41713881150,True,0,Zürich,Bahnhofstr. 75/79,CHE,,0,Direct,True,"[{'Power': 22, 'PowerType': 'AC_3_PHASE'}]",False,"[{'lang': 'de', 'value': 'Bahnhofstr. 75/79, 8001 Zürich, PP17'}]",CH*SWIEE239604,Free publicly accessible,true,47.37499299 8.53823892,,,,,insert,,UTC+01:00,CH*SWISSCHARGE
Feature,CH*SWIEE239607,Point,"[8.53823892, 47.37499299]",evse,CH*SWIEE239607,Occupied,2024-03-22 03:15:09.650000+00:00,None,Type 2 Outlet,,,CH*SWISSCHARGE,"['NFC RFID Classic', 'REMOTE']",Not Available,OnStreet,CH*SWIEE254510,+41713881150,True,0,Zürich,Bahnhofstr. 75/79,CHE,,0,Direct,True,"[{'Power': 22, 'PowerType': 'AC_3_PHASE'}]",False,"[{'lang': 'de', 'value': 'Bahnhofstr. 75/79, 8001 Zürich, PP17'}]",CH*SWIEE239607,Free publicly accessible,true,47.37499299 8.53823892,,,,,insert,,UTC+01:00,CH*SWISSCHARGE
Feature,CH*SWIEE239608,Point,"[8.53823892, 47.37499299]",evse,CH*SWIEE239608,Available,2024-03-22 03:15:09.650000+00:00,None,Type 2 Outlet,,,CH*SWISSCHARGE,"['NFC RFID Classic', 'REMOTE']",Not Available,OnStreet,CH*SWIEE254510,+41713881150,True,0,Zürich,Bahnhofstr. 75/79,CHE,,0,Direct,True,"[{'Power': 22, 'PowerType': 'AC_3_PHASE'}]",False,"[{'lang': 'de', 'value': 'Bahnhofstr. 75/79, 8001 Zürich, PP17'}]",CH*SWIEE239608,Free publicly accessible,true,47.37499299 8.53823892,,,,,insert,,UTC+01:00,CH*SWISSCHARGE
Feature,CH*SWIEE239611,Point,"[8.53823892, 47.37499299]",evse,CH*SWIEE239611,Available,2024-03-22 03:15:09.650000+00:00,None,Type 2 Outlet,,,CH*SWISSCHARGE,"['NFC RFID Classic', 'REMOTE']",Not Available,OnStreet,CH*SWIEE254510,+41713881150,True,0,Zürich,Bahnhofstr. 75/79,CHE,,0,Direct,True,"[{'Power': 22, 'PowerType': 'AC_3_PHASE'}]",False,"[{'lang': 'de', 'value': 'Bahnhofstr. 75/79, 8001 Zürich, PP17'}]",CH*SWIEE239611,Free publicly accessible,true,47.37499299 8.53823892,,,,,insert,,UTC+01:00,CH*SWISSCHARGE
Feature,CH*SWIEE239610,Point,"[8.53823892, 47.37499299]",evse,CH*SWIEE239610,Available,2024-03-22 03:15:09.650000+00:00,None,Type 2 Outlet,,,CH*SWISSCHARGE,"['NFC RFID Classic', 'REMOTE']",Not Available,OnStreet,CH*SWIEE254510,+41713881150,True,0,Zürich,Bahnhofstr. 75/79,CHE,,0,Direct,True,"[{'Power': 22, 'PowerType': 'AC_3_PHASE'}]",False,"[{'lang': 'de', 'value': 'Bahnhofstr. 75/79, 8001 Zürich, PP17'}]",CH*SWIEE239610,Free publicly accessible,true,47.37499299 8.53823892,,,,,insert,,UTC+01:00,CH*SWISSCHARGE
Feature,CH*SWIEE239609,Point,"[8.53823892, 47.37499299]",evse,CH*SWIEE239609,Available,2024-03-22 03:15:09.650000+00:00,None,Type 2 Outlet,,,CH*SWISSCHARGE,"['NFC RFID Classic', 'REMOTE']",Not Available,OnStreet,CH*SWIEE254510,+41713881150,True,0,Zürich,Bahnhofstr. 75/79,CHE,,0,Direct,True,"[{'Power': 22, 'PowerType': 'AC_3_PHASE'}]",False,"[{'lang': 'de', 'value': 'Bahnhofstr. 75/79, 8001 Zürich, PP17'}]",CH*SWIEE239609,Free publicly accessible,true,47.37499299 8.53823892,,,,,insert,,UTC+01:00,CH*SWISSCHARGE
Feature,CH*SWIEE239612,Point,"[8.53823892, 47.37499299]",evse,CH*SWIEE239612,Available,2024-03-22 03:15:09.650000+00:00,None,Type 2 Outlet,,,CH*SWISSCHARGE,"['NFC RFID Classic', 'REMOTE']",Not Available,OnStreet,CH*SWIEE254510,+41713881150,True,0,Zürich,Bahnhofstr. 75/79,CHE,,0,Direct,True,"[{'Power': 22, 'PowerType': 'AC_3_PHASE'}]",False,"[{'lang': 'de', 'value': 'Bahnhofstr. 75/79, 8001 Zürich, PP17'}]",CH*SWIEE239612,Free publicly accessible,true,47.37499299 8.53823892,,,,,insert,,UTC+01:00,CH*SWISSCHARGE
Feature,CH*SWIEE2601,Point,"[8.48909, 47.379339]",evse,CH*SWIEE2601,Available,2024-03-22 03:15:09.651000+00:00,None,Type 2 Outlet,,,CH*SWISSCHARGE,"['NFC RFID Classic', 'REMOTE']",Not Available,OnStreet,CH*SWIEE2548,+41713881150,True,0,Zürich,Freilagerstrasse 57,CHE,,0,Direct,True,"[{'Power': 11, 'PowerType': 'AC_3_PHASE'}]",False,"[{'lang': 'de', 'value': 'Freilager Zürich'}]",CH*SWIEE2601,Free publicly accessible,true,47.379339 8.48909,,,,,insert,,UTC+01:00,CH*SWISSCHARGE
Feature,CH*SWIEE239613,Point,"[8.53823892, 47.37499299]",evse,CH*SWIEE239613,Available,2024-03-22 03:15:09.650000+00:00,None,Type 2 Outlet,,,CH*SWISSCHARGE,"['NFC RFID Classic', 'REMOTE']",Not Available,OnStreet,CH*SWIEE254510,+41713881150,True,0,Zürich,Bahnhofstr. 75/79,CHE,,0,Direct,True,"[{'Power': 22, 'PowerType': 'AC_3_PHASE'}]",False,"[{'lang': 'de', 'value': 'Bahnhofstr. 75/79, 8001 Zürich, PP17'}]",CH*SWIEE239613,Free publicly accessible,true,47.37499299 8.53823892,,,,,insert,,UTC+01:00,CH*SWISSCHARGE
Feature,CH*SWIEE2548,Point,"[8.48909, 47.379339]",evse,CH*SWIEE2548,Available,2024-03-22 03:15:09.651000+00:00,None,Type 2 Outlet,,,CH*SWISSCHARGE,"['NFC RFID Classic', 'REMOTE']",Not Available,OnStreet,CH*SWIEE2548,+41713881150,True,0,Zürich,Freilagerstrasse 57,CHE,,0,Direct,True,"[{'Power': 11, 'PowerType': 'AC_3_PHASE'}]",False,"[{'lang': 'de', 'value': 'Freilager Zürich'}]",CH*SWIEE2548,Free publicly accessible,true,47.379339 8.48909,,,,,insert,,UTC+01:00,CH*SWISSCHARGE
Feature,CH*SWIEE242495,Point,"[8.5137372, 47.3611579]",evse,CH*SWIEE242495,Available,2024-03-22 03:15:09.652000+00:00,None,Type 2 Outlet,,,CH*SWISSCHARGE,"['NFC RFID Classic', 'REMOTE']",Not Available,OnStreet,CH*SWIEE258392,+41713881150,True,0,Zürich,Grubenstrasse 35,CHE,,0,Direct,True,"[{'Power': 22, 'PowerType': 'AC_3_PHASE'}]",False,"[{'lang': 'de', 'value': 'ewz Grubenstrasse 35 Zürich'}]",CH*SWIEE242495,Free publicly accessible,true,47.3611579 8.5137372,,,,,insert,,UTC+01:00,CH*SWISSCHARGE
Feature,CH*SWIEE242494,Point,"[8.5137372, 47.3611579]",evse,CH*SWIEE242494,Available,2024-03-22 03:15:09.652000+00:00,None,Type 2 Outlet,,,CH*SWISSCHARGE,"['NFC RFID Classic', 'REMOTE']",Not Available,OnStreet,CH*SWIEE258392,+41713881150,True,0,Zürich,Grubenstrasse 35,CHE,,0,Direct,True,"[{'Power': 22, 'PowerType': 'AC_3_PHASE'}]",False,"[{'lang': 'de', 'value': 'ewz Grubenstrasse 35 Zürich'}]",CH*SWIEE242494,Free publicly accessible,true,47.3611579 8.5137372,,,,,insert,,UTC+01:00,CH*SWISSCHARGE
Feature,CH*SWIEE2600,Point,"[8.48909, 47.379339]",evse,CH*SWIEE2600,Occupied,2024-03-22 03:15:09.651000+00:00,None,Type 2 Outlet,,,CH*SWISSCHARGE,"['NFC RFID Classic', 'REMOTE']",Not Available,OnStreet,CH*SWIEE2548,+41713881150,True,0,Zürich,Freilagerstrasse 57,CHE,,0,Direct,True,"[{'Power': 11, 'PowerType': 'AC_3_PHASE'}]",False,"[{'lang': 'de', 'value': 'Freilager Zürich'}]",CH*SWIEE2600,Free publicly accessible,true,47.379339 8.48909,,,,,insert,,UTC+01:00,CH*SWISSCHARGE
Feature,CH*SWIEE242492,Point,"[8.5137372, 47.3611579]",evse,CH*SWIEE242492,Available,2024-03-22 03:15:09.652000+00:00,None,Type 2 Outlet,,,CH*SWISSCHARGE,"['NFC RFID Classic', 'REMOTE']",Not Available,OnStreet,CH*SWIEE258392,+41713881150,True,0,Zürich,Grubenstrasse 35,CHE,,0,Direct,True,"[{'Power': 22, 'PowerType': 'AC_3_PHASE'}]",False,"[{'lang': 'de', 'value': 'ewz Grubenstrasse 35 Zürich'}]",CH*SWIEE242492,Free publicly accessible,true,47.3611579 8.5137372,,,,,insert,,UTC+01:00,CH*SWISSCHARGE
Feature,CH*SWIEE242493,Point,"[8.5137372, 47.3611579]",evse,CH*SWIEE242493,Available,2024-03-22 03:15:09.652000+00:00,None,Type 2 Outlet,,,CH*SWISSCHARGE,"['NFC RFID Classic', 'REMOTE']",Not Available,OnStreet,CH*SWIEE258392,+41713881150,True,0,Zürich,Grubenstrasse 35,CHE,,0,Direct,True,"[{'Power': 22, 'PowerType': 'AC_3_PHASE'}]",False,"[{'lang': 'de', 'value': 'ewz Grubenstrasse 35 Zürich'}]",CH*SWIEE242493,Free publicly accessible,true,47.3611579 8.5137372,,,,,insert,,UTC+01:00,CH*SWISSCHARGE
Feature,CH*SWIEE33175,Point,"[8.593211, 47.359365]",evse,CH*SWIEE33175,Occupied,2024-03-22 03:15:09.660000+00:00,None,Type 2 Outlet,,,CH*SWISSCHARGE,"['NFC RFID Classic', 'REMOTE']",Not Available,OnStreet,CH*SWIEE33175,+41713881150,True,0,Zürich,Witikonerstrasse 390,CHE,,0,Direct,True,"[{'Power': 22, 'PowerType': 'AC_3_PHASE'}]",False,"[{'lang': 'de', 'value': 'ewz Witikonerstrasse 390'}]",CH*SWIEE33175,Free publicly accessible,true,47.359365 8.593211,,,,,insert,,UTC+01:00,CH*SWISSCHARGE
Feature,CH*SWIEE33176,Point,"[8.593211, 47.359365]",evse,CH*SWIEE33176,Available,2024-03-22 03:15:09.660000+00:00,None,"['CCS Combo 2 Plug (Cable Attached)', 'CHAdeMO']",,,CH*SWISSCHARGE,"['NFC RFID Classic', 'REMOTE']",Not Available,OnStreet,CH*SWIEE33175,+41713881150,True,0,Zürich,Witikonerstrasse 390,CHE,,0,Direct,True,"[{'Power': 50, 'PowerType': 'DC'}, {'Power': 50, 'PowerType': 'DC'}]",False,"[{'lang': 'de', 'value': 'ewz Witikonerstrasse 390'}]",CH*SWIEE33176,Free publicly accessible,true,47.359365 8.593211,,,,,insert,,UTC+01:00,CH*SWISSCHARGE
Feature,CH*SWIEE35121,Point,"[8.5255744, 47.351804]",evse,CH*SWIEE35121,Available,2024-03-22 03:15:09.662000+00:00,None,"['CCS Combo 2 Plug (Cable Attached)', 'CHAdeMO']",,,CH*SWISSCHARGE,"['NFC RFID Classic', 'REMOTE']",Not Available,OnStreet,CH*SWIEE35120,+41713881150,True,0,Zürich,Allmendstrasse 13,CHE,,0,Direct,True,"[{'Power': 50, 'PowerType': 'DC'}, {'Power': 50, 'PowerType': 'DC'}]",False,"[{'lang': 'de', 'value': 'ewz Allmendstrasse 13. DC'}]",CH*SWIEE35121,Free publicly accessible,true,47.351804 8.5255744,,,,,insert,,UTC+01:00,CH*SWISSCHARGE
Feature,CH*SWIEE35120,Point,"[8.5255744, 47.351804]",evse,CH*SWIEE35120,Available,2024-03-22 03:15:09.662000+00:00,None,Type 2 Outlet,,,CH*SWISSCHARGE,"['NFC RFID Classic', 'REMOTE']",Not Available,OnStreet,CH*SWIEE35120,+41713881150,True,0,Zürich,Allmendstrasse 13,CHE,,0,Direct,True,"[{'Power': 22, 'PowerType': 'AC_3_PHASE'}]",False,"[{'lang': 'de', 'value': 'ewz Allmendstrasse 13. DC'}]",CH*SWIEE35120,Free publicly accessible,true,47.351804 8.5255744,,,,,insert,,UTC+01:00,CH*SWISSCHARGE
Feature,CH*SWIEE60316,Point,"[8.508795, 47.390903]",evse,CH*SWIEE60316,Available,2024-03-22 03:15:09.663000+00:00,None,Type 2 Outlet,,,CH*SWISSCHARGE,"['NFC RFID Classic', 'REMOTE']",Not Available,OnStreet,CH*SWIEE3575,+41713881150,True,8005,Zürich,Pfingstweidstrasse 102,CHE,,0,Direct,True,"[{'Power': 11, 'PowerType': 'AC_3_PHASE'}]",False,"[{'lang': 'de', 'value': 'Energie 360° 25hours Hotel Zürich West'}]",CH*SWIEE60316,Free publicly accessible,true,47.390903 8.508795,,,,,insert,,UTC+01:00,CH*SWISSCHARGE
Feature,CH*SWIEE241832,Point,"[8.5181151, 47.38976145]",evse,CH*SWIEE241832,Available,2024-03-22 03:15:09.668000+00:00,None,CCS Combo 2 Plug (Cable Attached),,,CH*SWISSCHARGE,"['NFC RFID Classic', 'REMOTE']",Not Available,OnStreet,CH*SWIEE40021,+41713881150,True,8005,Zürich,Giessereistrasse,CHE,,0,Direct,True,"[{'Power': 64, 'PowerType': 'DC'}]",False,"[{'lang': 'de', 'value': 'Energie 360° Zürich Turbinenplatz'}]",CH*SWIEE241832,Free publicly accessible,true,47.38976145 8.5181151,,,,,insert,,UTC+01:00,CH*SWISSCHARGE
Feature,CH*SWIEE241833,Point,"[8.5181151, 47.38976145]",evse,CH*SWIEE241833,Available,2024-03-22 03:15:09.668000+00:00,None,CCS Combo 2 Plug (Cable Attached),,,CH*SWISSCHARGE,"['NFC RFID Classic', 'REMOTE']",Not Available,OnStreet,CH*SWIEE40021,+41713881150,True,8005,Zürich,Giessereistrasse,CHE,,0,Direct,True,"[{'Power': 64, 'PowerType': 'DC'}]",False,"[{'lang': 'de', 'value': 'Energie 360° Zürich Turbinenplatz'}]",CH*SWIEE241833,Free publicly accessible,true,47.38976145 8.5181151,,,,,insert,,UTC+01:00,CH*SWISSCHARGE
Feature,CH*SWIEE42918,Point,"[8.543701, 47.41049]",evse,CH*SWIEE42918,Available,2024-03-22 03:15:09.670000+00:00,None,Type 2 Outlet,,,CH*SWISSCHARGE,"['NFC RFID Classic', 'REMOTE']",Not Available,OnStreet,CH*SWIEE43573,+41713881150,True,0,Zürich,Schulstrasse 44,CHE,,0,Direct,True,"[{'Power': 22, 'PowerType': 'AC_3_PHASE'}]",False,"[{'lang': 'de', 'value': 'Energie 360° Privera AG - Neumarkt Oerlikon'}]",CH*SWIEE42918,Free publicly accessible,true,47.41049 8.543701,,,,,insert,,UTC+01:00,CH*SWISSCHARGE
Feature,CH*SWIEE42919,Point,"[8.543701, 47.41049]",evse,CH*SWIEE42919,Available,2024-03-22 03:15:09.670000+00:00,None,Type 2 Outlet,,,CH*SWISSCHARGE,"['NFC RFID Classic', 'REMOTE']",Not Available,OnStreet,CH*SWIEE43573,+41713881150,True,0,Zürich,Schulstrasse 44,CHE,,0,Direct,True,"[{'Power': 22, 'PowerType': 'AC_3_PHASE'}]",False,"[{'lang': 'de', 'value': 'Energie 360° Privera AG - Neumarkt Oerlikon'}]",CH*SWIEE42919,Free publicly accessible,true,47.41049 8.543701,,,,,insert,,UTC+01:00,CH*SWISSCHARGE
Feature,CH*SWIEE23463,Point,"[8.543701, 47.41049]",evse,CH*SWIEE23463,Available,2024-03-22 03:15:09.670000+00:00,None,Type 2 Outlet,,,CH*SWISSCHARGE,"['NFC RFID Classic', 'REMOTE']",Not Available,OnStreet,CH*SWIEE43573,+41713881150,True,0,Zürich,Schulstrasse 44,CHE,,0,Direct,True,"[{'Power': 22, 'PowerType': 'AC_3_PHASE'}]",False,"[{'lang': 'de', 'value': 'Energie 360° Privera AG - Neumarkt Oerlikon'}]",CH*SWIEE23463,Free publicly accessible,true,47.41049 8.543701,,,,,insert,,UTC+01:00,CH*SWISSCHARGE
Feature,CH*SWIEE23462,Point,"[8.543701, 47.41049]",evse,CH*SWIEE23462,Available,2024-03-22 03:15:09.670000+00:00,None,Type 2 Outlet,,,CH*SWISSCHARGE,"['NFC RFID Classic', 'REMOTE']",Not Available,OnStreet,CH*SWIEE43573,+41713881150,True,0,Zürich,Schulstrasse 44,CHE,,0,Direct,True,"[{'Power': 22, 'PowerType': 'AC_3_PHASE'}]",False,"[{'lang': 'de', 'value': 'Energie 360° Privera AG - Neumarkt Oerlikon'}]",CH*SWIEE23462,Free publicly accessible,true,47.41049 8.543701,,,,,insert,,UTC+01:00,CH*SWISSCHARGE
Feature,CH*SWIEE44400,Point,"[8.565599, 47.449664]",evse,CH*SWIEE44400,Available,2024-03-22 03:15:09.671000+00:00,None,Type 2 Outlet,,,CH*SWISSCHARGE,"['NFC RFID Classic', 'REMOTE']",Not Available,OnStreet,CH*SWIEE44393,+41713881150,True,0,Flughafen Zürich,Parking 4,CHE,,0,Direct,True,"[{'Power': 11, 'PowerType': 'AC_3_PHASE'}]",False,"[{'lang': 'de', 'value': 'The Circle'}]",CH*SWIEE44400,Free publicly accessible,true,47.449664 8.565599,,,,,insert,,UTC+01:00,CH*SWISSCHARGE
Feature,CH*SWIEE44393,Point,"[8.565599, 47.449664]",evse,CH*SWIEE44393,Occupied,2024-03-22 03:15:09.671000+00:00,None,Type 2 Outlet,,,CH*SWISSCHARGE,"['NFC RFID Classic', 'REMOTE']",Not Available,OnStreet,CH*SWIEE44393,+41713881150,True,0,Flughafen Zürich,Parking 4,CHE,,0,Direct,True,"[{'Power': 11, 'PowerType': 'AC_3_PHASE'}]",False,"[{'lang': 'de', 'value': 'The Circle'}]",CH*SWIEE44393,Free publicly accessible,true,47.449664 8.565599,,,,,insert,,UTC+01:00,CH*SWISSCHARGE
Feature,CH*SWIEE66732,Point,"[8.565599, 47.449664]",evse,CH*SWIEE66732,Occupied,2024-03-22 03:15:09.671000+00:00,None,Type 2 Outlet,,,CH*SWISSCHARGE,"['NFC RFID Classic', 'REMOTE']",Not Available,OnStreet,CH*SWIEE44393,+41713881150,True,0,Flughafen Zürich,Parking 4,CHE,,0,Direct,True,"[{'Power': 11, 'PowerType': 'AC_3_PHASE'}]",False,"[{'lang': 'de', 'value': 'The Circle'}]",CH*SWIEE66732,Free publicly accessible,true,47.449664 8.565599,,,,,insert,,UTC+01:00,CH*SWISSCHARGE
Feature,CH*SWIEE66730,Point,"[8.565599, 47.449664]",evse,CH*SWIEE66730,Occupied,2024-03-22 03:15:09.671000+00:00,None,Type 2 Outlet,,,CH*SWISSCHARGE,"['NFC RFID Classic', 'REMOTE']",Not Available,OnStreet,CH*SWIEE44393,+41713881150,True,0,Flughafen Zürich,Parking 4,CHE,,0,Direct,True,"[{'Power': 11, 'PowerType': 'AC_3_PHASE'}]",False,"[{'lang': 'de', 'value': 'The Circle'}]",CH*SWIEE66730,Free publicly accessible,true,47.449664 8.565599,,,,,insert,,UTC+01:00,CH*SWISSCHARGE
Feature,CH*SWIEE61906,Point,"[8.565599, 47.449664]",evse,CH*SWIEE61906,Available,2024-03-22 03:15:09.671000+00:00,None,Type 2 Outlet,,,CH*SWISSCHARGE,"['NFC RFID Classic', 'REMOTE']",Not Available,OnStreet,CH*SWIEE44393,+41713881150,True,0,Flughafen Zürich,Parking 4,CHE,,0,Direct,True,"[{'Power': 11, 'PowerType': 'AC_3_PHASE'}]",False,"[{'lang': 'de', 'value': 'The Circle'}]",CH*SWIEE61906,Free publicly accessible,true,47.449664 8.565599,,,,,insert,,UTC+01:00,CH*SWISSCHARGE
Feature,CH*SWIEE66737,Point,"[8.565599, 47.449664]",evse,CH*SWIEE66737,Available,2024-03-22 03:15:09.671000+00:00,None,Type 2 Outlet,,,CH*SWISSCHARGE,"['NFC RFID Classic', 'REMOTE']",Not Available,OnStreet,CH*SWIEE44393,+41713881150,True,0,Flughafen Zürich,Parking 4,CHE,,0,Direct,True,"[{'Power': 11, 'PowerType': 'AC_3_PHASE'}]",False,"[{'lang': 'de', 'value': 'The Circle'}]",CH*SWIEE66737,Free publicly accessible,true,47.449664 8.565599,,,,,insert,,UTC+01:00,CH*SWISSCHARGE
Feature,CH*SWIEE66731,Point,"[8.565599, 47.449664]",evse,CH*SWIEE66731,Occupied,2024-03-22 03:15:09.671000+00:00,None,Type 2 Outlet,,,CH*SWISSCHARGE,"['NFC RFID Classic', 'REMOTE']",Not Available,OnStreet,CH*SWIEE44393,+41713881150,True,0,Flughafen Zürich,Parking 4,CHE,,0,Direct,True,"[{'Power': 11, 'PowerType': 'AC_3_PHASE'}]",False,"[{'lang': 'de', 'value': 'The Circle'}]",CH*SWIEE66731,Free publicly accessible,true,47.449664 8.565599,,,,,insert,,UTC+01:00,CH*SWISSCHARGE
Feature,CH*SWIEE146356,Point,"[8.565599, 47.449664]",evse,CH*SWIEE146356,Available,2024-03-22 03:15:09.671000+00:00,None,Type 2 Outlet,,,CH*SWISSCHARGE,"['NFC RFID Classic', 'REMOTE']",Not Available,OnStreet,CH*SWIEE44393,+41713881150,True,0,Flughafen Zürich,Parking 4,CHE,,0,Direct,True,"[{'Power': 11, 'PowerType': 'AC_3_PHASE'}]",False,"[{'lang': 'de', 'value': 'The Circle'}]",CH*SWIEE146356,Free publicly accessible,true,47.449664 8.565599,,,,,insert,,UTC+01:00,CH*SWISSCHARGE
Feature,CH*SWIEE141150,Point,"[8.565599, 47.449664]",evse,CH*SWIEE141150,Available,2024-03-22 03:15:09.671000+00:00,None,Type 2 Outlet,,,CH*SWISSCHARGE,"['NFC RFID Classic', 'REMOTE']",Not Available,OnStreet,CH*SWIEE44393,+41713881150,True,0,Flughafen Zürich,Parking 4,CHE,,0,Direct,True,"[{'Power': 11, 'PowerType': 'AC_3_PHASE'}]",False,"[{'lang': 'de', 'value': 'The Circle'}]",CH*SWIEE141150,Free publicly accessible,true,47.449664 8.565599,,,,,insert,,UTC+01:00,CH*SWISSCHARGE
Feature,CH*SWIEE141151,Point,"[8.565599, 47.449664]",evse,CH*SWIEE141151,Available,2024-03-22 03:15:09.671000+00:00,None,Type 2 Outlet,,,CH*SWISSCHARGE,"['NFC RFID Classic', 'REMOTE']",Not Available,OnStreet,CH*SWIEE44393,+41713881150,True,0,Flughafen Zürich,Parking 4,CHE,,0,Direct,True,"[{'Power': 11, 'PowerType': 'AC_3_PHASE'}]",False,"[{'lang': 'de', 'value': 'The Circle'}]",CH*SWIEE141151,Free publicly accessible,true,47.449664 8.565599,,,,,insert,,UTC+01:00,CH*SWISSCHARGE
Feature,CH*SWIEE146350,Point,"[8.565599, 47.449664]",evse,CH*SWIEE146350,Occupied,2024-03-22 03:15:09.671000+00:00,None,Type 2 Outlet,,,CH*SWISSCHARGE,"['NFC RFID Classic', 'REMOTE']",Not Available,OnStreet,CH*SWIEE44393,+41713881150,True,0,Flughafen Zürich,Parking 4,CHE,,0,Direct,True,"[{'Power': 11, 'PowerType': 'AC_3_PHASE'}]",False,"[{'lang': 'de', 'value': 'The Circle'}]",CH*SWIEE146350,Free publicly accessible,true,47.449664 8.565599,,,,,insert,,UTC+01:00,CH*SWISSCHARGE
Feature,CH*SWIEE146353,Point,"[8.565599, 47.449664]",evse,CH*SWIEE146353,Occupied,2024-03-22 03:15:09.671000+00:00,None,Type 2 Outlet,,,CH*SWISSCHARGE,"['NFC RFID Classic', 'REMOTE']",Not Available,OnStreet,CH*SWIEE44393,+41713881150,True,0,Flughafen Zürich,Parking 4,CHE,,0,Direct,True,"[{'Power': 11, 'PowerType': 'AC_3_PHASE'}]",False,"[{'lang': 'de', 'value': 'The Circle'}]",CH*SWIEE146353,Free publicly accessible,true,47.449664 8.565599,,,,,insert,,UTC+01:00,CH*SWISSCHARGE
Feature,CH*SWIEE55460,Point,"[8.565599, 47.449664]",evse,CH*SWIEE55460,Available,2024-03-22 03:15:09.671000+00:00,None,Type 2 Outlet,,,CH*SWISSCHARGE,"['NFC RFID Classic', 'REMOTE']",Not Available,OnStreet,CH*SWIEE44393,+41713881150,True,0,Flughafen Zürich,Parking 4,CHE,,0,Direct,True,"[{'Power': 11, 'PowerType': 'AC_3_PHASE'}]",False,"[{'lang': 'de', 'value': 'The Circle'}]",CH*SWIEE55460,Free publicly accessible,true,47.449664 8.565599,,,,,insert,,UTC+01:00,CH*SWISSCHARGE
Feature,CH*SWIEE146354,Point,"[8.565599, 47.449664]",evse,CH*SWIEE146354,Available,2024-03-22 03:15:09.671000+00:00,None,Type 2 Outlet,,,CH*SWISSCHARGE,"['NFC RFID Classic', 'REMOTE']",Not Available,OnStreet,CH*SWIEE44393,+41713881150,True,0,Flughafen Zürich,Parking 4,CHE,,0,Direct,True,"[{'Power': 11, 'PowerType': 'AC_3_PHASE'}]",False,"[{'lang': 'de', 'value': 'The Circle'}]",CH*SWIEE146354,Free publicly accessible,true,47.449664 8.565599,,,,,insert,,UTC+01:00,CH*SWISSCHARGE
Feature,CH*SWIEE146357,Point,"[8.565599, 47.449664]",evse,CH*SWIEE146357,Available,2024-03-22 03:15:09.671000+00:00,None,Type 2 Outlet,,,CH*SWISSCHARGE,"['NFC RFID Classic', 'REMOTE']",Not Available,OnStreet,CH*SWIEE44393,+41713881150,True,0,Flughafen Zürich,Parking 4,CHE,,0,Direct,True,"[{'Power': 11, 'PowerType': 'AC_3_PHASE'}]",False,"[{'lang': 'de', 'value': 'The Circle'}]",CH*SWIEE146357,Free publicly accessible,true,47.449664 8.565599,,,,,insert,,UTC+01:00,CH*SWISSCHARGE
Feature,CH*SWIEE4594,Point,"[8.5585058, 47.3707157]",evse,CH*SWIEE4594,Available,2024-03-22 03:15:09.673000+00:00,None,Type 2 Outlet,,,CH*SWISSCHARGE,"['NFC RFID Classic', 'REMOTE']",Not Available,OnStreet,CH*SWIEE4594,+41713881150,True,0,Zürich,Dolderstrasse 39,CHE,,0,Direct,True,"[{'Power': 11, 'PowerType': 'AC_3_PHASE'}]",False,"[{'lang': 'de', 'value': 'Kinderspital Zürich'}]",CH*SWIEE4594,Free publicly accessible,true,47.3707157 8.5585058,,,,,insert,,UTC+01:00,CH*SWISSCHARGE
Feature,CH*SWIEE4595,Point,"[8.5585058, 47.3707157]",evse,CH*SWIEE4595,Available,2024-03-22 03:15:09.673000+00:00,None,Type 2 Outlet,,,CH*SWISSCHARGE,"['NFC RFID Classic', 'REMOTE']",Not Available,OnStreet,CH*SWIEE4594,+41713881150,True,0,Zürich,Dolderstrasse 39,CHE,,0,Direct,True,"[{'Power': 11, 'PowerType': 'AC_3_PHASE'}]",False,"[{'lang': 'de', 'value': 'Kinderspital Zürich'}]",CH*SWIEE4595,Free publicly accessible,true,47.3707157 8.5585058,,,,,insert,,UTC+01:00,CH*SWISSCHARGE
Feature,CH*SWIEE56847,Point,"[8.531979, 47.402214]",evse,CH*SWIEE56847,Available,2024-03-22 03:15:09.683000+00:00,None,Type 2 Outlet,,,CH*SWISSCHARGE,"['NFC RFID Classic', 'REMOTE']",Not Available,OnStreet,CH*SWIEE56847,+41713881150,True,0,Zürich,Käferholzstrasse 40,CHE,,0,Direct,True,"[{'Power': 22, 'PowerType': 'AC_3_PHASE'}]",False,"[{'lang': 'de', 'value': 'Guggachpark'}]",CH*SWIEE56847,Free publicly accessible,true,47.402214 8.531979,,,,,insert,,UTC+01:00,CH*SWISSCHARGE
Feature,CH*SWIEE56848,Point,"[8.531979, 47.402214]",evse,CH*SWIEE56848,Available,2024-03-22 03:15:09.683000+00:00,None,Type 2 Outlet,,,CH*SWISSCHARGE,"['NFC RFID Classic', 'REMOTE']",Not Available,OnStreet,CH*SWIEE56847,+41713881150,True,0,Zürich,Käferholzstrasse 40,CHE,,0,Direct,True,"[{'Power': 22, 'PowerType': 'AC_3_PHASE'}]",False,"[{'lang': 'de', 'value': 'Guggachpark'}]",CH*SWIEE56848,Free publicly accessible,true,47.402214 8.531979,,,,,insert,,UTC+01:00,CH*SWISSCHARGE
Feature,CH*SWIEE57847,Point,"[8.540855, 47.413347]",evse,CH*SWIEE57847,Available,2024-03-22 03:15:09.684000+00:00,None,Type 2 Outlet,,,CH*SWISSCHARGE,"['NFC RFID Classic', 'REMOTE']",Not Available,OnStreet,CH*SWIEE57847,+41713881150,True,0,Zürich,Sophie-Taeuber-Strasse 4,CHE,,0,Direct,True,"[{'Power': 11, 'PowerType': 'AC_3_PHASE'}]",False,"[{'lang': 'de', 'value': 'Parkhaus Center Eleven P3 vor Eingang'}]",CH*SWIEE57847,Free publicly accessible,true,47.413347 8.540855,,,,,insert,,UTC+01:00,CH*SWISSCHARGE
Feature,CH*SWIEE57852,Point,"[8.540855, 47.413347]",evse,CH*SWIEE57852,Available,2024-03-22 03:15:09.684000+00:00,None,Type 2 Outlet,,,CH*SWISSCHARGE,"['NFC RFID Classic', 'REMOTE']",Not Available,OnStreet,CH*SWIEE57847,+41713881150,True,0,Zürich,Sophie-Taeuber-Strasse 4,CHE,,0,Direct,True,"[{'Power': 11, 'PowerType': 'AC_3_PHASE'}]",False,"[{'lang': 'de', 'value': 'Parkhaus Center Eleven P3 vor Eingang'}]",CH*SWIEE57852,Free publicly accessible,true,47.413347 8.540855,,,,,insert,,UTC+01:00,CH*SWISSCHARGE
Feature,CH*SWIEE57848,Point,"[8.540855, 47.413347]",evse,CH*SWIEE57848,Occupied,2024-03-22 03:15:09.684000+00:00,None,Type 2 Outlet,,,CH*SWISSCHARGE,"['NFC RFID Classic', 'REMOTE']",Not Available,OnStreet,CH*SWIEE57847,+41713881150,True,0,Zürich,Sophie-Taeuber-Strasse 4,CHE,,0,Direct,True,"[{'Power': 11, 'PowerType': 'AC_3_PHASE'}]",False,"[{'lang': 'de', 'value': 'Parkhaus Center Eleven P3 vor Eingang'}]",CH*SWIEE57848,Free publicly accessible,true,47.413347 8.540855,,,,,insert,,UTC+01:00,CH*SWISSCHARGE
Feature,CH*SWIEE57850,Point,"[8.540855, 47.413347]",evse,CH*SWIEE57850,Available,2024-03-22 03:15:09.684000+00:00,None,Type 2 Outlet,,,CH*SWISSCHARGE,"['NFC RFID Classic', 'REMOTE']",Not Available,OnStreet,CH*SWIEE57847,+41713881150,True,0,Zürich,Sophie-Taeuber-Strasse 4,CHE,,0,Direct,True,"[{'Power': 11, 'PowerType': 'AC_3_PHASE'}]",False,"[{'lang': 'de', 'value': 'Parkhaus Center Eleven P3 vor Eingang'}]",CH*SWIEE57850,Free publicly accessible,true,47.413347 8.540855,,,,,insert,,UTC+01:00,CH*SWISSCHARGE
Feature,CH*SWIEE57849,Point,"[8.540855, 47.413347]",evse,CH*SWIEE57849,Occupied,2024-03-22 03:15:09.684000+00:00,None,Type 2 Outlet,,,CH*SWISSCHARGE,"['NFC RFID Classic', 'REMOTE']",Not Available,OnStreet,CH*SWIEE57847,+41713881150,True,0,Zürich,Sophie-Taeuber-Strasse 4,CHE,,0,Direct,True,"[{'Power': 11, 'PowerType': 'AC_3_PHASE'}]",False,"[{'lang': 'de', 'value': 'Parkhaus Center Eleven P3 vor Eingang'}]",CH*SWIEE57849,Free publicly accessible,true,47.413347 8.540855,,,,,insert,,UTC+01:00,CH*SWISSCHARGE
Feature,CH*SWIEE57851,Point,"[8.540855, 47.413347]",evse,CH*SWIEE57851,Available,2024-03-22 03:15:09.684000+00:00,None,Type 2 Outlet,,,CH*SWISSCHARGE,"['NFC RFID Classic', 'REMOTE']",Not Available,OnStreet,CH*SWIEE57847,+41713881150,True,0,Zürich,Sophie-Taeuber-Strasse 4,CHE,,0,Direct,True,"[{'Power': 11, 'PowerType': 'AC_3_PHASE'}]",False,"[{'lang': 'de', 'value': 'Parkhaus Center Eleven P3 vor Eingang'}]",CH*SWIEE57851,Free publicly accessible,true,47.413347 8.540855,,,,,insert,,UTC+01:00,CH*SWISSCHARGE
Feature,CH*SWIEE66725,Point,"[8.56559901, 47.449664]",evse,CH*SWIEE66725,Occupied,2024-03-22 03:15:09.702000+00:00,None,Type 2 Outlet,,,CH*SWISSCHARGE,"['NFC RFID Classic', 'REMOTE']",Not Available,OnStreet,CH*SWIEE66725,+41713881150,True,0,Flughafen Zürich,Parking 4,CHE,,0,Direct,True,"[{'Power': 11, 'PowerType': 'AC_3_PHASE'}]",False,"[{'lang': 'de', 'value': 'The Circle PP551'}]",CH*SWIEE66725,Free publicly accessible,true,47.449664 8.56559901,,,,,insert,,UTC+01:00,CH*SWISSCHARGE
Feature,CH*SWIEE66726,Point,"[8.56559901, 47.449664]",evse,CH*SWIEE66726,Available,2024-03-22 03:15:09.702000+00:00,None,Type 2 Outlet,,,CH*SWISSCHARGE,"['NFC RFID Classic', 'REMOTE']",Not Available,OnStreet,CH*SWIEE66725,+41713881150,True,0,Flughafen Zürich,Parking 4,CHE,,0,Direct,True,"[{'Power': 11, 'PowerType': 'AC_3_PHASE'}]",False,"[{'lang': 'de', 'value': 'The Circle PP551'}]",CH*SWIEE66726,Free publicly accessible,true,47.449664 8.56559901,,,,,insert,,UTC+01:00,CH*SWISSCHARGE
Feature,CH*SWIEE67436,Point,"[8.5241657, 47.390026]",evse,CH*SWIEE67436,Available,2024-03-22 03:15:09.702000+00:00,None,Type 2 Outlet,,,CH*SWISSCHARGE,"['NFC RFID Classic', 'REMOTE']",Not Available,OnStreet,CH*SWIEE67436,+41713881150,True,0,Zürich,Limmatstrasse 310,CHE,,0,Direct,True,"[{'Power': 22, 'PowerType': 'AC_3_PHASE'}]",False,"[{'lang': 'de', 'value': 'ewz Limmatstrasse 310 Zürich'}]",CH*SWIEE67436,Free publicly accessible,true,47.390026 8.5241657,,,,,insert,,UTC+01:00,CH*SWISSCHARGE
Feature,CH*SWIEE67439,Point,"[8.5241657, 47.390026]",evse,CH*SWIEE67439,Occupied,2024-03-22 03:15:09.702000+00:00,None,Type 2 Outlet,,,CH*SWISSCHARGE,"['NFC RFID Classic', 'REMOTE']",Not Available,OnStreet,CH*SWIEE67436,+41713881150,True,0,Zürich,Limmatstrasse 310,CHE,,0,Direct,True,"[{'Power': 22, 'PowerType': 'AC_3_PHASE'}]",False,"[{'lang': 'de', 'value': 'ewz Limmatstrasse 310 Zürich'}]",CH*SWIEE67439,Free publicly accessible,true,47.390026 8.5241657,,,,,insert,,UTC+01:00,CH*SWISSCHARGE
Feature,CH*SWIEE67441,Point,"[8.5241657, 47.390026]",evse,CH*SWIEE67441,Occupied,2024-03-22 03:15:09.702000+00:00,None,Type 2 Outlet,,,CH*SWISSCHARGE,"['NFC RFID Classic', 'REMOTE']",Not Available,OnStreet,CH*SWIEE67436,+41713881150,True,0,Zürich,Limmatstrasse 310,CHE,,0,Direct,True,"[{'Power': 22, 'PowerType': 'AC_3_PHASE'}]",False,"[{'lang': 'de', 'value': 'ewz Limmatstrasse 310 Zürich'}]",CH*SWIEE67441,Free publicly accessible,true,47.390026 8.5241657,,,,,insert,,UTC+01:00,CH*SWISSCHARGE
Feature,CH*SWIEE67437,Point,"[8.5241657, 47.390026]",evse,CH*SWIEE67437,Occupied,2024-03-22 03:15:09.702000+00:00,None,Type 2 Outlet,,,CH*SWISSCHARGE,"['NFC RFID Classic', 'REMOTE']",Not Available,OnStreet,CH*SWIEE67436,+41713881150,True,0,Zürich,Limmatstrasse 310,CHE,,0,Direct,True,"[{'Power': 22, 'PowerType': 'AC_3_PHASE'}]",False,"[{'lang': 'de', 'value': 'ewz Limmatstrasse 310 Zürich'}]",CH*SWIEE67437,Free publicly accessible,true,47.390026 8.5241657,,,,,insert,,UTC+01:00,CH*SWISSCHARGE
Feature,CH*SWIEE67438,Point,"[8.5241657, 47.390026]",evse,CH*SWIEE67438,Occupied,2024-03-22 03:15:09.702000+00:00,None,Type 2 Outlet,,,CH*SWISSCHARGE,"['NFC RFID Classic', 'REMOTE']",Not Available,OnStreet,CH*SWIEE67436,+41713881150,True,0,Zürich,Limmatstrasse 310,CHE,,0,Direct,True,"[{'Power': 22, 'PowerType': 'AC_3_PHASE'}]",False,"[{'lang': 'de', 'value': 'ewz Limmatstrasse 310 Zürich'}]",CH*SWIEE67438,Free publicly accessible,true,47.390026 8.5241657,,,,,insert,,UTC+01:00,CH*SWISSCHARGE
Feature,CH*SWIEE67440,Point,"[8.5241657, 47.390026]",evse,CH*SWIEE67440,Available,2024-03-22 03:15:09.702000+00:00,None,Type 2 Outlet,,,CH*SWISSCHARGE,"['NFC RFID Classic', 'REMOTE']",Not Available,OnStreet,CH*SWIEE67436,+41713881150,True,0,Zürich,Limmatstrasse 310,CHE,,0,Direct,True,"[{'Power': 22, 'PowerType': 'AC_3_PHASE'}]",False,"[{'lang': 'de', 'value': 'ewz Limmatstrasse 310 Zürich'}]",CH*SWIEE67440,Free publicly accessible,true,47.390026 8.5241657,,,,,insert,,UTC+01:00,CH*SWISSCHARGE
Feature,CH*SWIEE67442,Point,"[8.5241657, 47.390026]",evse,CH*SWIEE67442,Available,2024-03-22 03:15:09.702000+00:00,None,Type 2 Outlet,,,CH*SWISSCHARGE,"['NFC RFID Classic', 'REMOTE']",Not Available,OnStreet,CH*SWIEE67436,+41713881150,True,0,Zürich,Limmatstrasse 310,CHE,,0,Direct,True,"[{'Power': 22, 'PowerType': 'AC_3_PHASE'}]",False,"[{'lang': 'de', 'value': 'ewz Limmatstrasse 310 Zürich'}]",CH*SWIEE67442,Free publicly accessible,true,47.390026 8.5241657,,,,,insert,,UTC+01:00,CH*SWISSCHARGE
Feature,CH*SWIEE67444,Point,"[8.5241657, 47.390026]",evse,CH*SWIEE67444,Available,2024-03-22 03:15:09.702000+00:00,None,Type 2 Outlet,,,CH*SWISSCHARGE,"['NFC RFID Classic', 'REMOTE']",Not Available,OnStreet,CH*SWIEE67436,+41713881150,True,0,Zürich,Limmatstrasse 310,CHE,,0,Direct,True,"[{'Power': 22, 'PowerType': 'AC_3_PHASE'}]",False,"[{'lang': 'de', 'value': 'ewz Limmatstrasse 310 Zürich'}]",CH*SWIEE67444,Free publicly accessible,true,47.390026 8.5241657,,,,,insert,,UTC+01:00,CH*SWISSCHARGE
Feature,CH*SWIEE67443,Point,"[8.5241657, 47.390026]",evse,CH*SWIEE67443,Available,2024-03-22 03:15:09.702000+00:00,None,Type 2 Outlet,,,CH*SWISSCHARGE,"['NFC RFID Classic', 'REMOTE']",Not Available,OnStreet,CH*SWIEE67436,+41713881150,True,0,Zürich,Limmatstrasse 310,CHE,,0,Direct,True,"[{'Power': 22, 'PowerType': 'AC_3_PHASE'}]",False,"[{'lang': 'de', 'value': 'ewz Limmatstrasse 310 Zürich'}]",CH*SWIEE67443,Free publicly accessible,true,47.390026 8.5241657,,,,,insert,,UTC+01:00,CH*SWISSCHARGE
Feature,CH*SWIEE68291,Point,"[8.57565844, 47.38677963]",evse,CH*SWIEE68291,Available,2024-03-22 03:15:09.703000+00:00,None,"['CCS Combo 2 Plug (Cable Attached)', 'CHAdeMO']",,,CH*SWISSCHARGE,"['NFC RFID Classic', 'REMOTE']",Not Available,OnStreet,CH*SWIEE68290,+41713881150,True,0,Zürich,Klosterweg 34,CHE,,0,Direct,True,"[{'Power': 50, 'PowerType': 'DC'}, {'Power': 50, 'PowerType': 'DC'}]",False,"[{'lang': 'de', 'value': 'ewz Klosterweg 34 DC'}]",CH*SWIEE68291,Free publicly accessible,true,47.38677963 8.57565844,,,,,insert,,UTC+01:00,CH*SWISSCHARGE
Feature,CH*SWIEE7906,Point,"[8.491455, 47.390569]",evse,CH*SWIEE7906,Occupied,2024-03-22 03:15:09.705000+00:00,None,CHAdeMO,,,CH*SWISSCHARGE,"['NFC RFID Classic', 'REMOTE']",Not Available,OnStreet,CH*SWIEE7905,+41713881150,True,8048,Zürich,"Socar Tankstelle, Hohlstrasse 554",CHE,,0,Direct,True,"[{'Power': 50, 'PowerType': 'DC'}]",False,"[{'lang': 'de', 'value': 'GOFAST Zürich-Altstetten'}]",CH*SWIEE7906,Free publicly accessible,true,47.390569 8.491455,,,,,insert,,UTC+01:00,CH*SWISSCHARGE
Feature,CH*SWIEE7907,Point,"[8.491455, 47.390569]",evse,CH*SWIEE7907,Available,2024-03-22 03:15:09.705000+00:00,None,CCS Combo 2 Plug (Cable Attached),,,CH*SWISSCHARGE,"['NFC RFID Classic', 'REMOTE']",Not Available,OnStreet,CH*SWIEE7905,+41713881150,True,8048,Zürich,"Socar Tankstelle, Hohlstrasse 554",CHE,,0,Direct,True,"[{'Power': 100, 'PowerType': 'DC'}]",False,"[{'lang': 'de', 'value': 'GOFAST Zürich-Altstetten'}]",CH*SWIEE7907,Free publicly accessible,true,47.390569 8.491455,,,,,insert,,UTC+01:00,CH*SWISSCHARGE
Feature,CH*SWIEE68290,Point,"[8.57565844, 47.38677963]",evse,CH*SWIEE68290,Occupied,2024-03-22 03:15:09.703000+00:00,None,Type 2 Outlet,,,CH*SWISSCHARGE,"['NFC RFID Classic', 'REMOTE']",Not Available,OnStreet,CH*SWIEE68290,+41713881150,True,0,Zürich,Klosterweg 34,CHE,,0,Direct,True,"[{'Power': 22, 'PowerType': 'AC_3_PHASE'}]",False,"[{'lang': 'de', 'value': 'ewz Klosterweg 34 DC'}]",CH*SWIEE68290,Free publicly accessible,true,47.38677963 8.57565844,,,,,insert,,UTC+01:00,CH*SWISSCHARGE
Feature,CH*SWIEE70144,Point,"[8.518156, 47.415164]",evse,CH*SWIEE70144,Available,2024-03-22 03:15:09.704000+00:00,None,CCS Combo 2 Plug (Cable Attached),,,CH*SWISSCHARGE,"['NFC RFID Classic', 'REMOTE']",Not Available,OnStreet,CH*SWIEE70144,+41713881150,True,0,Zürich,Fronwaldstrasse 15,CHE,,0,Direct,True,"[{'Power': 24, 'PowerType': 'DC'}]",False,"[{'lang': 'de', 'value': 'Hürstwald-Garage AG'}]",CH*SWIEE70144,Free publicly accessible,true,47.415164 8.518156,,,,,insert,,UTC+01:00,CH*SWISSCHARGE
Feature,CH*SWIEE7905,Point,"[8.491455, 47.390569]",evse,CH*SWIEE7905,Occupied,2024-03-22 03:15:09.705000+00:00,None,CCS Combo 2 Plug (Cable Attached),,,CH*SWISSCHARGE,"['NFC RFID Classic', 'REMOTE']",Not Available,OnStreet,CH*SWIEE7905,+41713881150,True,8048,Zürich,"Socar Tankstelle, Hohlstrasse 554",CHE,,0,Direct,True,"[{'Power': 100, 'PowerType': 'DC'}]",False,"[{'lang': 'de', 'value': 'GOFAST Zürich-Altstetten'}]",CH*SWIEE7905,Free publicly accessible,true,47.390569 8.491455,,,,,insert,,UTC+01:00,CH*SWISSCHARGE
Feature,CH*SWIEE80605,Point,"[8.5741368, 47.37321196]",evse,CH*SWIEE80605,Occupied,2024-03-22 03:15:09.706000+00:00,None,Type 2 Outlet,,,CH*SWISSCHARGE,"['NFC RFID Classic', 'REMOTE']",Not Available,OnStreet,CH*SWIEE80604,+41713881150,True,0,Zürich,Kurhausstrasse 65,CHE,,0,Direct,True,"[{'Power': 22, 'PowerType': 'AC_3_PHASE'}]",False,"[{'lang': 'de', 'value': 'THE DOLDER GRAND'}]",CH*SWIEE80605,Free publicly accessible,true,47.37321196 8.5741368,,,,,insert,,UTC+01:00,CH*SWISSCHARGE
Feature,CH*SWIEE80729,Point,"[8.5741368, 47.37321196]",evse,CH*SWIEE80729,Occupied,2024-03-22 03:15:09.706000+00:00,None,Type 2 Outlet,,,CH*SWISSCHARGE,"['NFC RFID Classic', 'REMOTE']",Not Available,OnStreet,CH*SWIEE80604,+41713881150,True,0,Zürich,Kurhausstrasse 65,CHE,,0,Direct,True,"[{'Power': 22, 'PowerType': 'AC_3_PHASE'}]",False,"[{'lang': 'de', 'value': 'THE DOLDER GRAND'}]",CH*SWIEE80729,Free publicly accessible,true,47.37321196 8.5741368,,,,,insert,,UTC+01:00,CH*SWISSCHARGE
Feature,CH*SWIEE89879,Point,"[8.544949, 47.394855]",evse,CH*SWIEE89879,Available,2024-03-22 03:15:09.711000+00:00,None,Type 2 Outlet,,,CH*SWISSCHARGE,"['NFC RFID Classic', 'REMOTE']",Not Available,OnStreet,CH*SWIEE89879,+41713881150,True,0,Zürich,Winterthurerstrasse 147,CHE,,0,Direct,True,"[{'Power': 22, 'PowerType': 'AC_3_PHASE'}]",False,"[{'lang': 'de', 'value': 'ewz Winterthurerstrasse 147'}]",CH*SWIEE89879,Free publicly accessible,true,47.394855 8.544949,,,,,insert,,UTC+01:00,CH*SWISSCHARGE
Feature,CH*SWIEE92371,Point,"[8.48892832, 47.38775477]",evse,CH*SWIEE92371,Occupied,2024-03-22 03:15:09.712000+00:00,None,Type 2 Outlet,,,CH*SWISSCHARGE,"['NFC RFID Classic', 'REMOTE']",Not Available,OnStreet,CH*SWIEE92370,+41713881150,True,0,Zürich ,Saumackerstrasse 35,CHE,,0,Direct,True,"[{'Power': 22, 'PowerType': 'AC_3_PHASE'}]",False,"[{'lang': 'de', 'value': 'Solidapark, Saumackerstrasse 35, Zürich PP31/32'}]",CH*SWIEE92371,Free publicly accessible,true,47.38775477 8.48892832,,,,,insert,,UTC+01:00,CH*SWISSCHARGE
Feature,CH*SWIEE89880,Point,"[8.544949, 47.394855]",evse,CH*SWIEE89880,Available,2024-03-22 03:15:09.711000+00:00,None,"['CCS Combo 2 Plug (Cable Attached)', 'CHAdeMO']",,,CH*SWISSCHARGE,"['NFC RFID Classic', 'REMOTE']",Not Available,OnStreet,CH*SWIEE89879,+41713881150,True,0,Zürich,Winterthurerstrasse 147,CHE,,0,Direct,True,"[{'Power': 50, 'PowerType': 'DC'}, {'Power': 50, 'PowerType': 'DC'}]",False,"[{'lang': 'de', 'value': 'ewz Winterthurerstrasse 147'}]",CH*SWIEE89880,Free publicly accessible,true,47.394855 8.544949,,,,,insert,,UTC+01:00,CH*SWISSCHARGE
Feature,CH*SWIEE92477,Point,"[8.537237, 47.381394]",evse,CH*SWIEE92477,Occupied,2024-03-22 03:15:09.712000+00:00,None,Type 2 Outlet,,,CH*SWISSCHARGE,"['NFC RFID Classic', 'REMOTE']",Not Available,OnStreet,CH*SWIEE92477,+41713881150,True,0,Zürich,Ausstellungsstrasse 17,CHE,,0,Direct,True,"[{'Power': 43, 'PowerType': 'AC_3_PHASE'}]",False,"[{'lang': 'de', 'value': 'ewz Ausstellungsstrasse 17'}]",CH*SWIEE92477,Free publicly accessible,true,47.381394 8.537237,,,,,insert,,UTC+01:00,CH*SWISSCHARGE
Feature,CH*SWIEE92378,Point,"[8.5483879, 47.4121853]",evse,CH*SWIEE92378,Available,2024-03-22 03:15:09.712000+00:00,None,Type 2 Outlet,,,CH*SWISSCHARGE,"['NFC RFID Classic', 'REMOTE']",Not Available,OnStreet,CH*SWIEE92378,+41713881150,True,0,Zürich,Siewerdtstrasse 8,CHE,,0,Direct,True,"[{'Power': 22, 'PowerType': 'AC_3_PHASE'}]",False,"[{'lang': 'de', 'value': 'Zürich Parking Nordhaus PP103'}]",CH*SWIEE92378,Free publicly accessible,true,47.4121853 8.5483879,,,,,insert,,UTC+01:00,CH*SWISSCHARGE
Feature,CH*SWIEE92376,Point,"[8.5483879, 47.4121853]",evse,CH*SWIEE92376,Available,2024-03-22 03:15:09.712000+00:00,None,Type 2 Outlet,,,CH*SWISSCHARGE,"['NFC RFID Classic', 'REMOTE']",Not Available,OnStreet,CH*SWIEE92378,+41713881150,True,0,Zürich,Siewerdtstrasse 8,CHE,,0,Direct,True,"[{'Power': 22, 'PowerType': 'AC_3_PHASE'}]",False,"[{'lang': 'de', 'value': 'Zürich Parking Nordhaus PP103'}]",CH*SWIEE92376,Free publicly accessible,true,47.4121853 8.5483879,,,,,insert,,UTC+01:00,CH*SWISSCHARGE
Feature,CH*SWIEE93670,Point,"[8.537237, 47.381394]",evse,CH*SWIEE93670,Available,2024-03-22 03:15:09.712000+00:00,None,Type 2 Outlet,,,CH*SWISSCHARGE,"['NFC RFID Classic', 'REMOTE']",Not Available,OnStreet,CH*SWIEE92477,+41713881150,True,0,Zürich,Ausstellungsstrasse 17,CHE,,0,Direct,True,"[{'Power': 43, 'PowerType': 'AC_3_PHASE'}]",False,"[{'lang': 'de', 'value': 'ewz Ausstellungsstrasse 17'}]",CH*SWIEE93670,Free publicly accessible,true,47.381394 8.537237,,,,,insert,,UTC+01:00,CH*SWISSCHARGE
Feature,CH*SWIEE92370,Point,"[8.48892832, 47.38775477]",evse,CH*SWIEE92370,Available,2024-03-22 03:15:09.712000+00:00,None,Type 2 Outlet,,,CH*SWISSCHARGE,"['NFC RFID Classic', 'REMOTE']",Not Available,OnStreet,CH*SWIEE92370,+41713881150,True,0,Zürich ,Saumackerstrasse 35,CHE,,0,Direct,True,"[{'Power': 22, 'PowerType': 'AC_3_PHASE'}]",False,"[{'lang': 'de', 'value': 'Solidapark, Saumackerstrasse 35, Zürich PP31/32'}]",CH*SWIEE92370,Free publicly accessible,true,47.38775477 8.48892832,,,,,insert,,UTC+01:00,CH*SWISSCHARGE
Feature,CH*SWIEE92377,Point,"[8.5483879, 47.4121853]",evse,CH*SWIEE92377,Available,2024-03-22 03:15:09.712000+00:00,None,Type 2 Outlet,,,CH*SWISSCHARGE,"['NFC RFID Classic', 'REMOTE']",Not Available,OnStreet,CH*SWIEE92378,+41713881150,True,0,Zürich,Siewerdtstrasse 8,CHE,,0,Direct,True,"[{'Power': 22, 'PowerType': 'AC_3_PHASE'}]",False,"[{'lang': 'de', 'value': 'Zürich Parking Nordhaus PP103'}]",CH*SWIEE92377,Free publicly accessible,true,47.4121853 8.5483879,,,,,insert,,UTC+01:00,CH*SWISSCHARGE
Feature,CH*SWIEE92478,Point,"[8.537237, 47.381394]",evse,CH*SWIEE92478,Available,2024-03-22 03:15:09.712000+00:00,None,"['CCS Combo 2 Plug (Cable Attached)', 'CHAdeMO']",,,CH*SWISSCHARGE,"['NFC RFID Classic', 'REMOTE']",Not Available,OnStreet,CH*SWIEE92477,+41713881150,True,0,Zürich,Ausstellungsstrasse 17,CHE,,0,Direct,True,"[{'Power': 50, 'PowerType': 'DC'}, {'Power': 50, 'PowerType': 'DC'}]",False,"[{'lang': 'de', 'value': 'ewz Ausstellungsstrasse 17'}]",CH*SWIEE92478,Free publicly accessible,true,47.381394 8.537237,,,,,insert,,UTC+01:00,CH*SWISSCHARGE
Feature,CH*SWIEE93671,Point,"[8.537237, 47.381394]",evse,CH*SWIEE93671,Available,2024-03-22 03:15:09.712000+00:00,None,"['CCS Combo 2 Plug (Cable Attached)', 'CHAdeMO']",,,CH*SWISSCHARGE,"['NFC RFID Classic', 'REMOTE']",Not Available,OnStreet,CH*SWIEE92477,+41713881150,True,0,Zürich,Ausstellungsstrasse 17,CHE,,0,Direct,True,"[{'Power': 50, 'PowerType': 'DC'}, {'Power': 50, 'PowerType': 'DC'}]",False,"[{'lang': 'de', 'value': 'ewz Ausstellungsstrasse 17'}]",CH*SWIEE93671,Free publicly accessible,true,47.381394 8.537237,,,,,insert,,UTC+01:00,CH*SWISSCHARGE
Feature,CH*SWIEE9933,Point,"[8.554646, 47.364207]",evse,CH*SWIEE9933,Available,2024-03-22 03:15:09.716000+00:00,None,Type 2 Outlet,,,CH*SWISSCHARGE,"['NFC RFID Classic', 'REMOTE']",Not Available,OnStreet,CH*SWIEE9933,+41713881150,True,8008,Zürich,Zollikerstrasse 1,CHE,,0,Direct,True,"[{'Power': 22, 'PowerType': 'AC_3_PHASE'}]",False,"[{'lang': 'de', 'value': 'Energie 360° Parkhaus Neumünster'}]",CH*SWIEE9933,Free publicly accessible,true,47.364207 8.554646,,,,,insert,,UTC+01:00,CH*SWISSCHARGE
Feature,CH*SWIEE9974,Point,"[8.573595, 47.351939]",evse,CH*SWIEE9974,Available,2024-03-22 03:15:09.716000+00:00,None,Type 2 Outlet,,,CH*SWISSCHARGE,"['NFC RFID Classic', 'REMOTE']",Not Available,OnStreet,CH*SWIEE9973,+41713881150,True,8008,Zürich,Lengghalde 2,CHE,,0,Direct,True,"[{'Power': 11, 'PowerType': 'AC_3_PHASE'}]",False,"[{'lang': 'de', 'value': 'Energie 360° Schulthess Klinik'}]",CH*SWIEE9974,Free publicly accessible,true,47.351939 8.573595,,,,,insert,,UTC+01:00,CH*SWISSCHARGE
Feature,CH*SWIEE9437,Point,"[8.52306, 47.379579]",evse,CH*SWIEE9437,Available,2024-03-22 03:15:09.714000+00:00,None,Type 2 Outlet,,,CH*SWISSCHARGE,"['NFC RFID Classic', 'REMOTE']",Not Available,OnStreet,CH*SWIEE9437,+41713881150,True,0,Zürich,Hohlstrasse 100/104,CHE,,0,Direct,True,"[{'Power': 22, 'PowerType': 'AC_3_PHASE'}]",False,"[{'lang': 'de', 'value': 'Energie 360° Rand- und Hofgebäude Zürich'}]",CH*SWIEE9437,Free publicly accessible,true,47.379579 8.52306,,,,,insert,,UTC+01:00,CH*SWISSCHARGE
Feature,CH*SWIEE9934,Point,"[8.554646, 47.364207]",evse,CH*SWIEE9934,Available,2024-03-22 03:15:09.716000+00:00,None,Type 2 Outlet,,,CH*SWISSCHARGE,"['NFC RFID Classic', 'REMOTE']",Not Available,OnStreet,CH*SWIEE9933,+41713881150,True,8008,Zürich,Zollikerstrasse 1,CHE,,0,Direct,True,"[{'Power': 22, 'PowerType': 'AC_3_PHASE'}]",False,"[{'lang': 'de', 'value': 'Energie 360° Parkhaus Neumünster'}]",CH*SWIEE9934,Free publicly accessible,true,47.364207 8.554646,,,,,insert,,UTC+01:00,CH*SWISSCHARGE
Feature,CH*SWIEE9973,Point,"[8.573595, 47.351939]",evse,CH*SWIEE9973,Available,2024-03-22 03:15:09.716000+00:00,None,Type 2 Outlet,,,CH*SWISSCHARGE,"['NFC RFID Classic', 'REMOTE']",Not Available,OnStreet,CH*SWIEE9973,+41713881150,True,8008,Zürich,Lengghalde 2,CHE,,0,Direct,True,"[{'Power': 11, 'PowerType': 'AC_3_PHASE'}]",False,"[{'lang': 'de', 'value': 'Energie 360° Schulthess Klinik'}]",CH*SWIEE9973,Free publicly accessible,true,47.351939 8.573595,,,,,insert,,UTC+01:00,CH*SWISSCHARGE
